City,Town,Level,ID,Name,Mark,Address,Tel,IP
新北市,貢寮區,國小,14809,市立豐珠國(中)小,偏遠,[228]新北市貢寮區美豐里雞母嶺街6-6號,(02)24903727,http://www.fjjh.ntpc.edu.tw
新北市,鶯歌區,國小,14621,市立二橋國小,偏遠,[239]新北市鶯歌區二橋里中正三路106號,(02)26792364,http://www.eqes.ntpc.edu.tw
新北市,鶯歌區,國小,14622,市立中湖國小,偏遠,[239]新北市鶯歌區中湖里中湖街25號,(02)86775640,http://www.chues.ntpc.edu.tw
新北市,三峽區,國小,14625,市立大埔國小,偏遠,[237]新北市三峽區大埔路130號,(02)26712523,http://www.tpps.ntpc.edu.tw
新北市,三峽區,國小,14626,市立民義國小,偏遠,[237]新北市三峽區嘉添里白雞路40號,(02)26711895,http://www.myes.ntpc.edu.tw/default.asp
新北市,三峽區,國小,14627,市立成福國小,偏遠,[237]新北市三峽區溪東里溪東路213號,(02)86764945,http://www.chenfu.ntpc.edu.tw
新北市,三峽區,國小,14628,市立大成國小,偏遠,[237]新北市三峽區成福路251巷二號,(02)26726521,http://www.dces.ntpc.edu.tw
新北市,三峽區,國小,14629,市立建安國小,偏遠,[237]新北市三峽區安坑里建安路67號,(02)26726783,http://www.caes.ntpc.edu.tw
新北市,三峽區,國小,14630,市立插角國小,偏遠,[237]新北市三峽區插角里插角路39號,(02)26720230,http://www.cgps.ntpc.edu.tw
新北市,三峽區,國小,14631,市立有木國小,偏遠,[237]新北市三峽區有木里131號,(02)26720067,http://www.ymps.ntpc.edu.tw
新北市,三峽區,國小,14632,市立五寮國小,偏遠,[237]新北市三峽區五寮里69號,(02)26720298,http://www.wres.ntpc.edu.tw
新北市,汐止區,國小,14652,市立保長國小,偏遠,[221]新北市汐止區大同路三段553號,(02)86482502,http://www.bjes.ntpc.edu.tw
新北市,汐止區,國小,14656,市立東山國小,偏遠,[221]新北市汐止區東山里汐平路二段76號,(02)26416170,http://www.dsps.ntpc.edu.tw
新北市,萬里區,國小,14658,市立萬里國小,偏遠,[207]新北市萬里區瑪鋉路18號,(02)24922034,http://www.wlps.ntpc.edu.tw
新北市,萬里區,國小,14659,市立野柳國小,偏遠,[207]新北市萬里區野柳里港東路167號,(02)24922512,http://www.ylps.ntpc.edu.tw
新北市,萬里區,國小,14660,市立大鵬國小,偏遠,[207]新北市萬里區大鵬里加投路14號,(02)24988131,http://www.tpes.ntpc.edu.tw
新北市,萬里區,國小,14661,市立大坪國小,偏遠,[207]新北市萬里區雙興里大坪路1號,(02)24929461,http://www.dpps.ntpc.edu.tw
新北市,萬里區,國小,14662,市立崁腳國小,偏遠,[207]新北市萬里區崁?里崁?路59號,(02)24922037,http://www.kjps.ntpc.edu.tw
新北市,金山區,國小,14663,市立金山國小,偏遠,[208]新北市金山區中山路234號,(02)24981125,http://www.tpcses.ntpc.edu.tw
新北市,金山區,國小,14664,市立中角國小,偏遠,[208]新北市金山區萬壽里海興路49號,(02)24982413,http://www.jjps.ntpc.edu.tw
新北市,金山區,國小,14665,市立三和國小,偏遠,[208]新北市金山區重和里十一鄰六股林口38號,(02)24080417,http://www.sanho.ntpc.edu.tw
新北市,新店區,國小,14667,市立直潭國小,偏遠,[231]新北市新店區直潭路92號,(02)26667278,http://www.jtes.ntpc.edu.tw
新北市,新店區,國小,14669,市立雙峰國小,偏遠,[231]新北市新店區北宜路三段66號,(02)22174543,http://www.sfes.ntpc.edu.tw
新北市,新店區,國小,14674,市立屈尺國小,偏遠,[231]新北市新店區屈尺路55號,(02)26667490,http://www.ccyes.ntpc.edu.tw
新北市,新店區,國小,14675,市立龜山國小,偏遠,[231]新北市新店區新烏路三段99巷10號,(02)26667317,http://www.gses.ntpc.edu.tw
新北市,深坑區,國小,14676,市立深坑國小,偏遠,[222]新北市深坑區深坑里文化街45號,(02)26624675,http://www.tskes.ntpc.edu.tw
新北市,石碇區,國小,14677,市立石碇國小,偏遠,[223]新北市石碇區石碇里石碇西街15號,(02)26631244,http://www.stes.ntpc.edu.tw
新北市,石碇區,國小,14678,市立和平國小,偏遠,[223]新北市石碇區隆盛里八分寮5號,(02)26631405,http://www.hpps.ntpc.edu.tw
新北市,石碇區,國小,14679,市立永定國小,偏遠,[223]新北市石碇區永定里蚯蚓坑20號,(02)26631288,http://www.tydes.ntpc.edu.tw
新北市,石碇區,國小,14680,市立雲海國小,偏遠,[223]新北市石碇區北宜路五段坑內巷1號,(02)26651715,http://www.whies.ntpc.edu.tw
新北市,坪林區,國小,14682,市立坪林國小,偏遠,[232]新北市坪林區坪林里坪林街114號,(02)26656213,http://www.plnes.ntpc.edu.tw
新北市,烏來區,國小,14684,市立烏來國(中)小,偏遠,[233]新北市烏來區啦卡路5號,(02)26616482,http://www.wups.ntpc.edu.tw
新北市,烏來區,國小,14685,市立福山國小,特偏,[233]新北市烏來區福山里李茂岸56號,(02)26616124,http://www.fses.ntpc.edu.tw
新北市,瑞芳區,國小,14686,市立瑞芳國小,偏遠,[224]新北市瑞芳區龍川里中山路2號,(02)24972058,http://www.rfes.ntpc.edu.tw
新北市,瑞芳區,國小,14687,市立義方國小,偏遠,[224]新北市瑞芳區龍山里逢甲路360號,(02)24970961,http://www.jfps.ntpc.edu.tw
新北市,瑞芳區,國小,14688,市立瑞柑國小,偏遠,[224]新北市瑞芳區明燈路一段18巷13號,(02)24971009,http://www.rges.ntpc.edu.tw
新北市,瑞芳區,國小,14689,市立瑞濱國小,偏遠,[224]新北市瑞芳區瑞濱路34號,(02)24978184,http://www.jpes.ntpc.edu.tw
新北市,瑞芳區,國小,14690,市立九份國小,偏遠,[224]新北市瑞芳區永慶里崙頂路145號,(02)24972263,http://www.jfes.ntpc.edu.tw
新北市,瑞芳區,國小,14691,市立瓜山國小,偏遠,[224]新北市瑞芳區石山里五號路306號,(02)24962036,http://www.gsps.ntpc.edu.tw
新北市,瑞芳區,國小,14692,市立濂洞國小,偏遠,[224]新北市瑞芳區?洞里洞頂路101巷80號,(02)24961330,http://163.20.89.1
新北市,瑞芳區,國小,14693,市立猴硐國小,偏遠,[224]新北市瑞芳區弓橋里九芎橋路69-1號,(02)24960450,http://www.htes.ntpc.edu.tw
新北市,瑞芳區,國小,14694,市立瑞亭國小,偏遠,[224]新北市瑞芳區四腳亭埔路23號,(02)24971726,http://www.rtes.ntpc.edu.tw
新北市,瑞芳區,國小,14695,市立吉慶國小,偏遠,[224]新北市瑞芳區吉安里大埔路95號,(02)24576405,http://163.20.53.66/
新北市,瑞芳區,國小,14696,市立鼻頭國小,偏遠,[224]新北市瑞芳區鼻頭里鼻頭路99號,(02)24911571,http://www.pitoues.ntpc.edu.tw
新北市,雙溪區,國小,14697,市立雙溪國小,偏遠,[227]新北市雙溪區共和里東榮街54號,(02)24931005,http://www.sses.ntpc.edu.tw
新北市,雙溪區,國小,14698,市立柑林國小,偏遠,[227]新北市雙溪區長源里柑腳3號,(02)24931624,http://www.gles.ntpc.edu.tw
新北市,雙溪區,國小,14699,市立上林國小,偏遠,[227]新北市雙溪區上林里內平林60號,(02)24931671,http://www.ulps.ntpc.edu.tw
新北市,雙溪區,國小,14700,市立牡丹國小,偏遠,[227]新北市雙溪區三貂里政光路3號,(02)24931240,http://www.mdps.ntpc.edu.tw
新北市,貢寮區,國小,14702,市立貢寮國小,偏遠,[228]新北市貢寮區雙玉里學苑街7號,(02)24941274,http://www.kles.ntpc.edu.tw
新北市,貢寮區,國小,14703,市立福隆國小,偏遠,[228]新北市貢寮區福隆里東興街35號,(02)24991449,http://www.flps.ntpc.edu.tw
新北市,貢寮區,國小,14704,市立澳底國小,偏遠,[228]新北市貢寮區真理里延平街10號,(02)24901432,http://www.auti.ntpc.edu.tw
新北市,貢寮區,國小,14706,市立和美國小,偏遠,[228]新北市貢寮區和美里龍洞街1之9號,(02)24909431,http://www.hmps.ntpc.edu.tw
新北市,貢寮區,國小,14708,市立福連國小,偏遠,[228]新北市貢寮區福連里福連街1號,(02)24991194,http://www.fulps.ntpc.edu.tw
新北市,平溪區,國小,14709,市立平溪國小,偏遠,[226]新北市平溪區平溪街56號,(02)24951038,http://www.pses.ntpc.edu.tw
新北市,平溪區,國小,14710,市立菁桐國小,偏遠,[226]新北市平溪區菁桐街45號,(02)24951009,http://163.20.51.193/html
新北市,平溪區,國小,14711,市立十分國小,偏遠,[226]新北市平溪區十分里十分街157號,(02)24958305,http://www.tsfes.ntpc.edu.tw
新北市,淡水區,國小,14713,市立育英國小,偏遠,[251]新北市淡水區埤島里14號,(02)26214390,http://www.yies.ntpc.edu.tw
新北市,淡水區,國小,14716,市立水源國小,偏遠,[251]新北市淡水區水源里北新路二段15號,(02)26211347,http://www.hyes.ntpc.edu.tw
新北市,淡水區,國小,14717,市立興仁國小,偏遠,[251]新北市淡水區興仁路101巷10號,(02)26213783,http://www.shrens.ntpc.edu.tw
新北市,淡水區,國小,14718,市立忠山國小,偏遠,[251]新北市淡水區忠山里椿子林16之8號,(02)26216139,http://www.tcses.ntpc.edu.tw
新北市,淡水區,國小,14719,市立屯山國小,偏遠,[251]新北市淡水區淡金路五段111號,(02)28012591,http://www.ttses.ntpc.edu.tw
新北市,淡水區,國小,14720,市立中泰國小,偏遠,[251]新北市淡水區中和里北勢子5號,(02)28012033,http://www.ctps.ntpc.edu.tw
新北市,淡水區,國小,14721,市立坪頂國小,偏遠,[251]新北市淡水區坪頂里小坪頂18號,(02)86263105,http://www.pdes.ntpc.edu.tw
新北市,石門區,國小,14723,市立石門國小,偏遠,[253]新北市石門區尖鹿里中央路9號,(02)26381263,http://www.smes.ntpc.edu.tw
新北市,石門區,國小,14724,市立乾華國小,偏遠,[253]新北市石門區茂林里茂林社區74號,(02)26381269,http://163.20.136.16
新北市,石門區,國小,14725,市立老梅國小,偏遠,[253]新北市石門區老梅里老梅路10號,(02)26381258,http://www.lmes.ntpc.edu.tw
新北市,三芝區,國小,14726,市立三芝國小,偏遠,[252]新北市三芝區埔頭里育英街22號,(02)26362005,http://www.sces.ntpc.edu.tw
新北市,三芝區,國小,14727,市立橫山國小,偏遠,[252]新北市三芝區橫山里86號,(02)26362473,http://www.hses.ntpc.edu.tw
新北市,三芝區,國小,14728,市立興華國小,偏遠,[252]新北市三芝區興華里5號,(02)26371366,http://www.hhes.ntpc.edu.tw
新北市,八里區,國小,14747,市立長坑國小,偏遠,[249]新北市八里區長坑里長坑口12鄰25號,(02)26102037,http://www.ckes.ntpc.edu.tw
新北市,林口區,國小,14750,市立南勢國小,偏遠,[244]新北市林口區南勢里南勢街215號,(02)26091020,http://www.nses.ntpc.edu.tw
新北市,林口區,國小,14751,市立嘉寶國小,偏遠,[244]新北市林口區嘉寶里22號,(02)26052716,http://www.jbes.ntpc.edu.tw
新北市,林口區,國小,14752,市立瑞平國小,偏遠,[244]新北市林口區太平里後坑路34之1號,(02)26052779,http://www.rpes.ntpc.edu.tw
新北市,林口區,國小,14753,市立興福國小,偏遠,[244]新北市林口區下福里20鄰一○之一號,(02)26062895,http://www.hfps.ntpc.edu.tw
新北市,金山區,國小,14780,市立金美國小,偏遠,[208]新北市金山區忠孝一路111號,(02)24986503,http://www.gmes.ntpc.edu.tw
桃園市,蘆竹區,國小,34618,市立外社國小,偏遠,[338]桃園市蘆竹區山林路二段525號,(03)3241874,http://www.wses.tyc.edu.tw
桃園市,蘆竹區,國小,34619,市立頂社國小,偏遠,[338]桃園市蘆竹區山林路三段232號,(03)3241182,http://www.dises.tyc.edu.tw
桃園市,大園區,國小,34626,市立內海國小,偏遠,[337]桃園市大園區內海里一鄰18之1號,(03)3862844,http://www.nhes.tyc.edu.tw
桃園市,大園區,國小,34631,市立后厝國小,偏遠,[337]桃園市大園區國際路二段147號,(03)3869583,http://www.htes.tyc.edu.tw
桃園市,大園區,國小,34632,市立沙崙國小,偏遠,[337]桃園市大園區沙崙里九鄰75號之2,(03)3835072,http://www.sales.tyc.edu.tw
桃園市,大園區,國小,34635,市立陳康國小,偏遠,[337]桃園市大園區建國八村151號,(03)3811092,http://www.ckps.tyc.edu.tw
桃園市,龜山區,國小,34640,市立大埔國小,偏遠,[333]桃園市龜山區舊路里18之2號,(03)3298329,http://www.dpps.tyc.edu.tw
桃園市,龜山區,國小,34641,市立大坑國小,偏遠,[333]桃園市龜山區大坑里四鄰23號,(03)3252430,http://www.dkes.tyc.edu.tw
桃園市,龜山區,國小,34643,市立龍壽國小,偏遠,[333]桃園市龜山區龍壽里龍校街30號,(03)3296554,http://www.lnses.tyc.edu.tw
桃園市,大溪區,國小,34655,市立美華國小,偏遠,[335]桃園市大溪區金山路50號,(03)3882403,http://www.mhes.tyc.edu.tw
桃園市,大溪區,國小,34658,市立百吉國小,偏遠,[335]桃園市大溪區復興里百吉2號,(03)3883956,http://www.pces.tyc.edu.tw
桃園市,大溪區,國小,34659,市立瑞祥國小,偏遠,[335]桃園市大溪區瑞源里59號,(03)3801197,http://www.rhes.tyc.edu.tw
桃園市,大溪區,國小,34660,市立中興國小,偏遠,[335]桃園市大溪區瑞興里一鄰大鶯路1125號,(03)3801394,http://www.ches.tyc.edu.tw
桃園市,大溪區,國小,34665,市立永福國小,偏遠,[335]桃園市大溪區永福里信義路十二鄰1165號,(03)3883709,http://www.yfes.tyc.edu.tw
桃園市,楊梅區,國小,34694,市立瑞原國小,偏遠,[326]桃園市楊梅區瑞原里七鄰60號,(03)4723280,http://www.ryes.tyc.edu.tw
桃園市,新屋區,國小,34702,市立啟文國小,偏遠,[327]桃園市新屋區清華里三鄰62號,(03)4772077,http://www.kves.tyc.edu.tw
桃園市,新屋區,國小,34706,市立笨港國小,偏遠,[327]桃園市新屋區笨港里二鄰1之1號,(03)4769113,http://www.bges.tyc.edu.tw
桃園市,新屋區,國小,34707,市立北湖國小,偏遠,[327]桃園市新屋區石牌里3鄰32號,(03)4862415,http://www.phps.tyc.edu.tw
桃園市,新屋區,國小,34709,市立蚵間國小,偏遠,[327]桃園市新屋區後庄里三鄰40號,(03)4768413,http://www.kces.tyc.edu.tw
桃園市,新屋區,國小,34710,市立社子國小,偏遠,[327]桃園市新屋區社子里七鄰3之1號,(03)4772444,http://www.szes.tyc.edu.tw
桃園市,觀音區,國小,34713,市立大潭國小,偏遠,[328]桃園市觀音區大潭里濱海路大潭段687號,(03)4732087,http://www.tates.tyc.edu.tw
桃園市,觀音區,國小,34714,市立保生國小,偏遠,[328]桃園市觀音區保生里十四鄰5號,(03)4732054,http://www.bses.tyc.edu.tw
桃園市,觀音區,國小,34718,市立育仁國小,偏遠,[328]桃園市觀音區坑尾里四鄰23之1號,(03)4732720,http://www.yres.tyc.edu.tw
桃園市,觀音區,國小,34721,市立樹林國小,偏遠,[328]桃園市觀音區樹林里新里路二段12號,(03)4830414,http://www.sles.tyc.edu.tw
桃園市,龍潭區,國小,34728,市立三和國小,偏遠,[325]桃園市龍潭區三和里直坑39號,(03)4792154,http://163.30.184.1
桃園市,復興區,國小,34730,市立介壽國小,偏遠,[336]桃園市復興區澤仁里中正路33號,(03)3822364,http://www.jses.tyc.edu.tw
桃園市,復興區,國小,34731,市立三民國小,偏遠,[336]桃園市復興區三民里十一鄰57號,(03)3825294,http://www.sames.tyc.edu.tw
桃園市,復興區,國小,34732,市立義盛國小,偏遠,[336]桃園市復興區義盛里一鄰11號,(03)3822787,http://www.ysps.tyc.edu.tw
桃園市,復興區,國小,34733,市立霞雲國小,偏遠,[336]桃園市復興區霞雲里六鄰14號,(03)3822224,http://www.hyps.tyc.edu.tw
桃園市,復興區,國小,34734,市立奎輝國小,偏遠,[336]桃園市復興區奎輝里三鄰25號,(03)3822177,http://163.30.109.57
桃園市,復興區,國小,34735,市立光華國小,偏遠,[336]桃園市復興區華陵里四鄰12號,(03)3912325,http://www.khes.tyc.edu.tw
桃園市,復興區,國小,34736,市立高義國小,偏遠,[336]桃園市復興區高義里三鄰28號,(03)2728430,http://www.gyes.tyc.edu.tw
桃園市,復興區,國小,34737,市立長興國小,偏遠,[336]桃園市復興區長興里十六鄰頭角43號,(03)3822178,http://www.cses.tyc.edu.tw/
桃園市,復興區,國小,34738,市立三光國小,偏遠,[336]桃園市復興區三光里六鄰7號,(03)3912230,http://www.skes.tyc.edu.tw
桃園市,復興區,國小,34740,市立羅浮國小,偏遠,[336]桃園市復興區羅浮里三鄰16號,(03)3822269,http://163.30.110.180
桃園市,復興區,國小,34741,市立巴崚國小,偏遠,[336]桃園市復興區華陵里九鄰75號,(03)3912131,http://163.30.110.231
臺中市,后里區,國小,64614,市立后里區泰安國小,偏遠,[421]臺中市后里區泰安里安眉路5號,(04)25562364,http://www.taps.tc.edu.tw
臺中市,大雅區,國小,64625,市立陽明國小,偏遠,[428]臺中市大雅區秀山里秀山路365號,(04)25661554,http://www.ymies.tc.edu.tw
臺中市,外埔區,國小,64631,市立安定國小,偏遠,[438]臺中市外埔區土城里土城西路55號,(04)26831446,http://www.ades.tc.edu.tw
臺中市,外埔區,國小,64632,市立鐵山國小,偏遠,[438]臺中市外埔區鐵山里長生路576號,(04)26835033,http://www.tsps.tc.edu.tw
臺中市,外埔區,國小,64633,市立馬鳴國小,偏遠,[438]臺中市外埔區中山里東西巷13號,(04)26834114,http://www.mmps.tc.edu.tw
臺中市,外埔區,國小,64634,市立水美國小,偏遠,[438]臺中市外埔區水美里二崁路390巷63號,(04)26876508,http://www.smes.tc.edu.tw
臺中市,東勢區,國小,64637,市立石城國小,偏遠,[423]臺中市東勢區茂興里石城街182巷26號,(04)25873152,http://www.sches.tc.edu.tw
臺中市,東勢區,國小,64638,市立東勢區成功國小,偏遠,[423]臺中市東勢區慶東里東關路298號,(04)25852040,http://www.ckaps.tc.edu.tw
臺中市,東勢區,國小,64639,市立石角國小,偏遠,[423]臺中市東勢區東坑路西盛巷22號,(04)25873011,http://www.sjps.tc.edu.tw
臺中市,東勢區,國小,64640,市立中科國小,偏遠,[423]臺中市東勢區東崎路4段92巷16號,(04)25872534,http://www.ckees.tc.edu.tw
臺中市,東勢區,國小,64641,市立新成國小,偏遠,[423]臺中市東勢區東關路367巷40號,(04)25853447,http://tw.school.uschoolnet.com/?id=es00001246
臺中市,東勢區,國小,64642,市立明正國小,偏遠,[423]臺中市東勢區明正里東蘭路永盛巷57-1號,(04)25874455,http://tw.school.uschoolnet.com/?id=es00001243
臺中市,新社區,國小,64646,市立新社區東興國小,偏遠,[426]臺中市新社區東興里興社街一段國校巷13號,(04)25811467,http://www.dxps.tc.edu.tw
臺中市,新社區,國小,64648,市立協成國小,偏遠,[426]臺中市新社區協成里興義街219號,(04)25813437,http://163.17.161.129
臺中市,新社區,國小,64649,市立大林國小,偏遠,[426]臺中市新社區福興里美林38號,(04)25941995,http://www.dles.tc.edu.tw
臺中市,新社區,國小,64650,市立崑山國小,偏遠,[426]臺中市新社區崑山里崑南街崑崙巷5-2號,(04)25812496,http://www.ksps.tc.edu.tw
臺中市,新社區,國小,64651,市立中和國小,特偏,[426]臺中市新社區中和里中興街129號,(04)25931001,http://www.ches.tc.edu.tw
臺中市,清水區,國小,64659,市立大楊國小,偏遠,[436]臺中市清水區楊厝里鱉海路325號,(04)26200634,http://web.dayes.tc.edu.tw/drupal
臺中市,清水區,國小,64660,市立東山國小,偏遠,[436]臺中市清水區東山里神清路6之1號,(04)26200517,http://www.dsps.tc.edu.tw
臺中市,梧棲區,國小,64662,市立梧南國小,偏遠,[435]臺中市梧棲區草湳里梧南路50號,(04)26391661,http://www.wnps.tc.edu.tw
臺中市,大甲區,國小,64666,市立德化國小,偏遠,[437]臺中市大甲區和平路290號,(04)26874602,http://www.dwps.tc.edu.tw
臺中市,大甲區,國小,64669,市立文武國小,偏遠,[437]臺中市大甲區武陵里文曲路61號,(04)26710928,http://www.wwps.tc.edu.tw
臺中市,大甲區,國小,64671,市立東明國小,偏遠,[437]臺中市大甲區幸福里東明路93號,(04)26814404,http://www.dmes.tc.edu.tw
臺中市,大甲區,國小,64674,市立東陽國小,偏遠,[437]臺中市大甲區甲東路520號,(04)26876823,http://www.dyaes.tc.edu.tw
臺中市,大安區,國小,64683,市立三光國小,偏遠,[439]臺中市大安區龜殼里3鄰中松路297號,(04)26710148,http://www.skps.tc.edu.tw
臺中市,大安區,國小,64685,市立大安區永安國小,偏遠,[439]臺中市大安區永安里東西四路252號,(04)26874931,http://163.17.112.131
臺中市,龍井區,國小,64690,市立龍港國小,偏遠,[434]臺中市龍井區麗水里三港路1號,(04)26395586,http://www.lgps.tc.edu.tw
臺中市,烏日區,國小,64697,市立溪尾國小,特偏,[414]臺中市烏日區溪尾里溪岸路26號,(049)2523020,http://sfs.cwps.tc.edu.tw/school/web/index.php
臺中市,大肚區,國小,64702,市立永順國小,偏遠,[432]臺中市大肚區永順里文昌路2段586號,(04)26992461,http://163.17.192.129/new/web/index.php
臺中市,霧峰區,國小,64717,市立峰谷國小,偏遠,[413]臺中市霧峰區峰谷里峰谷路496號,(04)23399271,http://www.fgps.tc.edu.tw
臺中市,霧峰區,國小,64718,市立桐林國小,偏遠,[413]臺中市霧峰區民生路675號,(04)23304311,http://www.tles.tc.edu.tw
臺中市,霧峰區,國小,64720,市立霧峰區光正國小,偏遠,[413]臺中市霧峰區豐正路566號,(04)23398687,http://www.kces.tc.edu.tw
臺中市,太平區,國小,64726,市立黃竹國小,偏遠,[411]臺中市太平區黃竹里竹村路41號,(04)22715933,http://www.hjes.tc.edu.tw
臺中市,太平區,國小,64728,市立東汴國小,偏遠,[411]臺中市太平區東汴里山田路100號,(04)22702664,http://www.dbes.tc.edu.tw
臺中市,和平區,國小,64729,市立和平區和平國小,偏遠,[424]臺中市和平區南勢里東關路三段54號,(04)25941304,http://www.hpps.tc.edu.tw
臺中市,新社區,國小,64730,市立福民國小,特偏,[426]臺中市新社區福興里福民16-7號,(04)25941147,http://163.17.150.1
臺中市,和平區,國小,64731,市立白冷國小,偏遠,[424]臺中市和平區天輪里天輪巷42號,(04)25941184,http://www.plps.tc.edu.tw
臺中市,和平區,國小,64732,市立達觀國小,特偏,[424]臺中市和平區達觀里育英巷6號,(04)25911487,http://163.17.150.129
臺中市,和平區,國小,64733,市立中坑國小,偏遠,[424]臺中市和平區中坑里中坑巷41號,(04)25874992,http://163.17.203.2
臺中市,和平區,國小,64734,市立平等國小,特偏,[424]臺中市和平區中興路三段環山3巷35號,(04)25802204,http://www.pdes.tc.edu.tw
臺中市,和平區,國小,64735,市立博愛國小,偏遠,[424]臺中市和平區博愛里東關路一段松鶴三巷10號,(04)25943446,http://www.baes.tc.edu.tw
臺中市,和平區,國小,64736,市立自由國小,特偏,[424]臺中市和平區自由里東崎路二段49號,(04)25911342,http://www.yyps.tc.edu.tw
臺中市,和平區,國小,64737,市立梨山國(中)小,特偏,[424]臺中市和平區梨山里福壽路10號,(04)25981510,http://www.lses.tc.edu.tw
臺中市,清水區,國小,64739,市立?榔國小,偏遠,[436]臺中市清水區中央路23-12號,(04)26562684,http://www.klnes.tc.edu.tw
臺中市,清水區,國小,64754,市立吳厝國小,偏遠,[436]臺中市清水區吳厝里吳厝路35號,(04)26200864,http://www.wtes.tc.edu.tw
臺中市,大肚區,國小,64755,市立山陽國小,偏遠,[432]臺中市大肚區榮華街630號,(04)26983117,http://www.syps.tc.edu.tw
臺中市,大肚區,國小,64761,市立瑞井國小,偏遠,[432]臺中市大肚區瑞井里華山路680號,(04)26912550,http://www.rjps.tc.edu.tw
臺中市,西屯區,國小,193622,市立西屯區泰安國小,偏遠,[407]臺中市西屯區廣福路150巷99號,(04)27017045,http://www.taes.tc.edu.tw
臺中市,南屯區,國小,193630,市立春安國小,偏遠,[408]臺中市南屯區春安路109號,(04)23894408,http://www.caes.tc.edu.tw
臺中市,北屯區,國小,193637,市立北屯區大坑國小,偏遠,[406]臺中市北屯區東山路二段112號,(04)22390748,http://www.dkes.tc.edu.tw
臺中市,北屯區,國小,193638,市立逢甲國小,偏遠,[406]臺中市北屯區北坑巷60號,(04)22390047,http://www.fjes.tc.edu.tw
臺中市,北屯區,國小,193640,市立北屯區新興國小,偏遠,[406]臺中市北屯區新興路20號,(04)24258514,http://140.128.215.1
臺中市,西屯區,國小,193650,市立國安國小,偏遠,[407]臺中市西屯區國祥街1號,(04)24621681,http://www.gaes.tc.edu.tw
臺南市,仁德區,國小,114602,市立文賢國小,偏遠,[717]臺南市仁德區保安里文賢路一段886號,(06)2661260,http://www.wsps.tn.edu.tw/~w/
臺南市,仁德區,國小,114604,市立依仁國小,偏遠,[717]臺南市仁德區中洲里港墘3號,(06)2662108,http://www.yres.tnc.edu.tw
臺南市,仁德區,國小,114606,市立仁和國小,偏遠,[717]臺南市仁德區仁愛里保仁路68號,(06)2681927,http://www.rhes.tn.edu.tw
臺南市,仁德區,國小,114608,市立虎山國小,偏遠,[717]臺南市仁德區成功里虎山一街100號,(06)2661490,http://www.hsps.tn.edu.tw
臺南市,關廟區,國小,114615,市立保東國小,偏遠,[718]臺南市關廟區埤頭里關新路一段776號,(06)5952344,http://www.bdes.tnc.edu.tw
臺南市,關廟區,國小,114616,市立崇和國小,偏遠,[718]臺南市關廟區田中里南雄南路568號,(06)5551040,http://www.chees.tn.edu.tw
臺南市,關廟區,國小,114617,市立文和國小,偏遠,[718]臺南市關廟區布袋里長文街37號,(06)5551937,http://www.whps.tn.edu.tw
臺南市,關廟區,國小,114618,市立深坑國小,偏遠,[718]臺南市關廟區南雄路一段487號,(06)5952409,http://www.skps.tn.edu.tw
臺南市,關廟區,國小,114619,市立新光國小,偏遠,[718]臺南市關廟區新光街76號,(06)5952419,http://163.26.96.1
臺南市,龍崎區,國小,114620,市立龍崎國小,偏遠,[719]臺南市龍崎區崎頂里新市子41號,(06)5941204,http://www.lces.tn.edu.tw
臺南市,新化區,國小,114632,市立口碑國小,偏遠,[712]臺南市新化區知義里口埤88號,(06)5901445,http://www.kbes.tn.edu.tw
臺南市,玉井區,國小,114637,市立層林國小,偏遠,[714]臺南市玉井區層林里115號,(06)5743574,http://www.tles.tn.edu.tw/
臺南市,南化區,國小,114639,市立南化國小,偏遠,[716]臺南市南化區南化里17號,(06)5771118,http://www.nhes.tn.edu.tw
臺南市,南化區,國小,114640,市立北寮國小,偏遠,[716]臺南市南化區北寮里110之27號,(06)5772215,http://www.bles.tn.edu.tw
臺南市,南化區,國小,114641,市立西埔國小,偏遠,[716]臺南市南化區西埔里117號,(06)5771240,http://www.spes.tn.edu.tw
臺南市,南化區,國小,114642,市立玉山國小,偏遠,[716]臺南市南化區玉山里48之1號,(06)5772072,http://www.ysps.tn.edu.tw
臺南市,南化區,國小,114643,市立瑞峰國小,特偏,[716]臺南市南化區關山里96號,(06)5770093,http://www.rfes.tnc.edu.tw
臺南市,左鎮區,國小,114644,市立左鎮國小,偏遠,[713]臺南市左鎮區中正里7號,(06)5731019,http://www.tjes.tnc.edu.tw
臺南市,左鎮區,國小,114646,市立光榮國小,偏遠,[713]臺南市左鎮區榮和里61之1號,(06)5731658,http://www.gres.tn.edu.tw
臺南市,善化區,國小,114652,市立善糖國小,偏遠,[741]臺南市善化區溪美里245號,(06)5817304,http://www.staes.tn.edu.tw
臺南市,麻豆區,國小,114661,市立文正國小,偏遠,[721]臺南市麻豆區南勢里86號,(06)5722168,http://www.wjps.tn.edu.tw
臺南市,麻豆區,國小,114663,市立安業國小,偏遠,[721]臺南市麻豆區安東里113號,(06)5722261,http://www.ayes.tn.edu.tw
臺南市,麻豆區,國小,114664,市立北勢國小,偏遠,[721]臺南市麻豆區北勢里15號,(06)5722844,http://www.bses.tn.edu.tw
臺南市,麻豆區,國小,114665,市立港尾國小,偏遠,[721]臺南市麻豆區港尾里港尾9號,(06)5701341,http://www.gwes.tn.edu.tw
臺南市,麻豆區,國小,114667,市立紀安國小,偏遠,[721]臺南市麻豆區謝安里231號,(06)5722306,http://www.jaes.tn.edu.tw
臺南市,佳里區,國小,114671,市立塭內國小,偏遠,[722]臺南市佳里區龍安里40號,(06)7891054,http://wnes.dcs.tn.edu.tw/
臺南市,佳里區,國小,114672,市立子龍國小,偏遠,[722]臺南市佳里區三協里潭墘5號,(06)7262913,http://www.tlps.tn.edu.tw
臺南市,佳里區,國小,114674,市立通興國小,偏遠,[722]臺南市佳里區通興里埔頂5之1號,(06)7873531,http://www.tses.tn.edu.tw
臺南市,西港區,國小,114680,市立松林國小,偏遠,[723]臺南市西港區檨林里39之1號,(06)7952205,http://www.soles.tn.edu.tw
臺南市,七股區,國小,114682,市立後港國小,偏遠,[724]臺南市七股區大潭里台潭1號,(06)7941305,http://www.hges.tn.edu.tw
臺南市,七股區,國小,114683,市立竹橋國小,偏遠,[724]臺南市七股區竹橋里130號,(06)7891041,http://www.jces.tn.edu.tw
臺南市,七股區,國小,114684,市立三股國小,偏遠,[724]臺南市七股區三股里100號,(06)7880744,http://www.sgps.tn.edu.tw
臺南市,七股區,國小,114685,市立光復國小,偏遠,[724]臺南市七股區?埕里?埕1號,(06)7800530,http://www.gfes.tn.edu.tw
臺南市,七股區,國小,114686,市立篤加國小,偏遠,[724]臺南市七股區篤加里120號,(06)7872536,http://www.djaes.tn.edu.tw/
臺南市,七股區,國小,114688,市立龍山國小,偏遠,[724]臺南市七股區龍山里12號,(06)7872108,http://www.lses.tn.edu.tw
臺南市,七股區,國小,114689,市立建功國小,偏遠,[724]臺南市七股區十份里74之1號,(06)7880114,http://www.jgps.tn.edu.tw
臺南市,七股區,國小,114691,市立大文國小,偏遠,[724]臺南市七股區大寮里36之2號,(06)7872730,http://www.dwes.tn.edu.tw
臺南市,七股區,國小,114692,市立樹林國小,偏遠,[724]臺南市七股區樹林里65之11號,(06)7891031,http://www.sules.tn.edu.tw
臺南市,將軍區,國小,114696,市立鯤鯓國小,偏遠,[725]臺南市將軍區鯤溟里6號,(06)7920185,http://www.ksps.tn.edu.tw
臺南市,將軍區,國小,114697,市立長平國小,偏遠,[725]臺南市將軍區長沙里132之2號,(06)7931146,http://www.cpes.tn.edu.tw
臺南市,北門區,國小,114701,市立文山國小,偏遠,[727]臺南市北門區中樞里50號,(06)7862060,http://www.wses.tn.edu.tw
臺南市,北門區,國小,114702,市立錦湖國小,偏遠,[727]臺南市北門區錦湖里75號,(06)7863454,http://www.jhes.tn.edu.tw
臺南市,北門區,國小,114703,市立雙春國小,偏遠,[727]臺南市北門區雙春里35之2號,(06)7863141,http://scpsxoops.dcs.tn.edu.tw/
臺南市,北門區,國小,114705,市立三慈國小,偏遠,[727]臺南市北門區慈安里381號,(06)7850400,http://www.stps.tn.edu.tw
臺南市,學甲區,國小,114708,市立宅港國小,偏遠,[726]臺南市學甲區宅港里13號,(06)7833227,http://www.jges.tn.edu.tw
臺南市,學甲區,國小,114709,市立頂洲國小,偏遠,[726]臺南市學甲區三慶里頂洲108號,(06)7810231,http://www.djues.tn.edu.tw
臺南市,下營區,國小,114713,市立賀建國小,偏遠,[735]臺南市下營區賀建里麻豆寮49號,(06)6891109,http://www.hjes.tn.edu.tw
臺南市,下營區,國小,114714,市立甲中國小,偏遠,[735]臺南市下營區甲中里71號,(06)6897481,http://www.cces.tn.edu.tw
臺南市,六甲區,國小,114722,市立嘉南國小,偏遠,[734]臺南市六甲區龍湖里珊瑚路301號,(06)6982491,http://www.jnes.tn.edu.tw
臺南市,官田區,國小,114723,市立渡拔國小,偏遠,[720]臺南市官田區拔林里77之1號,(06)6901908,http://www.dbes.tn.edu.tw
臺南市,大內區,國小,114726,市立二溪國小,偏遠,[742]臺南市大內區二溪里154號,(06)5762001,http://www.eses.tn.edu.tw
臺南市,新營區,國小,114730,市立新橋國小,偏遠,[730]臺南市新營區鐵線里1號,(06)6581343,http://www.sces.tn.edu.tw
臺南市,新營區,國小,114734,市立新生國小,偏遠,[730]臺南市新營區姑爺里52號,(06)6552524,http://www.sisps.tn.edu.tw
臺南市,新營區,國小,114735,市立土庫國小,偏遠,[730]臺南市新營區土庫里71之1號,(06)6362323,http://163.26.99.1
臺南市,鹽水區,國小,114739,市立?頭港國小,偏遠,[737]臺南市鹽水區南港里202號,(06)6892014,http://www.hnes.tn.edu.tw
臺南市,鹽水區,國小,114742,市立竹埔國小,偏遠,[737]臺南市鹽水區竹埔里92之1號,(06)6551001,http://www.jpes.tn.edu.tw
臺南市,鹽水區,國小,114743,市立仁光國小,偏遠,[737]臺南市鹽水區舊營里117號,(06)6523620,http://www.rges.tn.edu.tw
臺南市,鹽水區,國小,114744,市立岸內國小,偏遠,[737]臺南市鹽水區岸內里新岸內96號,(06)6524651,http://www.anes.tn.edu.tw
臺南市,鹽水區,國小,114747,市立文昌國小,偏遠,[737]臺南市鹽水區後宅里10之3號,(06)6522664,http://www.wces.tn.edu.tw
臺南市,白河區,國小,114750,市立竹門國小,偏遠,[732]臺南市白河區竹門里113號,(06)6851290,http://www.jmes.tn.edu.tw
臺南市,白河區,國小,114751,市立內角國小,偏遠,[732]臺南市白河區內角里1號,(06)6817363,http://www.njes.tn.edu.tw
臺南市,白河區,國小,114753,市立仙草國小,偏遠,[732]臺南市白河區仙草里22號,(06)6854144,http://www.setes.tn.edu.tw
臺南市,白河區,國小,114755,市立河東國小,偏遠,[732]臺南市白河區河東里83之1號,(06)6852527,http://www.hdps.tn.edu.tw
臺南市,白河區,國小,114756,市立大竹國小,偏遠,[732]臺南市白河區大竹里3號,(06)6852508,http://www.djps.tn.edu.tw
臺南市,柳營區,國小,114759,市立果毅國小,偏遠,[736]臺南市柳營區果毅里61號,(06)6231310,http://163.26.124.2/
臺南市,柳營區,國小,114761,市立太康國小,偏遠,[736]臺南市柳營區太康里4之1號,(06)6220684,http://www.tkaes.tn.edu.tw
臺南市,柳營區,國小,114762,市立新山國小,偏遠,[736]臺南市柳營區旭山里新吉庄28之1號,(06)6231140,http://www.ssaes.tn.edu.tw
臺南市,後壁區,國小,114764,市立菁寮國小,偏遠,[731]臺南市後壁區墨林里282號,(06)6621271,http://www.jlps.tn.edu.tw
臺南市,後壁區,國小,114765,市立安溪國小,偏遠,[731]臺南市後壁區長安里5號,(06)6361535,http://www.ases.dcs.tn.edu.tw
臺南市,後壁區,國小,114766,市立新東國小,偏遠,[731]臺南市後壁區仕安里81號,(06)6320902,http://163.26.190.1
臺南市,後壁區,國小,114767,市立永安國小,偏遠,[731]臺南市後壁區嘉田里48之5號,(06)6881763,http://163.26.121.1/index1.asp
臺南市,後壁區,國小,114768,市立新嘉國小,偏遠,[731]臺南市後壁區新嘉里210之2號,(06)6621981,http://www.hces.tn.edu.tw
臺南市,後壁區,國小,114769,市立樹人國小,偏遠,[731]臺南市後壁區烏樹里145號,(06)6856445,http://www.sres.tnc.edu.tw
臺南市,東山區,國小,114771,市立聖賢國小,偏遠,[733]臺南市東山區聖賢里田尾29號,(06)6353170,http://120.116.98.1
臺南市,東山區,國小,114772,市立東原國小,偏遠,[733]臺南市東山區東原里23鄰8號,(06)6861042,http://www.dyes.tn.edu.tw
臺南市,東山區,國小,114774,市立青山國小,偏遠,[733]臺南市東山區青山里16號,(06)6861041,http://csps.dcs.tn.edu.tw
臺南市,東山區,國小,114775,市立吉貝耍國小,偏遠,[733]臺南市東山區東河里15號,(06)6231149,http://dhes.tn.edu.tw
臺南市,南區,國小,213611,市立龍崗國小,偏遠,[702]臺南市南區鯤鯓里鯤鯓路147號,(06)2620024,http://www.lgps.tn.edu.tw
臺南市,安南區,國小,213631,市立青草國小,偏遠,[709]臺南市安南區青砂街二段105巷32號,(06)2577631,http://www.ctes.tn.edu.tw
臺南市,安南區,國小,213632,市立鎮海國小,偏遠,[709]臺南市安南區大眾路381號,(06)2841700,http://www.jhps.tn.edu.tw
臺南市,安南區,國小,213633,市立顯宮國小,偏遠,[709]臺南市安南區顯宮二街1號,(06)2841723,http://www.skes.tn.edu.tw
臺南市,安南區,國小,213634,市立長安國小,偏遠,[709]臺南市安南區長溪路三段249號,(06)2569914,http://www.caps.tn.edu.tw
臺南市,安南區,國小,213635,市立安南區南興國小,偏遠,[709]臺南市安南區公學路五段627號,(06)2873204,http://www.nses.tn.edu.tw
臺南市,安南區,國小,213636,市立安佃國小,偏遠,[709]臺南市安南區海佃路四段493號,(06)2567642,http://www.ades.tn.edu.tw
臺南市,安南區,國小,213643,市立學東國小,偏遠,[709]臺南市安南區公學路六段589號,(06)2870017,http://www.htes.tn.edu.tw
高雄市,大樹區,國小,124632,市立興田國小,偏遠,[840]高雄市大樹區興田里興田路59號,(07)6561527,http://www.xtp.ks.edu.tw
高雄市,大樹區,國小,124633,市立龍目國小,偏遠,[840]高雄市大樹區龍目里56號,(07)6514110,http://www.lmp.ks.edu.tw
高雄市,大社區,國小,124639,市立嘉誠國小,偏遠,[815]高雄市大社區嘉誠里嘉誠路22號,(07)3560418,http://www.jtn.ks.edu.tw
高雄市,燕巢區,國小,124656,市立深水國小,偏遠,[824]高雄市燕巢區深水里深中路2號,(07)6152447,http://www.ssp.ks.edu.tw
高雄市,燕巢區,國小,124659,市立金山國小,偏遠,[824]高雄市燕巢區金山里番田路29號,(07)6164328,http://www.jsn.ks.edu.tw
高雄市,田寮區,國小,124660,市立田寮區新興國小,偏遠,[823]高雄市田寮區新興里大新路2號,(07)6381348,http://www.xxp.ks.edu.tw
高雄市,田寮區,國小,124661,市立崇德國小,偏遠,[823]高雄市田寮區崇德里崇德路101號,(07)6367155,http://www.tdp.ks.edu.tw
高雄市,路竹區,國小,124671,市立三埤國小,偏遠,[821]高雄市路竹區三爺里民權路7號,(07)6962688,http://www.spi.ks.edu.tw
高雄市,路竹區,國小,124672,市立北嶺國小,偏遠,[821]高雄市路竹區北嶺里民治路85號,(07)6964786,http://www.blp.ks.edu.tw
高雄市,湖內區,國小,124678,市立三侯國小,偏遠,[829]高雄市湖內區中正路二段544號,(07)6909123,http://www.shp.ks.edu.tw
高雄市,永安區,國小,124683,市立新港國小,偏遠,[828]高雄市永安區新港里新興路25號,(07)6912040,http://www.xgp.ks.edu.tw
高雄市,美濃區,國小,124698,市立東門國小,偏遠,[843]高雄市美濃區東門里民族路36巷2號,(07)6812811,http://www.dmp.ks.edu.tw
高雄市,美濃區,國小,124700,市立龍肚國小,偏遠,[843]高雄市美濃區龍肚里龍東街43號,(07)6851124,http://www.ldp.ks.edu.tw
高雄市,美濃區,國小,124702,市立廣興國小,偏遠,[843]高雄市美濃區興隆里廣興街124號,(07)6812857,http://www.gxp.ks.edu.tw
高雄市,美濃區,國小,124703,市立龍山國小,偏遠,[843]高雄市美濃區龍山里龍山街62號,(07)6833654,http://www.lsp.ks.edu.tw
高雄市,美濃區,國小,124704,市立福安國小,偏遠,[843]高雄市美濃區中山路二段358號,(07)6812514,http://www.fap.ks.edu.tw
高雄市,美濃區,國小,124705,市立吉東國小,偏遠,[843]高雄市美濃區吉東里吉頂路19號,(07)6831144,http://www.jdp.ks.edu.tw
高雄市,六龜區,國小,124706,市立六龜國小,特偏,[844]高雄市六龜區義寶里光復路40號,(07)6891053,http://www.lgp.ks.edu.tw
高雄市,六龜區,國小,124707,市立荖濃國小,特偏,[844]高雄市六龜區荖濃里南橫路72號,(07)6881311,http://www.lnp.ks.edu.tw
高雄市,六龜區,國小,124708,市立新發國小,特偏,[844]高雄市六龜區新發里和平路130號,(07)6791387,http://www.xfp.ks.edu.tw
高雄市,六龜區,國小,124709,市立龍興國小,特偏,[844]高雄市六龜區中興里中庄193號,(07)6891140,http://www.lxp.ks.edu.tw
高雄市,六龜區,國小,124710,市立新威國小,特偏,[844]高雄市六龜區新興里新威路212號,(07)6871134,http://www.xwp.ks.edu.tw
高雄市,六龜區,國小,124711,市立寶來國小,特偏,[844]高雄市六龜區寶來里中正路89號,(07)6881009,http://www.bla.ks.edu.tw
高雄市,杉林區,國小,124712,市立月美國小,偏遠,[846]高雄市杉林區月眉里象寮巷39號,(07)6771404,http://www.ymp.ks.edu.tw
高雄市,杉林區,國小,124713,市立上平國小,偏遠,[846]高雄市杉林區上平里山仙路212號,(07)6771102,http://www.spn.ks.edu.tw
高雄市,杉林區,國小,124714,市立新庄國小,特偏,[846]高雄市杉林區新庄里司馬路45巷5號,(07)6771755,http://www.szp.ks.edu.tw
高雄市,杉林區,國小,124715,市立集來國小,特偏,[846]高雄市杉林區集來里通仙巷333號,(07)6779196,http://www.jlp.ks.edu.tw
高雄市,杉林區,國小,124716,市立杉林國小,偏遠,[846]高雄市杉林區杉林里合森巷41號,(07)6772658,http://www.sal.ks.edu.tw
高雄市,內門區,國小,124718,市立內門國小,偏遠,[845]高雄市內門區內豊里內埔24號,(07)6672078,http://www.nmp.ks.edu.tw
高雄市,內門區,國小,124719,市立觀亭國小,偏遠,[845]高雄市內門區觀亭里中正路203號,(07)6671672,http://www.ktp.ks.edu.tw
高雄市,內門區,國小,124720,市立溝坪國小,特偏,[845]高雄市內門區溝坪里廣福巷47號,(07)6601788,http://www.gop.ks.edu.tw
高雄市,內門區,國小,124721,市立金竹國小,特偏,[845]高雄市內門區金竹里吉民28號,(07)6601106,http://www.jz.ks.edu.tw
高雄市,內門區,國小,124722,市立木柵國小,偏遠,[845]高雄市內門區木柵里木柵3號,(07)6681183,http://www.mza.ks.edu.tw
高雄市,內門區,國小,124723,市立西門國小,特偏,[845]高雄市內門區內東里柿子園24號,(07)6672077,http://www.xm.ks.edu.tw
高雄市,內門區,國小,124724,市立景義國小,偏遠,[845]高雄市內門區永富里萊坑8號,(07)6601979,http://www.jyi.ks.edu.tw
高雄市,甲仙區,國小,124725,市立甲仙國小,特偏,[847]高雄市甲仙區西安里文化路45號,(07)6751025,http://163.16.192.146/index-1.htm
高雄市,甲仙區,國小,124726,市立小林國小,特偏,[847]高雄市甲仙區小林里五里路24-2號,(07)6761065,http://www.xln.ks.edu.tw
高雄市,甲仙區,國小,124727,市立寶隆國小,特偏,[847]高雄市甲仙區寶隆里光華路20號,(07)6752998,http://www.bln.ks.edu.tw
高雄市,杉林區,國小,124730,市立杉林區民族大愛國小,特偏,[846]高雄市杉林區月眉里和氣街15號,(07)6776031,http://www.mzu.ks.edu.tw
高雄市,那瑪夏區,國小,124731,市立民生國小,特偏,[849]高雄市那瑪夏區達卡努瓦里大光巷159號,(07)6701233,http://www.msp.ks.edu.tw
高雄市,茂林區,國小,124732,市立茂林國小,特偏,[851]高雄市茂林區茂林里4之3號,(07)6801043,http://www.ml.ks.edu.tw
高雄市,茂林區,國小,124733,市立多納國小,特偏,[851]高雄市茂林區多納里1-2號,(07)6801178,http://www.dn.ks.edu.tw
高雄市,桃源區,國小,124734,市立桃源國小,特偏,[848]高雄市桃源區桃源里北進巷五十號,(07)6861045,http://www.ty.ks.edu.tw
高雄市,桃源區,國小,124735,市立建山國小,特偏,[848]高雄市桃源區建山里96號,(07)6881134,http://www.zs.ks.edu.tw
高雄市,桃源區,國小,124736,市立興中國小,特偏,[848]高雄市桃源區高中里興中巷44號,(07)6881850,http://www.szu.ks.edu.tw
高雄市,桃源區,國小,124737,市立寶山國小,特偏,[848]高雄市桃源區寶山里98號,(07)6891728,http://www.bs.ks.edu.tw
高雄市,桃源區,國小,124738,市立樟山國小,特偏,[848]高雄市桃源區拉芙蘭里南橫公路45號,(07)6866118,http://www.zas.ks.edu.tw
高雄市,那瑪夏區,國小,124755,市立那瑪夏區民權國小,特偏,[849]高雄市那瑪夏區瑪雅里平和巷220號,(07)6701129,http://www.mcp.ks.edu.tw
宜蘭縣,蘇澳鎮,國小,24617,縣立蓬萊國小,偏遠,[270]宜蘭縣蘇澳鎮南澳路85號,(03)9981062,http://www.ples.ilc.edu.tw
宜蘭縣,蘇澳鎮,國小,24619,縣立永樂國小,偏遠,[270]宜蘭縣蘇澳鎮永樂路1號,(03)9962840,http://www.yles.ilc.edu.tw
宜蘭縣,頭城鎮,國小,24627,縣立大里國小,偏遠,[261]宜蘭縣頭城鎮濱海路七段65號,(03)9781440,http://www.tles.ilc.edu.tw
宜蘭縣,員山鄉,國小,24638,縣立湖山國小,偏遠,[264]宜蘭縣員山鄉枕山村坡城路54號,(03)9221174,http://www.hses.ilc.edu.tw
宜蘭縣,冬山鄉,國小,24659,縣立大進國小,偏遠,[269]宜蘭縣冬山鄉大進村大進七路51號,(03)9512268,http://www.djps.ilc.edu.tw
宜蘭縣,冬山鄉,國小,24660,縣立柯林國小,偏遠,[269]宜蘭縣冬山鄉柯林村光華路158號,(03)9511355,http://www.kles.ilc.edu.tw
宜蘭縣,大同鄉,國小,24668,縣立四季國小,特偏,[267]宜蘭縣大同鄉四季村和勳巷1號,(03)9809312,http://www.sches.ilc.edu.tw
宜蘭縣,大同鄉,國小,24669,縣立南山國小,特偏,[267]宜蘭縣大同鄉南山村四鄰埤南巷31之3號,(03)9809113,http://www.nses.ilc.edu.tw
宜蘭縣,大同鄉,國小,24670,縣立大同國小,偏遠,[267]宜蘭縣大同鄉崙埤村10之9號,(03)9801172,http://www.dtes.ilc.edu.tw
宜蘭縣,大同鄉,國小,24671,縣立寒溪國小,偏遠,[267]宜蘭縣大同鄉寒溪村寒溪巷16號,(03)9517441,http://www.hsies.ilc.edu.tw
宜蘭縣,南澳鄉,國小,24672,縣立南澳國小,偏遠,[272]宜蘭縣南澳鄉南澳村中正路15號,(03)9981228,http://www.naes.ilc.edu.tw
宜蘭縣,南澳鄉,國小,24673,縣立碧候國小,偏遠,[272]宜蘭縣南澳鄉碧候村自覺巷38號,(03)9981634,http://www.bhoes.ilc.edu.tw
宜蘭縣,南澳鄉,國小,24674,縣立武塔國小,偏遠,[272]宜蘭縣南澳鄉武塔村新溪路1號,(03)9981632,http://www.utaes.ilc.edu.tw
宜蘭縣,南澳鄉,國小,24675,縣立澳花國小,特偏,[272]宜蘭縣南澳鄉澳花村中央路19號,(03)9985141,http://www.awes.ilc.edu.tw
宜蘭縣,南澳鄉,國小,24676,縣立東澳國小,偏遠,[272]宜蘭縣南澳鄉東岳村蘇花路三段209號,(03)9986217,http://www.daes.ilc.edu.tw
宜蘭縣,南澳鄉,國小,24677,縣立金岳國小,偏遠,[272]宜蘭縣南澳鄉金岳村 (路) 二號,(03)9981636,http://www.jyes.ilc.edu.tw
宜蘭縣,南澳鄉,國小,24678,縣立金洋國小,特偏,[272]宜蘭縣南澳鄉金洋村11號,(03)9981486,http://www.kyes.ilc.edu.tw
新竹縣,竹東鎮,國小,41601,私立上智國小,偏遠,[310]新竹縣竹東鎮東寧路三段205號,(03)5962082,http://www.scps2.hcc.edu.tw
新竹縣,關西鎮,國小,44609,縣立玉山國小,偏遠,[306]新竹縣關西鎮玉山里四鄰25號,(03)5476349,http://www.yses.hcc.edu.tw
新竹縣,新埔鎮,國小,44613,縣立清水國小,偏遠,[305]新竹縣新埔鎮清水里143號,(03)5899235,http://www.cies.hcc.edu.tw
新竹縣,竹東鎮,國小,44625,縣立陸豐國小,偏遠,[310]新竹縣竹東鎮陸豐里48號,(03)5923697,http://www.lfes.hcc.edu.tw
新竹縣,竹東鎮,國小,44626,縣立瑞峰國小,偏遠,[310]新竹縣竹東鎮上坪里43號,(03)5949052,http://www.rfes.hcc.edu.tw
新竹縣,橫山鄉,國小,44646,縣立田寮國小,偏遠,[312]新竹縣橫山鄉田寮村田洋街128號,(03)5934164,http://www.tles.hcc.edu.tw
新竹縣,寶山鄉,國小,44658,縣立寶山國小,偏遠,[308]新竹縣寶山鄉寶山村寶山路二段130號,(03)5761390,http://www.bses.hcc.edu.tw
新竹縣,北埔鄉,國小,44663,縣立大坪國小,偏遠,[314]新竹縣北埔鄉外坪村一鄰8號,(03)5802264,http://www.dpes.hcc.edu.tw
新竹縣,尖石鄉,國小,44666,縣立尖石國小,偏遠,[313]新竹縣尖石鄉嘉樂村六鄰7號,(03)5841563,http://www.gsps.hcc.edu.tw
新竹縣,尖石鄉,國小,44667,縣立嘉興國小,偏遠,[313]新竹縣尖石鄉嘉樂村三鄰177號,(03)5841004,http://www.jsps.hcc.edu.tw
新竹縣,尖石鄉,國小,44668,縣立新樂國小,偏遠,[313]新竹縣尖石鄉新樂村一鄰10號,(03)5841500,http://www.hles.hcc.edu.tw
新竹縣,尖石鄉,國小,44669,縣立梅花國小,偏遠,[313]新竹縣尖石鄉梅花村1鄰25號,(03)5841501,http://www.mhes.hcc.edu.tw
新竹縣,尖石鄉,國小,44670,縣立錦屏國小,偏遠,[313]新竹縣尖石鄉錦屏村十鄰116號,(03)5841633,http://www.gpes.hcc.edu.tw
新竹縣,尖石鄉,國小,44671,縣立玉峰國小,特偏,[313]新竹縣尖石鄉玉峰村五鄰59號,(03)5847200,http://www.yfes.hcc.edu.tw
新竹縣,尖石鄉,國小,44672,縣立石磊國小,特偏,[313]新竹縣尖石鄉玉峰村十鄰49號,(03)5847001,http://www.sles.hcc.edu.tw
新竹縣,尖石鄉,國小,44673,縣立秀巒國小,特偏,[313]新竹縣尖石鄉秀巒村四鄰19號,(03)5847500,http://www.slps.hcc.edu.tw
新竹縣,尖石鄉,國小,44674,縣立新光國小,特偏,[313]新竹縣尖石鄉秀巒村八鄰17號,(03)5847706,http://www.hkps.hcc.edu.tw
新竹縣,五峰鄉,國小,44675,縣立五峰國小,偏遠,[311]新竹縣五峰鄉大隘村六鄰123號,(03)5851007,http://www.wfes.hcc.edu.tw
新竹縣,五峰鄉,國小,44676,縣立桃山國小,偏遠,[311]新竹縣五峰鄉桃山村15鄰243號,(03)5856040,http://www.tses.hcc.edu.tw
新竹縣,五峰鄉,國小,44677,縣立花園國小,偏遠,[311]新竹縣五峰鄉花園村八鄰174號,(03)5851091,http://www.hyes.hcc.edu.tw
苗栗縣,公館鄉,國小,54614,縣立開礦國小,偏遠,[363]苗栗縣公館鄉開礦村九鄰143號,(037)224559,http://web.kaigunges.mlc.edu.tw
苗栗縣,公館鄉,國小,54615,縣立南河國小,偏遠,[363]苗栗縣公館鄉南河村二鄰21號,(037)226806,http://www.nanheps.mlc.edu.tw
苗栗縣,銅鑼鄉,國小,54618,縣立九湖國小,偏遠,[366]苗栗縣銅鑼鄉九湖村10鄰91之1號,(037)981149,http://web.jhes.mlc.edu.tw
苗栗縣,銅鑼鄉,國小,54619,縣立新隆國小,偏遠,[366]苗栗縣銅鑼鄉新隆村18號,(037)971102,http://web.xles.mlc.edu.tw
苗栗縣,銅鑼鄉,國小,54620,縣立興隆國小,偏遠,[366]苗栗縣銅鑼鄉興隆村117號,(037)982804,http://web.sles.mlc.edu.tw
苗栗縣,銅鑼鄉,國小,54621,縣立文峰國小,偏遠,[366]苗栗縣銅鑼鄉樟樹村12之1號,(037)981143,http://www.wfe.mlc.edu.tw
苗栗縣,三義鄉,國小,54625,縣立鯉魚國小,偏遠,[367]苗栗縣三義鄉鯉魚潭村上山下24號,(037)881154,http://www.liyues.mlc.edu.tw
苗栗縣,苑裡鎮,國小,54633,縣立林森國小,偏遠,[358]苗栗縣苑裡鎮水坡里70號,(037)861084,http://web.linsenes.mlc.edu.tw
苗栗縣,苑裡鎮,國小,54634,縣立蕉埔國小,偏遠,[358]苗栗縣苑裡鎮蕉埔里八鄰87之2號,(037)741574,http://web.jpes.mlc.edu.tw
苗栗縣,通霄鎮,國小,54637,縣立城中國小,偏遠,[357]苗栗縣通霄鎮城北里13號,(037)754504,http://web.cjes.mlc.edu.tw
苗栗縣,通霄鎮,國小,54640,縣立烏眉國小,偏遠,[357]苗栗縣通霄鎮烏眉里3鄰39號,(037)753084,http://web.wumeies.mlc.edu.tw
苗栗縣,通霄鎮,國小,54641,縣立南和國小,偏遠,[357]苗栗縣通霄鎮南和里117號,(037)782304,http://web.nhes.mlc.edu.tw
苗栗縣,通霄鎮,國小,54642,縣立坪頂國小,偏遠,[357]苗栗縣通霄鎮坪頂里四鄰50號,(037)782214,http://163.19.214.67
苗栗縣,通霄鎮,國小,54643,縣立圳頭國小,偏遠,[357]苗栗縣通霄鎮圳頭里60號,(037)754434,http://www.toes.mlc.edu.tw
苗栗縣,通霄鎮,國小,54644,縣立楓樹國小,偏遠,[357]苗栗縣通霄鎮楓樹里10鄰116號,(037)754004,http://www.fgu.mlc.edu.tw
苗栗縣,通霄鎮,國小,54645,縣立福興武術國(中)小,偏遠,[357]苗栗縣通霄鎮福興里58之2號,(037)782984,http://web.fushing.mlc.edu.tw
苗栗縣,西湖鄉,國小,54649,縣立瑞湖國小,偏遠,[368]苗栗縣西湖鄉四湖村老屋16號,(037)921614,http://web.rhes.mlc.edu.tw
苗栗縣,三灣鄉,國小,54667,縣立大坪國小,偏遠,[352]苗栗縣三灣鄉大坪村四鄰大坪林42號,(037)541968,http://web.des.mlc.edu.tw
苗栗縣,南庄鄉,國小,54668,縣立南庄國小,偏遠,[353]苗栗縣南庄鄉東村文化路3號,(037)822007,http://www.nanjuanges.mlc.edu.tw
苗栗縣,南庄鄉,國小,54669,縣立田美國小,偏遠,[353]苗栗縣南庄鄉田美村九鄰191號,(037)822445,http://www.tmes.mlc.edu.tw
苗栗縣,南庄鄉,國小,54670,縣立南埔國小,偏遠,[353]苗栗縣南庄鄉南富村134號,(037)822324,http://www.nanpues.mlc.edu.tw
苗栗縣,南庄鄉,國小,54671,縣立東河國小,偏遠,[353]苗栗縣南庄鄉東河村三鄰132號,(037)823423,http://web.donghe.mlc.edu.tw
苗栗縣,南庄鄉,國小,54672,縣立蓬萊國小,偏遠,[353]苗栗縣南庄鄉蓬萊村19鄰118號,(037)823385,http://www.penla.mlc.edu.tw
苗栗縣,後龍鎮,國小,54687,縣立中和國小,偏遠,[356]苗栗縣後龍鎮中和里十四鄰一五二號,(037)921451,http://www.jhps.mlc.edu.tw/school/web/index.php
苗栗縣,後龍鎮,國小,54688,縣立同光國小,偏遠,[356]苗栗縣後龍鎮龍津里94號,(037)450738,http://web.tges.mlc.edu.tw
苗栗縣,後龍鎮,國小,54689,縣立海寶國小,偏遠,[356]苗栗縣後龍鎮海寶里五鄰52之2號,(037)431235,http://web.haibaues.mlc.edu.tw
苗栗縣,大湖鄉,國小,54693,縣立大南國小,偏遠,[364]苗栗縣大湖鄉大南村7鄰大南勢15號,(037)992813,http://www.dnes.mlc.edu.tw
苗栗縣,大湖鄉,國小,54694,縣立東興國小,偏遠,[364]苗栗縣大湖鄉東興村下湖37號,(037)992815,http://web.dss.mlc.edu.tw
苗栗縣,大湖鄉,國小,54695,縣立武榮國小,偏遠,[364]苗栗縣大湖鄉義和村淋漓坪77號,(037)992816,http://web.we.mlc.edu.tw
苗栗縣,大湖鄉,國小,54696,縣立新開國小,偏遠,[364]苗栗縣大湖鄉新開村25號,(037)951210,http://web.shinkaies.mlc.edu.tw
苗栗縣,大湖鄉,國小,54697,縣立栗林國小,偏遠,[364]苗栗縣大湖鄉栗林村四份61號,(037)951335,http://web.lilin.mlc.edu.tw
苗栗縣,獅潭鄉,國小,54698,縣立獅潭國小,偏遠,[354]苗栗縣獅潭鄉新店村129號,(037)931305,http://web.st.mlc.edu.tw
苗栗縣,獅潭鄉,國小,54699,縣立豐林國小,偏遠,[354]苗栗縣獅潭鄉新豐村四鄰56號,(037)931664,http://www.fl.mlc.edu.tw
苗栗縣,獅潭鄉,國小,54700,縣立永興國小,偏遠,[354]苗栗縣獅潭鄉永興村6鄰55-1號,(037)931292,http://www.yungshinges.mlc.edu.tw
苗栗縣,卓蘭鎮,國小,54702,縣立內灣國小,偏遠,[369]苗栗縣卓蘭鎮內灣里120號,(04)25892094,http://www.nwes.mlc.edu.tw
苗栗縣,卓蘭鎮,國小,54703,縣立豐田國小,偏遠,[369]苗栗縣卓蘭鎮豐田里36號,(04)25892164,http://web.ftes.mlc.edu.tw
苗栗縣,卓蘭鎮,國小,54704,縣立坪林國小,偏遠,[369]苗栗縣卓蘭鎮坪林里七鄰坪林86之2號,(04)25921334,http://web.ples.mlc.edu.tw
苗栗縣,卓蘭鎮,國小,54705,縣立雙連國小,偏遠,[369]苗栗縣卓蘭鎮坪林里雙連16-1號,(04)25892794,http://web.2les.mlc.edu.tw
苗栗縣,卓蘭鎮,國小,54706,縣立景山國小,偏遠,[369]苗栗縣卓蘭鎮景山里5鄰88號,(04)25921221,http://web.gs.mlc.edu.tw
苗栗縣,泰安鄉,國小,54707,縣立泰安國(中)小,特偏,[365]苗栗縣泰安鄉大興村32之1號,(037)991224,http://woa.mlc.edu.tw/index.jsp?unitid=000642
苗栗縣,泰安鄉,國小,54708,縣立泰興國小,偏遠,[365]苗栗縣泰安鄉中興村1鄰2號,(037)992852,http://www.tses.mlc.edu.tw
苗栗縣,泰安鄉,國小,54709,縣立清安國小,偏遠,[365]苗栗縣泰安鄉清安村六鄰122號,(037)941042,http://ca.course.mlc.edu.tw/front/bin/home.phtml
苗栗縣,泰安鄉,國小,54711,縣立汶水國小,偏遠,[365]苗栗縣泰安鄉錦水村四鄰12號,(037)941037,http://web.ws.mlc.edu.tw
苗栗縣,泰安鄉,國小,54712,縣立象鼻國小,特偏,[365]苗栗縣泰安鄉象鼻村一鄰4號,(037)962270,http://web.cnbe.mlc.edu.tw
苗栗縣,泰安鄉,國小,54714,縣立梅園國小,特偏,[365]苗栗縣泰安鄉梅園村二鄰38號,(037)962146,http://www.my.mlc.edu.tw
苗栗縣,泰安鄉,國小,54725,縣立士林國小,特偏,[365]苗栗縣泰安鄉士林村5鄰26號,(037)962050,http://web.shlines.mlc.edu.tw
彰化縣,芬園鄉,國小,74618,縣立同安國小,偏遠,[502]彰化縣芬園鄉中崙村大彰路二段400巷36號,(04)8590502,http://www.taes.chc.edu.tw
彰化縣,芬園鄉,國小,74619,縣立文德國小,偏遠,[502]彰化縣芬園鄉大竹村大彰路一段617號,(04)8590012,http://www.wdes.chc.edu.tw
彰化縣,福興鄉,國小,74648,縣立文昌國小,偏遠,[506]彰化縣福興鄉鎮平村鎮平街1號,(04)7702812,http://www.wces.chc.edu.tw
彰化縣,福興鄉,國小,74651,縣立永豐國小,偏遠,[506]彰化縣福興鄉番社村80號,(04)7792748,http://www.yfes.chc.edu.tw
彰化縣,埔鹽鄉,國小,74668,縣立南港國小,偏遠,[516]彰化縣埔鹽鄉南港村埔菜路29之2號,(04)8850169,http://ngps.tw.class.urlifelinks.com
彰化縣,埔鹽鄉,國小,74670,縣立永樂國小,偏遠,[516]彰化縣埔鹽鄉永樂村大新路二巷109-1號,(04)8652263,http://www.yles.chc.edu.tw
彰化縣,埔鹽鄉,國小,74672,縣立天盛國小,偏遠,[516]彰化縣埔鹽鄉天盛村番金路68之1號,(04)8650842,http://www.tses.chc.edu.tw
彰化縣,埔心鄉,國小,74676,縣立羅厝國小,偏遠,[513]彰化縣埔心鄉羅厝村文昌東路100號,(04)8292861,http://www.rtes.chc.edu.tw
彰化縣,員林市,國小,74688,縣立明湖國小,偏遠,[510]彰化縣員林市湖水里湖水巷26號,(04)8310743,http://www.mhes.chc.edu.tw
彰化縣,田中鎮,國小,74702,縣立東和國小,偏遠,[520]彰化縣田中鎮復興里山腳路四段188巷109號,(04)8742708,http://www.dhps.chc.edu.tw
彰化縣,北斗鎮,國小,74715,縣立大新國小,偏遠,[521]彰化縣北斗鎮大新里大新路556號,(04)8882640,http://www.dsses.chc.edu.tw
彰化縣,埤頭鄉,國小,74723,縣立豐崙國小,偏遠,[523]彰化縣埤頭鄉豐崙村校前路50號,(04)8922136,http://www.fles.chc.edu.tw
彰化縣,埤頭鄉,國小,74726,縣立大湖國小,偏遠,[523]彰化縣埤頭鄉大湖村大湖路260號,(04)8922009,http://163.23.106.1/school/web/index.php
彰化縣,溪州鄉,國小,74731,縣立潮洋國小,偏遠,[524]彰化縣溪州鄉潮洋村陸軍路一段146號,(04)8803059,http://www.cyps.chc.edu.tw
彰化縣,溪州鄉,國小,74732,縣立成功國小,偏遠,[524]彰化縣溪州鄉成功村登山路二段365號,(04)8802225,http://www.cges.chc.edu.tw
彰化縣,溪州鄉,國小,74733,縣立圳寮國小,偏遠,[524]彰化縣溪州鄉圳寮村下樹巷29號,(04)8802165,http://www.jles.chc.edu.tw
彰化縣,溪州鄉,國小,74734,縣立大莊國小,偏遠,[524]彰化縣溪州鄉大庄村中橫巷1號,(04)8802438,http://www.djps.chc.edu.tw
彰化縣,二林鎮,國小,74737,縣立興華國小,偏遠,[526]彰化縣二林鎮東興里竹林路三段393號,(04)8962594,http://www.shes.chc.edu.tw
彰化縣,二林鎮,國小,74739,縣立育德國小,偏遠,[526]彰化縣二林鎮外竹里中南巷41之1號,(04)8962574,http://163.23.90.1
彰化縣,二林鎮,國小,74740,縣立香田國小,偏遠,[526]彰化縣二林鎮香田里儒林路10之1號,(04)8960654,http://www.sstes.chc.edu.tw
彰化縣,二林鎮,國小,74741,縣立廣興國小,偏遠,[526]彰化縣二林鎮廣興里廣興巷2之1號,(04)8962584,http://www.gsps.chc.edu.tw
彰化縣,二林鎮,國小,74743,縣立新生國小,偏遠,[526]彰化縣二林鎮趙甲里鎮平巷59號,(04)8964330,http://www.sssps.chc.edu.tw
彰化縣,二林鎮,國小,74746,縣立萬合國小,偏遠,[526]彰化縣二林鎮萬合里江山巷1號,(04)8902164,http://163.23.91.1
彰化縣,大城鄉,國小,74747,縣立大城國小,偏遠,[527]彰化縣大城鄉大城村中平路176號,(04)8941135,http://www.dcps.chc.edu.tw
彰化縣,大城鄉,國小,74748,縣立永光國小,偏遠,[527]彰化縣大城鄉公館村青埔路7之8號,(04)8941640,http://www.yges.chc.edu.tw
彰化縣,大城鄉,國小,74749,縣立西港國小,偏遠,[527]彰化縣大城鄉東港村中央路2號,(04)8941029,http://www.sges.chc.edu.tw
彰化縣,大城鄉,國小,74750,縣立美豐國小,偏遠,[527]彰化縣大城鄉三豐村東盛路1號,(04)8941660,http://www.mfes.chc.edu.tw
彰化縣,大城鄉,國小,74751,縣立頂庄國小,偏遠,[527]彰化縣大城鄉頂庄村東厝路63之1號,(04)8941659,http://www.djes.chc.edu.tw
彰化縣,大城鄉,國小,74752,縣立潭墘國小,偏遠,[527]彰化縣大城鄉潭墘村潭城路1號,(04)8941009,http://www.tcps.chc.edu.tw
彰化縣,竹塘鄉,國小,74754,縣立田頭國小,偏遠,[525]彰化縣竹塘鄉田頭村光明路60號,(04)8972189,http://www.ttes.chc.edu.tw
彰化縣,竹塘鄉,國小,74756,縣立長安國小,偏遠,[525]彰化縣竹塘鄉長安村東陽路二段123號,(04)8972694,http://www.caes.chc.edu.tw
彰化縣,竹塘鄉,國小,74757,縣立土庫國小,偏遠,[525]彰化縣竹塘鄉土庫村東陽路一段362號,(04)8972140,http://www.tkes.chc.edu.tw
彰化縣,芳苑鄉,國小,74759,縣立後寮國小,偏遠,[528]彰化縣芳苑鄉後寮村芳寮路30號,(04)8983184,http://www.hles.chc.edu.tw
彰化縣,芳苑鄉,國小,74760,縣立民權國小,偏遠,[528]彰化縣芳苑鄉五俊村新生巷5之1號,(04)8932625,http://www.mces.chc.edu.tw
彰化縣,芳苑鄉,國小,74761,縣立育華國小,偏遠,[528]彰化縣芳苑鄉永興村太平路300號,(04)8933261,http://www.yhes.chc.edu.tw
彰化縣,芳苑鄉,國小,74762,縣立草湖國小,偏遠,[528]彰化縣芳苑鄉文津村芳草路66號,(04)8933327,http://www.thes.chc.edu.tw
彰化縣,芳苑鄉,國小,74763,縣立建新國小,偏遠,[528]彰化縣芳苑鄉新生村草漢路二段86號,(04)8862328,http://www.jses.chc.edu.tw
彰化縣,芳苑鄉,國小,74764,縣立漢寶國小,偏遠,[528]彰化縣芳苑鄉漢寶村草漢路漢寶段541號,(04)8991062,http://www.hbes.chc.edu.tw
彰化縣,芳苑鄉,國小,74766,縣立新寶國小,偏遠,[528]彰化縣芳苑鄉芳漢路129巷100號,(04)8932885,http://www.sbes.chc.edu.tw
彰化縣,芳苑鄉,國小,74767,縣立路上國小,偏遠,[528]彰化縣芳苑鄉路上村新上路12號,(04)8982014,http://www.lses.chc.edu.tw
南投縣,竹山鎮,國小,84646,縣立大鞍國小,偏遠,[557]南投縣竹山鎮大鞍里竹寮巷21號,(049)2841009,http://www.daps.ntct.edu.tw
南投縣,鹿谷鄉,國小,84675,縣立和雅國小,偏遠,[558]南投縣鹿谷鄉和雅村愛鄉路55號,(049)2752532,http://www.heyps.ntct.edu.tw
南投縣,國姓鄉,國小,84703,縣立港源國小,偏遠,[544]南投縣國姓鄉南港村港頭巷60號,(049)2451933,http://www.kwps.ntct.edu.tw
南投縣,水里鄉,國小,84708,縣立民和國小,偏遠,[553]南投縣水里鄉民和村忠信巷14號,(049)2741140,http://www.mhps.ntct.edu.tw
南投縣,信義鄉,國小,84716,縣立信義國小,偏遠,[556]南投縣信義鄉明德村玉山路24號,(049)2791263,http://163.22.68.130
南投縣,信義鄉,國小,84717,縣立羅娜國小,偏遠,[556]南投縣信義鄉羅娜村信義巷一鄰73號,(049)2831327,http://ms1.lnps.ntct.edu.tw/school/web/index.php
南投縣,信義鄉,國小,84718,縣立同富國小,偏遠,[556]南投縣信義鄉同富村同和巷4號,(049)2701503,http://www.tfups.ntct.edu.tw
南投縣,信義鄉,國小,84719,縣立愛國國小,偏遠,[556]南投縣信義鄉愛國村愛國巷108號,(049)2791465,http://www.akps.ntct.edu.tw
南投縣,信義鄉,國小,84720,縣立人和國小,偏遠,[556]南投縣信義鄉人和村民生巷3號,(049)2773259,http://www.zhes.ntct.edu.tw
南投縣,信義鄉,國小,84721,縣立地利國小,偏遠,[556]南投縣信義鄉地利村開信巷17號,(049)2741254,http://www.dlps.ntct.edu.tw
南投縣,信義鄉,國小,84722,縣立東埔國小,偏遠,[556]南投縣信義鄉東埔村開高巷63號,(049)2701340,http://163.22.119.61
南投縣,信義鄉,國小,84724,縣立潭南國小,偏遠,[556]南投縣信義鄉潭南村和平巷49號,(049)2741381,http://www.tnps.ntct.edu.tw
南投縣,信義鄉,國小,84727,縣立桐林國小,偏遠,[556]南投縣信義鄉同富村太平巷18號,(049)2701483,http://www.tlps.ntct.edu.tw
南投縣,信義鄉,國小,84728,縣立隆華國小,偏遠,[556]南投縣信義鄉神木村民和巷21號,(049)2701478,http://ms1.lwps.ntct.edu.tw
南投縣,信義鄉,國小,84729,縣立新鄉國小,偏遠,[556]南投縣信義鄉新鄉村80號,(049)2831591,http://163.22.83.53/sinapalan/
南投縣,信義鄉,國小,84730,縣立久美國小,偏遠,[556]南投縣信義鄉望美村美信巷54號,(049)2831506,http://www.loxa.edu.tw/schoolweb.html?webId=581
南投縣,信義鄉,國小,84731,縣立雙龍國小,偏遠,[556]南投縣信義鄉雙龍村光復巷4號,(049)2741325,http://www.sles.ntct.edu.tw
南投縣,信義鄉,國小,84732,縣立豐丘國小,偏遠,[556]南投縣信義鄉豐丘村高平巷77號,(049)2791723,http://www.fcps.ntct.edu.tw
南投縣,仁愛鄉,國小,84733,縣立仁愛國小,偏遠,[546]南投縣仁愛鄉大同村山農巷5號,(049)2802373,http://www.raes.ntct.edu.tw
南投縣,仁愛鄉,國小,84734,縣立親愛國小,偏遠,[546]南投縣仁愛鄉親愛村高平路3號,(049)2974033,http://www.caps.ntct.edu.tw
南投縣,仁愛鄉,國小,84735,縣立法治國小,偏遠,[546]南投縣仁愛鄉法治村界山巷6號,(049)2977061,http://www.fzps.ntct.edu.tw
南投縣,仁愛鄉,國小,84736,縣立合作國小,偏遠,[546]南投縣仁愛鄉合作村平生路23號,(049)2970063,http://www.hzps.ntct.edu.tw
南投縣,仁愛鄉,國小,84737,縣立互助國小,偏遠,[546]南投縣仁愛鄉互助村中華路1號,(049)2941016,http://www.hgps.ntct.edu.tw/php/xoops/
南投縣,仁愛鄉,國小,84738,縣立力行國小,偏遠,[546]南投縣仁愛鄉力行村新望洋67號,(049)2955078,http://www.lhes.ntct.edu.tw
南投縣,仁愛鄉,國小,84739,縣立南豐國小,偏遠,[546]南投縣仁愛鄉南豐村楓林路3號,(049)2920037,http://www.nfps.ntct.edu.tw
南投縣,仁愛鄉,國小,84740,縣立中正國小,偏遠,[546]南投縣仁愛鄉中正村平等巷114號,(049)2925114,http://www.ccheps.ntct.edu.tw
南投縣,仁愛鄉,國小,84741,縣立廬山國小,偏遠,[546]南投縣仁愛鄉精英村中華巷19號,(049)2970385,http://163.22.150.1
南投縣,仁愛鄉,國小,84742,縣立發祥國小,偏遠,[546]南投縣仁愛鄉發祥村光復巷24號,(049)2955030,http://www.fsnps.ntct.edu.tw
南投縣,仁愛鄉,國小,84743,縣立萬豐國小,偏遠,[546]南投縣仁愛鄉萬豐村清華巷8號,(049)2974123,http://www.wfps.ntct.edu.tw
南投縣,仁愛鄉,國小,84744,縣立平靜國小,偏遠,[546]南投縣仁愛鄉精英村法觀路17號,(049)2970053,http://www.pgps.ntct.edu.tw
南投縣,仁愛鄉,國小,84745,縣立春陽國小,偏遠,[546]南投縣仁愛鄉春陽村永樂巷58號,(049)2802573,http://ms1.cwps.ntct.edu.tw/school/web/index.php
南投縣,仁愛鄉,國小,84746,縣立紅葉國小,偏遠,[546]南投縣仁愛鄉發祥村仁盛路70號,(049)2955075,http://www.hyps.ntct.edu.tw
南投縣,仁愛鄉,國小,84747,縣立清境國小,偏遠,[546]南投縣仁愛鄉定遠新村24號,(049)2802572,http://ms1.cgps.ntct.edu.tw/school/web/index.php
雲林縣,古坑鄉,國小,94615,縣立華山國小,偏遠,[646]雲林縣古坑鄉華山村41號,(05)5901243,http://www.hses.ylc.edu.tw
雲林縣,古坑鄉,國小,94617,縣立桂林國小,偏遠,[646]雲林縣古坑鄉桂林村95號,(05)5901048,http://www.gles.ylc.edu.tw
雲林縣,古坑鄉,國小,94618,縣立樟湖生態國(中)小,特偏,[646]雲林縣古坑鄉樟湖村石橋50-2號,(05)5811044,http://www.jhps.ylc.edu.tw
雲林縣,古坑鄉,國小,94619,縣立草嶺生態地質國小,特偏,[646]雲林縣古坑鄉草嶺村56-8號,(05)5831010,http://www.tles.ylc.edu.tw
雲林縣,古坑鄉,國小,94620,縣立華南國小,偏遠,[646]雲林縣古坑鄉華南村28號,(05)5901529,http://www.hnes.ylc.edu.tw
雲林縣,古坑鄉,國小,94622,縣立山峰華德福實小,特偏,[646]雲林縣古坑鄉荷苞村山峰17號,(05)5822075,http://tw.school.uschoolnet.com/?id=es00002076
雲林縣,林內鄉,國小,94628,縣立成功國小,偏遠,[643]雲林縣林內鄉坪頂村1號,(05)5892090,http://www.ckes.ylc.edu.tw
雲林縣,虎尾鎮,國小,94652,縣立光復國小,偏遠,[632]雲林縣虎尾鎮墾地里光復莊11鄰39號,(05)6326257,http://www.gfps.ylc.edu.tw
雲林縣,土庫鎮,國小,94664,縣立新庄國小,偏遠,[633]雲林縣土庫鎮新庄里南新庄1號,(05)6652874,http://www.sjes.ylc.edu.tw
雲林縣,土庫鎮,國小,94665,縣立宏崙國小,偏遠,[633]雲林縣土庫鎮崙內里果圍41號,(05)6653824,http://www.hlps.ylc.edu.tw
雲林縣,褒忠鄉,國小,94668,縣立復興國小,偏遠,[634]雲林縣褒忠鄉新湖村復興路71號,(05)6972490,http://www.fhes.ylc.edu.tw
雲林縣,東勢鄉,國小,94673,縣立同安國小,偏遠,[635]雲林縣東勢鄉同安路67號,(05)6991244,http://www.taes.ylc.edu.tw
雲林縣,臺西鄉,國小,94679,縣立尚德國小,偏遠,[636]雲林縣臺西鄉溪頂村12號,(05)6982074,http://www.sdes.ylc.edu.tw
雲林縣,二崙鄉,國小,94693,縣立義賢國小,偏遠,[649]雲林縣二崙鄉楊賢村楊賢路1號,(05)5982797,http://www.ysps.ylc.edu.tw
雲林縣,麥寮鄉,國小,94706,縣立豐安國小,偏遠,[638]雲林縣麥寮鄉後安村227號,(05)6932759,http://www.faes.ylc.edu.tw
雲林縣,元長鄉,國小,94718,縣立山內國小,偏遠,[655]雲林縣元長鄉山內村南山路3號,(05)7882152,http://www.snes.ylc.edu.tw
雲林縣,元長鄉,國小,94720,縣立忠孝國小,偏遠,[655]雲林縣元長鄉龍岩村148號,(05)7882096,http://www.jshes.ylc.edu.tw
雲林縣,元長鄉,國小,94721,縣立仁愛國小,偏遠,[655]雲林縣元長鄉潭西村潭內路1號,(05)7882710,http://www.raes.ylc.edu.tw
雲林縣,元長鄉,國小,94722,縣立信義國小,偏遠,[655]雲林縣元長鄉五塊村北水路8號,(05)7882712,http://www.syes.ylc.edu.tw
雲林縣,四湖鄉,國小,94730,縣立南光國小,偏遠,[654]雲林縣四湖鄉蔡厝村蔡厝路90號,(05)7872434,http://www.nges.ylc.edu.tw
雲林縣,四湖鄉,國小,94731,縣立鹿場國小,偏遠,[654]雲林縣四湖鄉鹿場村中鹿場路27號,(05)7872454,http://www.lcps.ylc.edu.tw
雲林縣,四湖鄉,國小,94732,縣立明德國小,偏遠,[654]雲林縣四湖鄉溪尾村中溪尾30號,(05)7872450,http://www.mdps.ylc.edu.tw
雲林縣,四湖鄉,國小,94734,縣立內湖國小,偏遠,[654]雲林縣四湖鄉內湖村三塊厝123號,(05)7872054,http://www.nhps.ylc.edu.tw
雲林縣,口湖鄉,國小,94739,縣立興南國小,偏遠,[653]雲林縣口湖鄉埔南村9號,(05)7892190,http://www.hnps.ylc.edu.tw
雲林縣,口湖鄉,國小,94740,縣立崇文國小,偏遠,[653]雲林縣口湖鄉蚵寮村崇文路二段285號,(05)7892186,http://www.cwes.ylc.edu.tw
雲林縣,口湖鄉,國小,94741,縣立成龍國小,偏遠,[653]雲林縣口湖鄉成龍村201號,(05)7971187,http://www.cles.ylc.edu.tw
雲林縣,口湖鄉,國小,94742,縣立臺興國小,偏遠,[653]雲林縣口湖鄉台子村台興路130號,(05)7971494,http://www.tses.ylc.edu.tw
雲林縣,口湖鄉,國小,94743,縣立頂湖國小,偏遠,[653]雲林縣口湖鄉頂湖村121號,(05)7892185,http://www.dhps.ylc.edu.tw
雲林縣,水林鄉,國小,94750,縣立誠正國小,偏遠,[652]雲林縣水林鄉蘇秦村1號,(05)7921114,http://www.cjes.ylc.edu.tw
雲林縣,水林鄉,國小,94751,縣立中興國小,偏遠,[652]雲林縣水林鄉瓊埔村148號,(05)7841064,http://163.27.228.65
雲林縣,水林鄉,國小,94752,縣立和安國小,特偏,[652]雲林縣水林鄉溪漧村41號,(05)7853932,http://www.haes.ylc.edu.tw
雲林縣,水林鄉,國小,94754,縣立大興國小,偏遠,[652]雲林縣水林鄉大溝村1號,(05)7851300,http://www.dsps.ylc.edu.tw
嘉義縣,朴子市,國小,104603,縣立雙溪國小,偏遠,[613]嘉義縣朴子市雙溪里30號,(05)3795549,http://www.ssps.cyc.edu.tw
嘉義縣,朴子市,國小,104604,縣立竹村國小,偏遠,[613]嘉義縣朴子市竹村里36號,(05)3693628,http://www.jtps.cyc.edu.tw
嘉義縣,朴子市,國小,104605,縣立松梅國小,偏遠,[613]嘉義縣朴子市松華里345號,05-3691083,http://www.smps.cyc.edu.tw
嘉義縣,朴子市,國小,104606,縣立大鄉國小,偏遠,[613]嘉義縣朴子市大鄉里560號,(05)3792952,http://www.dsps.cyc.edu.tw
嘉義縣,布袋鎮,國小,104608,縣立景山國小,偏遠,[625]嘉義縣布袋鎮東港里136號,(05)3472734,http://www.jsps.cyc.edu.tw
嘉義縣,布袋鎮,國小,104609,縣立永安國小,偏遠,[625]嘉義縣布袋鎮永安里126之2號,(05)3472654,http://www.yaps.cyc.edu.tw
嘉義縣,布袋鎮,國小,104611,縣立貴林國小,偏遠,[625]嘉義縣布袋鎮樹林里82號,(05)3451641,http://www.glps.cyc.edu.tw
嘉義縣,布袋鎮,國小,104612,縣立新塭國小,偏遠,[625]嘉義縣布袋鎮新民里374號,(05)3431064,http://www.sups.cyc.edu.tw
嘉義縣,布袋鎮,國小,104613,縣立新岑國小,偏遠,[625]嘉義縣布袋鎮新岑里4號,(05)3431525,http://www.scps.cyc.edu.tw
嘉義縣,布袋鎮,國小,104614,縣立好美國小,偏遠,[625]嘉義縣布袋鎮好美里106號,(05)3431524,http://www.hmes.cyc.edu.tw
嘉義縣,大林鎮,國小,104617,縣立中林國小,偏遠,[622]嘉義縣大林鎮中林里九鄰147號,(05)2653941,http://www.cles.cyc.edu.tw
嘉義縣,大林鎮,國小,104618,縣立排路國小,偏遠,[622]嘉義縣大林鎮排路里231號,(05)2694974,http://www.plps.cyc.edu.tw
嘉義縣,大林鎮,國小,104620,縣立社團國小,偏遠,[622]嘉義縣大林鎮三角里下林頭51號,(05)2952504,http://www.stps.cyc.edu.tw
嘉義縣,民雄鄉,國小,104624,縣立菁埔國小,偏遠,[621]嘉義縣民雄鄉菁埔村130之3號,(05)2262581,http://www.cpps.cyc.edu.tw
嘉義縣,民雄鄉,國小,104627,縣立松山國小,偏遠,[621]嘉義縣民雄鄉松山村松仔腳43之1號,(05)2721831,http://www.sses.cyc.edu.tw
嘉義縣,溪口鄉,國小,104630,縣立美林國小,偏遠,[623]嘉義縣溪口鄉美北村78之3號,(05)2691150,http://www.mlps.cyc.edu.tw
嘉義縣,溪口鄉,國小,104631,縣立柴林國小,偏遠,[623]嘉義縣溪口鄉柴林村107號,(05)2691440,http://www.chlps.cyc.edu.tw
嘉義縣,溪口鄉,國小,104632,縣立柳溝國小,偏遠,[623]嘉義縣溪口鄉柳溝村南靖厝5號,(05)2691071,http://www.lgps.cyc.edu.tw
嘉義縣,新港鄉,國小,104636,縣立古民國小,偏遠,[616]嘉義縣新港鄉古民村161號,(05)3742154,http://www.gmps.cyc.edu.tw
嘉義縣,新港鄉,國小,104637,縣立復興國小,偏遠,[616]嘉義縣新港鄉北崙村75之4號,(05)3760424,http://www.fsps.cyc.edu.tw
嘉義縣,新港鄉,國小,104638,縣立安和國小,偏遠,[616]嘉義縣新港鄉安和村46號,(05)3772940,http://www.ahps.cyc.edu.tw
嘉義縣,六腳鄉,國小,104640,縣立六腳國小,偏遠,[615]嘉義縣六腳鄉六腳村105號,(05)3781403,http://www.ljps.cyc.edu.tw
嘉義縣,六腳鄉,國小,104642,縣立灣內國小,偏遠,[615]嘉義縣六腳鄉灣南村6號,(05)3802306,http://www.wnps.cyc.edu.tw
嘉義縣,六腳鄉,國小,104643,縣立更寮國小,偏遠,[615]嘉義縣六腳鄉更寮村19號,(05)3796309,http://www.gles.cyc.edu.tw
嘉義縣,東石鄉,國小,104647,縣立東石國小,偏遠,[614]嘉義縣東石鄉猿樹村117號,(05)3732295,http://www.tsps.cyc.edu.tw
嘉義縣,東石鄉,國小,104648,縣立塭港國小,偏遠,[614]嘉義縣東石鄉塭港村170號,(05)3732653,http://www.ugps.cyc.edu.tw
嘉義縣,東石鄉,國小,104649,縣立三江國小,偏遠,[614]嘉義縣東石鄉三家村16號,(05)3732634,http://www.sjps.cyc.edu.tw
嘉義縣,東石鄉,國小,104650,縣立龍港國小,偏遠,[614]嘉義縣東石鄉龍港村113號,(05)3732671,http://www.lges.cyc.edu.tw
嘉義縣,東石鄉,國小,104651,縣立下楫國小,偏遠,[614]嘉義縣東石鄉下楫村147號,(05)3601508,http://www.sjes.cyc.edu.tw
嘉義縣,東石鄉,國小,104652,縣立港墘國小,偏遠,[614]嘉義縣東石鄉港墘村64號,(05)3795350,http://www.kcps.cyc.edu.tw
嘉義縣,東石鄉,國小,104653,縣立龍崗國小,偏遠,[614]嘉義縣東石鄉西崙村131號,(05)3451070,http://www.logps.cyc.edu.tw
嘉義縣,東石鄉,國小,104654,縣立網寮國小,偏遠,[614]嘉義縣東石鄉網寮村27號,(05)3451544,http://www.wlps.cyc.edu.tw
嘉義縣,鹿草鄉,國小,104656,縣立重寮國小,偏遠,[611]嘉義縣鹿草鄉重寮村160號,(05)3752544,http://www.clps.cyc.edu.tw
嘉義縣,鹿草鄉,國小,104657,縣立下潭國小,偏遠,[611]嘉義縣鹿草鄉光潭村196號,(05)3651544,http://www.htps.cyc.edu.tw
嘉義縣,鹿草鄉,國小,104658,縣立碧潭國小,偏遠,[611]嘉義縣鹿草鄉碧潭村184號,05-3652001,http://www.btps.cyc.edu.tw
嘉義縣,鹿草鄉,國小,104659,縣立竹園國小,偏遠,[611]嘉義縣鹿草鄉松竹村69號,(05)3650524,http://www.jyps.cyc.edu.tw
嘉義縣,義竹鄉,國小,104663,縣立光榮國小,偏遠,[624]嘉義縣義竹鄉東光村64號,(05)3420104,http://www.krps.cyc.edu.tw
嘉義縣,義竹鄉,國小,104665,縣立過路國小,偏遠,[624]嘉義縣義竹鄉西過村279號,(05)3437884,http://www.gulps.cyc.edu.tw
嘉義縣,義竹鄉,國小,104666,縣立和順國小,偏遠,[624]嘉義縣義竹鄉官順村356號,(05)3436121,http://www.hsps.cyc.edu.tw
嘉義縣,義竹鄉,國小,104668,縣立南興國小,偏遠,[624]嘉義縣義竹鄉新店村77號,(05)3427394,http://www.nses.cyc.edu.tw
嘉義縣,水上鄉,國小,104677,縣立義興國小,偏遠,[608]嘉義縣水上鄉義興村2之1號,(05)2890096,http://www.ysps.cyc.edu.tw
嘉義縣,水上鄉,國小,104678,縣立成功國小,偏遠,[608]嘉義縣水上鄉三界村153號,(05)2393485,http://www.ckps.cyc.edu.tw
嘉義縣,水上鄉,國小,104680,縣立南靖國小,偏遠,[608]嘉義縣水上鄉靖和村46號,(05)2682004,http://www.njps.cyc.edu.tw
嘉義縣,中埔鄉,國小,104682,縣立大有國小,偏遠,[606]嘉義縣中埔鄉裕民村石頭厝17之1號,(05)2531561,http://www.dyps.cyc.edu.tw
嘉義縣,中埔鄉,國小,104683,縣立中山國小,偏遠,[606]嘉義縣中埔鄉石弄村22號,(05)2531231,http://www.csps.cyc.edu.tw
嘉義縣,中埔鄉,國小,104688,縣立沄水國小,偏遠,[606]嘉義縣中埔鄉沄水村五鄰16號,(05)2531654,http://www.yses.cyc.edu.tw
嘉義縣,中埔鄉,國小,104692,縣立灣潭國小,偏遠,[606]嘉義縣中埔鄉灣潭村下庄1之1號,(05)2531660,http://www.utps.cyc.edu.tw
嘉義縣,番路鄉,國小,104694,縣立內甕國小,偏遠,[602]嘉義縣番路鄉內甕村3鄰1之1號,(05)2591434,http://www.nwps.cyc.edu.tw
嘉義縣,番路鄉,國小,104695,縣立黎明國小,偏遠,[602]嘉義縣番路鄉觸口村觸口164號,(05)2591194,http://www.limps.cyc.edu.tw
嘉義縣,番路鄉,國小,104696,縣立大湖國小,偏遠,[602]嘉義縣番路鄉大湖村下坪仔8號,(05)2581159,http://www.dhes.cyc.edu.tw
嘉義縣,番路鄉,國小,104698,縣立隙頂國小,特偏,[602]嘉義縣番路鄉公田村隙頂40號,(05)2586218,http://www.sdps.cyc.edu.tw
嘉義縣,竹崎鄉,國小,104702,縣立龍山國小,偏遠,[604]嘉義縣竹崎鄉龍山村水道70號,(05)2612843,http://www.lsps.cyc.edu.tw
嘉義縣,竹崎鄉,國小,104707,縣立桃源國小,偏遠,[604]嘉義縣竹崎鄉桃源村七鄰78號,(05)2541077,http://www.typs.cyc.edu.tw
嘉義縣,竹崎鄉,國小,104708,縣立中和國小,特偏,[604]嘉義縣竹崎鄉中和村奮起湖215號,(05)2561013,http://www.chps.cyc.edu.tw
嘉義縣,竹崎鄉,國小,104709,縣立中興國小,特偏,[604]嘉義縣竹崎鄉中和村石棹10號,(05)2561021,http://www.cses.cyc.edu.tw
嘉義縣,竹崎鄉,國小,104710,縣立光華國小,特偏,[604]嘉義縣竹崎鄉光華村四鄰10號,(05)2561074,http://www.ghps.cyc.edu.tw
嘉義縣,竹崎鄉,國小,104712,縣立義仁國小,偏遠,[604]嘉義縣竹崎鄉義和村山子門22號,(05)2110534,http://www.yrps.cyc.edu.tw
嘉義縣,竹崎鄉,國小,104713,縣立沙坑國小,偏遠,[604]嘉義縣竹崎鄉沙坑村57之2號,(05)2611244,http://www.sakps.cyc.edu.tw
嘉義縣,梅山鄉,國小,104716,縣立梅圳國小,偏遠,[603]嘉義縣梅山鄉圳南村三源23號,(05)2621615,http://www.mjps.cyc.edu.tw
嘉義縣,梅山鄉,國小,104717,縣立太平國小,特偏,[603]嘉義縣梅山鄉太平村4號,(05)2571004,http://www.tpps.cyc.edu.tw
嘉義縣,梅山鄉,國小,104719,縣立太興國小,特偏,[603]嘉義縣梅山鄉太興村4號,(05)2571087,http://www.tses.cyc.edu.tw
嘉義縣,梅山鄉,國小,104720,縣立瑞里國小,特偏,[603]嘉義縣梅山鄉瑞里村112號,(05)2501020,http://www.rlps.cyc.edu.tw
嘉義縣,梅山鄉,國小,104721,縣立大南國小,偏遠,[603]嘉義縣梅山鄉大南村大草埔15號,(05)2621253,http://www.dnps.cyc.edu.tw
嘉義縣,梅山鄉,國小,104722,縣立瑞峰國小,特偏,[603]嘉義縣梅山鄉瑞峰村生毛樹19號之1,(05)2501204,http://www.rfps.cyc.edu.tw
嘉義縣,梅山鄉,國小,104724,縣立太和國小,特偏,[603]嘉義縣梅山鄉太和村三鄰18號,(05)2661069,http://www.thps.cyc.edu.tw
嘉義縣,梅山鄉,國小,104725,縣立仁和國小,特偏,[603]嘉義縣梅山鄉太和村社前湖6號,(05)2661130,http://www.rhps.cyc.edu.tw
嘉義縣,大埔鄉,國小,104726,縣立大埔國小,特偏,[607]嘉義縣大埔鄉大埔村57號,(05)2521024,http://www.dpps.cyc.edu.tw
嘉義縣,阿里山鄉,國小,104727,縣立達邦國小,特偏,[605]嘉義縣阿里山鄉達邦村一鄰1號,(05)2511017,http://www.dbps.cyc.edu.tw
嘉義縣,阿里山鄉,國小,104729,縣立十字國小,特偏,[605]嘉義縣阿里山鄉十字村16號,(05)2511340,http://www.shtps.cyc.edu.tw
嘉義縣,阿里山鄉,國小,104730,縣立來吉國小,特偏,[605]嘉義縣阿里山鄉來吉村四鄰91號,(05)2661232,http://www.ljes.cyc.edu.tw
嘉義縣,阿里山鄉,國小,104731,縣立豐山國小,特偏,[605]嘉義縣阿里山鄉豐山村47號,(05)2661451,http://www.fses.cyc.edu.tw
嘉義縣,阿里山鄉,國小,104732,縣立山美國小,特偏,[605]嘉義縣阿里山鄉山美村61號,(05)2586520,http://www.smes.cyc.edu.tw
嘉義縣,阿里山鄉,國小,104733,縣立新美國小,特偏,[605]嘉義縣阿里山鄉新美村四鄰78號,(05)2513015,http://www.shmps.cyc.edu.tw
嘉義縣,阿里山鄉,國小,104734,縣立阿里山國(中)小,特偏,[605]嘉義縣阿里山鄉樂野村一鄰31號,(05)2561180,http://www.leyes.cyc.edu.tw
嘉義縣,阿里山鄉,國小,104735,縣立香林國小,特偏,[605]嘉義縣阿里山鄉香林村二鄰41號,(05)2679713,http://www.slps.cyc.edu.tw
嘉義縣,阿里山鄉,國小,104737,縣立茶山國小,特偏,[605]嘉義縣阿里山鄉茶山村三鄰74號,(05)2513014,http://www.chses.cyc.edu.tw
屏東縣,高樹鄉,國小,134637,縣立高樹國小,偏遠,[906]屏東縣高樹鄉高樹村華光路32號,(08)7960802,http://www.gsps.ptc.edu.tw
屏東縣,高樹鄉,國小,134638,縣立舊寮國小,偏遠,[906]屏東縣高樹鄉舊寮村長美路42號,(08)7962994,http://www.jolps.ptc.edu.tw
屏東縣,高樹鄉,國小,134639,縣立新豐國小,偏遠,[906]屏東縣高樹鄉新豐村泰和路26號,(08)7916486,http://www.sfps.ptc.edu.tw
屏東縣,高樹鄉,國小,134640,縣立田子國小,偏遠,[906]屏東縣高樹鄉鹽樹村公平路19號,(08)7962714,http://www.tzps.ptc.edu.tw
屏東縣,高樹鄉,國小,134641,縣立新南國小,偏遠,[906]屏東縣高樹鄉新南村興店路5號,(08)7962782,http://www.snps.ptc.edu.tw
屏東縣,高樹鄉,國小,134642,縣立泰山國小,偏遠,[906]屏東縣高樹鄉泰山村產業路84號,(08)7956274,http://www.tsps.ptc.edu.tw
屏東縣,高樹鄉,國小,134644,縣立廣興國小,偏遠,[906]屏東縣高樹鄉廣興村中正路28號,(08)7957412,http://www.gosps.ptc.edu.tw
屏東縣,高樹鄉,國小,134645,縣立南華國小,偏遠,[906]屏東縣高樹鄉南華村世一路1號,(08)7956544,http://www.nhes.ptc.edu.tw
屏東縣,里港鄉,國小,134646,縣立里港國小,偏遠,[905]屏東縣里港鄉過江路41號,(08)7752161,http://www.lgps.ptc.edu.tw
屏東縣,里港鄉,國小,134647,縣立載興國小,偏遠,[905]屏東縣里港鄉載興村載興路1之3號,(08)7752271,http://www.tses.ptc.edu.tw
屏東縣,里港鄉,國小,134648,縣立土庫國小,偏遠,[905]屏東縣里港鄉中和村中和路33號,(08)7731553,http://www.tkps.ptc.edu.tw
屏東縣,里港鄉,國小,134649,縣立三和國小,偏遠,[905]屏東縣里港鄉土庫路111之3號,(08)7731198,http://www.sahes.ptc.edu.tw
屏東縣,萬巒鄉,國小,134657,縣立萬巒國小,偏遠,[923]屏東縣萬巒鄉萬全村堡忠路28號,(08)7811627,http://www.wles.ptc.edu.tw
屏東縣,萬巒鄉,國小,134658,縣立五溝國小,偏遠,[923]屏東縣萬巒鄉五溝村西盛路89號,(08)7832285,http://www.wgps.ptc.edu.tw
屏東縣,萬巒鄉,國小,134659,縣立佳佐國小,偏遠,[923]屏東縣萬巒鄉佳和村佳興路59號,(08)7832018,http://www.jtes.ptc.edu.tw
屏東縣,萬巒鄉,國小,134661,縣立赤山國小,偏遠,[923]屏東縣萬巒鄉赤山村建興路40號,(08)7832205,http://www.chsps.ptc.edu.tw
屏東縣,內埔鄉,國小,134662,縣立內埔國小,偏遠,[912]屏東縣內埔鄉內埔村廣濟路2號,(08)7792055,http://www.npes.ptc.edu.tw
屏東縣,內埔鄉,國小,134663,縣立育英國小,偏遠,[912]屏東縣內埔鄉興南村育文路73號,(08)7793004,http://www.yips.ptc.edu.tw
屏東縣,內埔鄉,國小,134664,縣立僑智國小,偏遠,[912]屏東縣內埔鄉美和村學人路55號,(08)7792544,http://www.chjps.ptc.edu.tw
屏東縣,內埔鄉,國小,134665,縣立崇文國小,偏遠,[912]屏東縣內埔鄉龍泉村原勝路6號,(08)7701004,http://www.cwps.ptc.edu.tw
屏東縣,內埔鄉,國小,134666,縣立新生國小,偏遠,[912]屏東縣內埔鄉大新村大新路109號,(08)7708211,http://www.ssps.ptc.edu.tw
屏東縣,內埔鄉,國小,134667,縣立榮華國小,偏遠,[912]屏東縣內埔鄉建興村建興路216號,(08)7701104,http://www.rhes.ptc.edu.tw
屏東縣,內埔鄉,國小,134668,縣立黎明國小,偏遠,[912]屏東縣內埔鄉黎明村西淇路177號,(08)7701200,http://www.lmps.ptc.edu.tw
屏東縣,內埔鄉,國小,134669,縣立隘寮國小,偏遠,[912]屏東縣內埔鄉隘寮村清涼路二段238號,(08)7991036,http://www.alps.ptc.edu.tw
屏東縣,內埔鄉,國小,134670,縣立泰安國小,偏遠,[912]屏東縣內埔鄉老埤村壽比路116號,(08)7783031,http://www.taps.ptc.edu.tw
屏東縣,內埔鄉,國小,134671,縣立東勢國小,偏遠,[912]屏東縣內埔鄉東勢村大同路三段20號,(08)7792449,http://www.dsps.ptc.edu.tw
屏東縣,內埔鄉,國小,134672,縣立豐田國小,偏遠,[912]屏東縣內埔鄉豐田村新中路49號,(08)7792445,http://www.ftes.ptc.edu.tw
屏東縣,內埔鄉,國小,134673,縣立富田國小,偏遠,[912]屏東縣內埔鄉富田村里仁路202號,(08)7791034,http://www.ftps.ptc.edu.tw
屏東縣,竹田鄉,國小,134674,縣立竹田國小,偏遠,[911]屏東縣竹田鄉竹田村公正路35號,(08)7710834,http://www.jtps.ptc.edu.tw
屏東縣,竹田鄉,國小,134675,縣立西勢國小,偏遠,[911]屏東縣竹田鄉西勢村光明路8之1號,(08)7793474,http://www.sisps.ptc.edu.tw
屏東縣,竹田鄉,國小,134676,縣立大明國小,偏遠,[911]屏東縣竹田鄉泗洲村洲中路40號,(08)7887780,http://www.dmps.ptc.edu.tw
屏東縣,新埤鄉,國小,134677,縣立新埤國小,偏遠,[925]屏東縣新埤鄉新埤村新華路165號,(08)7971027,http://www.spes.ptc.edu.tw
屏東縣,新埤鄉,國小,134678,縣立大成國小,偏遠,[925]屏東縣新埤鄉打鐵村東興路33號,(08)7971078,http://www.dcps.ptc.edu.tw
屏東縣,新埤鄉,國小,134679,縣立萬隆國小,偏遠,[925]屏東縣新埤鄉萬隆村中山路126號,(08)7870191,http://www.wlps.ptc.edu.tw
屏東縣,新埤鄉,國小,134680,縣立餉潭國小,偏遠,[925]屏東縣新埤鄉餉潭村龍潭路149號,(08)7981600,http://www.stps.ptc.edu.tw
屏東縣,枋寮鄉,國小,134681,縣立枋寮國小,偏遠,[940]屏東縣枋寮鄉德興路197號,(08)8782034,http://www.flps.ptc.edu.tw
屏東縣,枋寮鄉,國小,134682,縣立僑德國小,偏遠,[940]屏東縣枋寮鄉隆山村僑德路186號,(08)8782096,http://www.cdps.ptc.edu.tw
屏東縣,枋寮鄉,國小,134683,縣立建興國小,偏遠,[940]屏東縣枋寮鄉人和村建興路39號,(08)8713562,http://www.jsps.ptc.edu.tw
屏東縣,枋寮鄉,國小,134684,縣立東海國小,偏遠,[940]屏東縣枋寮鄉東海村東海路486號,(08)8712209,http://163.24.90.249
屏東縣,新園鄉,國小,134691,縣立新園國小,偏遠,[932]屏東縣新園鄉新園村媽祖路49號,(08)8681113,http://www.syps.ttct.edu.tw/front/bin/home.phtml
屏東縣,新園鄉,國小,134692,縣立仙吉國小,偏遠,[932]屏東縣新園鄉仙吉村仙吉路91號,(08)8681087,http://www.sjes.ptc.edu.tw
屏東縣,新園鄉,國小,134693,縣立烏龍國小,偏遠,[932]屏東縣新園鄉南龍村南興路217號,(08)8325896,http://www.wules.ptc.edu.tw
屏東縣,新園鄉,國小,134694,縣立港西國小,偏遠,[932]屏東縣新園鄉港西村中和路101號,(08)8681644,http://www.ksps.ptc.edu.tw
屏東縣,新園鄉,國小,134695,縣立鹽洲國小,偏遠,[932]屏東縣新園鄉鹽埔村鹽洲路379號,(08)8322975,http://www.yjps.ptc.edu.tw
屏東縣,琉球鄉,國小,134696,縣立琉球國小,特偏,[929]屏東縣琉球鄉大福村中正路293號,(08)8612597,http://www.lcps.ptc.edu.tw
屏東縣,琉球鄉,國小,134697,縣立天南國小,特偏,[929]屏東縣琉球鄉南福村忠孝路27號,(08)8612300,http://www.tnps.ptc.edu.tw
屏東縣,琉球鄉,國小,134698,縣立全德國小,特偏,[929]屏東縣琉球鄉杉福村復興路97號,(08)8612534,http://www.cdes.ptc.edu.tw
屏東縣,琉球鄉,國小,134699,縣立白沙國小,特偏,[929]屏東縣琉球鄉漁福村三民路124號,(08)8612510,http://163.23.88.193
屏東縣,崁頂鄉,國小,134700,縣立崁頂國小,偏遠,[924]屏東縣崁頂鄉崁頂村中正路119號,(08)8631959,http://www.kdes.ptc.edu.tw
屏東縣,崁頂鄉,國小,134701,縣立港東國小,偏遠,[924]屏東縣崁頂鄉越溪村復興路96號,(08)8633272,http://www.kdps.ptc.edu.tw
屏東縣,崁頂鄉,國小,134702,縣立力社國小,偏遠,[924]屏東縣崁頂鄉力社村力社路36號,(08)8631544,http://www.lsps.ptc.edu.tw
屏東縣,林邊鄉,國小,134703,縣立林邊國小,偏遠,[927]屏東縣林邊鄉林邊村中山路68號,(08)8752120,http://www.lbps.ptc.edu.tw
屏東縣,林邊鄉,國小,134704,縣立仁和國小,偏遠,[927]屏東縣林邊鄉仁和村中山路417號,(08)8752201,http://www.rhps.ptc.edu.tw
屏東縣,林邊鄉,國小,134705,縣立竹林國小,偏遠,[927]屏東縣林邊鄉竹林村中興路122號,(08)8752884,http://www.jlps.ptc.edu.tw
屏東縣,林邊鄉,國小,134706,縣立崎峰國小,偏遠,[927]屏東縣林邊鄉崎峰村裕後路2號,(08)8752400,http://www.cfps.ptc.edu.tw
屏東縣,林邊鄉,國小,134707,縣立水利國小,偏遠,[927]屏東縣林邊鄉水利村豐漁路117號,(08)8752745,http://www.sulps.ptc.edu.tw
屏東縣,南州鄉,國小,134708,縣立南州國小,偏遠,[926]屏東縣南州鄉溪南村人和路191號,(08)8642097,http://www.njps.ptc.edu.tw
屏東縣,南州鄉,國小,134709,縣立同安國小,偏遠,[926]屏東縣南州鄉同安村同安路79號,(08)8642334,http://www.taes.ptc.edu.tw
屏東縣,南州鄉,國小,134710,縣立溪北國小,偏遠,[926]屏東縣南州鄉溪北村仁里路102號,(08)8642081,http://www.sbps.ptc.edu.tw
屏東縣,佳冬鄉,國小,134711,縣立佳冬國小,偏遠,[931]屏東縣佳冬鄉進學街150號,(08)8662009,http://www.jdps.ptc.edu.tw
屏東縣,佳冬鄉,國小,134712,縣立塭子國小,偏遠,[931]屏東縣佳冬鄉塭豐村中興路1號,(08)8662094,http://www.uzps.ptc.edu.tw
屏東縣,佳冬鄉,國小,134713,縣立羌園國小,偏遠,[931]屏東縣佳冬鄉羌園村羌光路669號,(08)8662474,http://www.cyps.ptc.edu.tw
屏東縣,佳冬鄉,國小,134714,縣立昌隆國小,偏遠,[931]屏東縣佳冬鄉昌隆村中正路44號,(08)8662093,http://www.chles.ptc.edu.tw
屏東縣,佳冬鄉,國小,134715,縣立大新國小,偏遠,[931]屏東縣佳冬鄉大同村武丁路33號,(08)8662175,http://www.dasps.ptc.edu.tw
屏東縣,佳冬鄉,國小,134716,縣立玉光國小,偏遠,[931]屏東縣佳冬鄉玉光村民學路81號,(08)8662629,http://www.yges.ptc.edu.tw
屏東縣,恆春鎮,國小,134717,縣立恆春國小,特偏,[946]屏東縣恆春鎮城北里北門路39巷26號,(08)8892035,http://www.hcps.ptc.edu.tw
屏東縣,恆春鎮,國小,134718,縣立僑勇國小,特偏,[946]屏東縣恆春鎮城北里西門路146號,(08)8892141,http://www.chyps.ptc.edu.tw
屏東縣,恆春鎮,國小,134720,縣立山海國小,特偏,[946]屏東縣恆春鎮山海里山海路86號,(08)8869026,http://www.sahps.ptc.edu.tw
屏東縣,恆春鎮,國小,134721,縣立大光國小,特偏,[946]屏東縣恆春鎮大光里大光路8之6號,(08)8867064,http://www.dgps.ptc.edu.tw
屏東縣,恆春鎮,國小,134722,縣立水泉國小,特偏,[946]屏東縣恆春鎮水泉里頂泉路1號,(08)8866208,http://www.scps.ptc.edu.tw
屏東縣,恆春鎮,國小,134723,縣立大平國小,特偏,[946]屏東縣恆春鎮頭溝里頭溝路161號,(08)8891584,http://www.dpps.ptc.edu.tw
屏東縣,恆春鎮,國小,134724,縣立墾丁國小,特偏,[946]屏東縣恆春鎮墾丁里墾丁路65號,(08)8861081,http://www.ktps.ptc.edu.tw
屏東縣,車城鄉,國小,134725,縣立車城國小,特偏,[944]屏東縣車城鄉福興村中山路66號,(08)8821006,http://www.cces.ptc.edu.tw
屏東縣,滿州鄉,國小,134729,縣立滿州國小,特偏,[947]屏東縣滿州鄉滿州村中山路39號,(08)8801162,http://www.mjps.ptc.edu.tw
屏東縣,滿州鄉,國小,134730,縣立長樂國小,特偏,[947]屏東縣滿州鄉長樂村大公路35號,(08)8811045,http://www.chlps.ptc.edu.tw
屏東縣,滿州鄉,國小,134731,縣立永港國小,特偏,[947]屏東縣滿州鄉永靖村新庄路25號,(08)8801125,http://www.ygps.ptc.edu.tw
屏東縣,枋山鄉,國小,134735,縣立楓港國小,特偏,[941]屏東縣枋山鄉善餘村光復路24號,(08)8771158,http://www.fkps.ptc.edu.tw
屏東縣,枋山鄉,國小,134736,縣立加祿國小,偏遠,[941]屏東縣枋山鄉加祿村會社路28號,(08)8720060,http://www.clups.ptc.edu.tw
屏東縣,三地門鄉,國小,134737,縣立地磨兒國小,偏遠,[901]屏東縣三地門鄉三地村行政街9號,(08)7991462,http://www.sdps.ptc.edu.tw
屏東縣,三地門鄉,國小,134740,縣立青山國小,偏遠,[901]屏東縣三地門鄉青山村民族巷9號,(08)7962493,http://www.chses.ptc.edu.tw
屏東縣,三地門鄉,國小,134741,縣立青葉國小,偏遠,[901]屏東縣三地門鄉青葉村光復巷1之2號,(08)7961997,http://www.cyes.ptc.edu.tw
屏東縣,三地門鄉,國小,134742,縣立口社國小,偏遠,[901]屏東縣三地門鄉口社村信義巷65號,(08)7956495,http://www.kses.ptc.edu.tw
屏東縣,瑪家鄉,國小,134744,縣立佳義國小,偏遠,[903]屏東縣瑪家鄉佳義村泰平巷12號,(08)7990038,http://www.jyps.ptc.edu.tw
屏東縣,瑪家鄉,國小,134746,縣立北葉國小,偏遠,[903]屏東縣瑪家鄉北葉村風景巷1號,(08)7991649,http://www.byps.ptc.edu.tw
屏東縣,霧臺鄉,國小,134748,縣立霧臺國小,特偏,[902]屏東縣霧臺鄉霧臺村中山巷44號,(08)7902230,http://www.wutps.ptc.edu.tw
屏東縣,泰武鄉,國小,134751,縣立武潭國小,偏遠,[921]屏東縣泰武鄉武潭村潭中巷45號,(08)7833179,http://www.wtes.ptc.edu.tw
屏東縣,泰武鄉,國小,134752,縣立泰武國小,偏遠,[921]屏東縣泰武鄉泰武村阿夫魯岸路1號,(08)7920063,http://www.twps.ptc.edu.tw
屏東縣,泰武鄉,國小,134753,縣立萬安國小,偏遠,[921]屏東縣泰武鄉萬安村萬安路1號,(08)7831902,http://www.waps.ptc.edu.tw
屏東縣,來義鄉,國小,134754,縣立來義國小,偏遠,[922]屏東縣來義鄉丹林村古義路2號,(08)7850411,http://www.lyps.ptc.edu.tw
屏東縣,來義鄉,國小,134755,縣立望嘉國小,偏遠,[922]屏東縣來義鄉望嘉村165號,(08)7981383,http://www.wcps.ptc.edu.tw
屏東縣,來義鄉,國小,134756,縣立文樂國小,偏遠,[922]屏東縣來義鄉文樂村新樂路1號,(08)7981836,http://www.welps.ptc.edu.tw
屏東縣,來義鄉,國小,134757,縣立南和國小,偏遠,[922]屏東縣來義鄉南和村51號,(08)8791263,http://www.nhps.ptc.edu.tw
屏東縣,來義鄉,國小,134758,縣立古樓國小,偏遠,[922]屏東縣來義鄉古樓村育英路2號,(08)7850281,http://www.ghes.ptc.edu.tw
屏東縣,春日鄉,國小,134759,縣立春日國小,偏遠,[942]屏東縣春日鄉春日村春日路314號,(08)8782433,http://www.crps.ptc.edu.tw
屏東縣,春日鄉,國小,134760,縣立力里國小,偏遠,[942]屏東縣春日鄉七佳村自強一路92號,(08)8791020,http://www.lles.ptc.edu.tw
屏東縣,春日鄉,國小,134761,縣立古華國小,偏遠,[942]屏東縣春日鄉古華村古華路3巷63號,(08)8781040,http://www.ghps.ptc.edu.tw
屏東縣,獅子鄉,國小,134762,縣立楓林國小,特偏,[943]屏東縣獅子鄉楓林村楓林2巷22-2號,(08)8771371,http://www.fles.ptc.edu.tw
屏東縣,獅子鄉,國小,134763,縣立丹路國小,特偏,[943]屏東縣獅子鄉丹路村丹路1巷39號,(08)8771455,http://www.dles.ptc.edu.tw
屏東縣,獅子鄉,國小,134764,縣立內獅國小,偏遠,[943]屏東縣獅子鄉內獅村1號,(08)8720003,http://www.nses.ptc.edu.tw
屏東縣,獅子鄉,國小,134765,縣立草埔國小,特偏,[943]屏東縣獅子鄉草埔村1巷5號,(08)8701449,http://www.cpps.ptc.edu.tw
屏東縣,牡丹鄉,國小,134766,縣立石門國小,特偏,[945]屏東縣牡丹鄉石門村石門路33號,(08)8831005,http://www.smps.ptc.edu.tw
屏東縣,牡丹鄉,國小,134768,縣立高士國小,特偏,[945]屏東縣牡丹鄉高士村高士路29號,(08)8810246,http://www.gses.ptc.edu.tw
屏東縣,牡丹鄉,國小,134769,縣立牡丹國小,特偏,[945]屏東縣牡丹鄉牡丹村牡丹路93號,(08)8830065,http://www.mdps.ptc.edu.tw
屏東縣,內埔鄉,國小,134776,縣立東寧國小,偏遠,[912]屏東縣內埔鄉內田村自強路85號,(08)7785563,http://www.dnps.ptc.edu.tw
屏東縣,里港鄉,國小,134780,縣立塔樓國小,偏遠,[905]屏東縣里港鄉塔樓村塔樓路21之3號,(08)7756625,http://www.tlps.ptc.edu.tw
屏東縣,里港鄉,國小,134781,縣立玉田國小,偏遠,[905]屏東縣里港鄉玉田村八德路91號,(08)7752816,http://www.ytes.ptc.edu.tw
屏東縣,三地門鄉,國小,134784,縣立賽嘉國小,偏遠,[901]屏東縣三地門鄉賽嘉村2號,(08)7992220,http://www.sces.ptc.edu.tw
屏東縣,新園鄉,國小,134785,縣立瓦?國小,偏遠,[932]屏東縣新園鄉瓦?村四環路3號,(08)8684050,http://www.wyps.ptc.edu.tw
屏東縣,瑪家鄉,國小,134787,縣立長榮百合國小,偏遠,[903]屏東縣瑪家鄉三和村三和巷16號,(08)7992750,http://www.eles.ptc.edu.tw
臺東縣,臺東市,國小,140601,國立臺東大學附小,偏遠,[950]臺東縣臺東市博愛路345號,(089)322047,http://www.nttues.nttu.edu.tw
臺東縣,臺東市,國小,144601,縣立仁愛國小,偏遠,[950]臺東縣臺東市四維路一段400號,(089)322071,http://www.raps.ttct.edu.tw
臺東縣,臺東市,國小,144602,縣立復興國小,偏遠,[950]臺東縣臺東市鐵花路87巷55號,(089)322672,http://www.fsps.ttct.edu.tw
臺東縣,臺東市,國小,144603,縣立光明國小,偏遠,[950]臺東縣臺東市中興路二段150巷29弄1號,(089)226304,http://www.gmps.ttct.edu.tw
臺東縣,臺東市,國小,144604,縣立寶桑國小,偏遠,[950]臺東縣臺東市四維路二段23號,(08)9322807,http://www.bsps.ttct.edu.tw
臺東縣,臺東市,國小,144605,縣立新生國小,偏遠,[950]臺東縣臺東市更生路474巷45號,(089)322039,http://www.ssps.ttct.edu.tw
臺東縣,臺東市,國小,144606,縣立豐里國小,偏遠,[950]臺東縣臺東市中華路三段80號,(08)9324040,http://www.flps.ttct.edu.tw
臺東縣,臺東市,國小,144607,縣立豐榮國小,偏遠,[950]臺東縣臺東市中華路二段154巷150號,(08)9323353,http://www.frps.ttct.edu.tw
臺東縣,臺東市,國小,144608,縣立馬蘭國小,偏遠,[950]臺東縣臺東市馬蘭里新社三街6號,(08)9229437,http://www.mlps.ttct.edu.tw
臺東縣,臺東市,國小,144609,縣立豐源國小,偏遠,[950]臺東縣臺東市中華路四段392號,(089)322063,http://www.fayps.ttct.edu.tw
臺東縣,臺東市,國小,144610,縣立康樂國小,偏遠,[950]臺東縣臺東市山西路一段256號,(089)226131,http://www.klps.ttct.edu.tw
臺東縣,臺東市,國小,144611,縣立豐年國小,偏遠,[950]臺東縣臺東市中興路三段320號,(08)9226733,http://www.fnps.ttct.edu.tw
臺東縣,臺東市,國小,144612,縣立卑南國小,偏遠,[950]臺東縣臺東市卑南里更生北路317號,(089)223096,http://www.bnps.ttct.edu.tw
臺東縣,臺東市,國小,144613,縣立岩灣國小,偏遠,[950]臺東縣臺東市岩灣路50巷401弄11號,(08)9223415,http://www.yups.ttct.edu.tw
臺東縣,臺東市,國小,144614,縣立南王國小,偏遠,[950]臺東縣臺東市南王里更生北路726號,(08)9223203,http://www.nwps.ttct.edu.tw
臺東縣,臺東市,國小,144615,縣立知本國小,偏遠,[950]臺東縣臺東市知本路三段107號,(089)512234,http://www.jbps.ttct.edu.tw
臺東縣,臺東市,國小,144616,縣立建和國小,偏遠,[950]臺東縣臺東市青海路三段640號,(08)9512381,http://www.jhps.ttct.edu.tw
臺東縣,臺東市,國小,144617,縣立豐田國小,偏遠,[950]臺東縣臺東市中興路四段750號,(08)9380345,http://www.ftps.ttct.edu.tw
臺東縣,臺東市,國小,144618,縣立富岡國小,偏遠,[950]臺東縣臺東市松江路一段441號,(08)9281352,http://www.fgps.ttct.edu.tw
臺東縣,臺東市,國小,144619,縣立新園國小,偏遠,[950]臺東縣臺東市新園路88號,(08)9382590,http://www.syps.ttct.edu.tw
臺東縣,卑南鄉,國小,144620,縣立賓朗國小,偏遠,[954]臺東縣卑南鄉賓朗村474巷2號,(089)224129,http://www.blps.ttct.edu.tw
臺東縣,卑南鄉,國小,144621,縣立溫泉國小,偏遠,[954]臺東縣卑南鄉溫泉村11鄰291號,(08)9512354,http://www.ucps.ttct.edu.tw
臺東縣,卑南鄉,國小,144622,縣立利嘉國小,偏遠,[954]臺東縣卑南鄉利嘉村利嘉路666號,(08)9380121,http://www.ljps.ttct.edu.tw
臺東縣,卑南鄉,國小,144623,縣立初鹿國小,偏遠,[954]臺東縣卑南鄉初鹿村梅園路97號,(089)571027,http://www.clps.ttct.edu.tw
臺東縣,卑南鄉,國小,144624,縣立東成國小,偏遠,[954]臺東縣卑南鄉美農村22鄰班鳩92號,(089)571124,http://www.dcps.ttct.edu.tw
臺東縣,卑南鄉,國小,144625,縣立富山國小,偏遠,[954]臺東縣卑南鄉富山村漁場三鄰66號,(08)9281086,http://www.fses.ttct.edu.tw
臺東縣,卑南鄉,國小,144627,縣立大南國小,偏遠,[954]臺東縣卑南鄉東興村東園一街40號,(089)382402,http://www.dnps.ttct.edu.tw
臺東縣,卑南鄉,國小,144628,縣立太平國小,偏遠,[954]臺東縣卑南鄉泰安村6號,(089)381418,http://www.tpps.ttct.edu.tw
臺東縣,太麻里鄉,國小,144629,縣立大王國小,偏遠,[963]臺東縣太麻里鄉大王村文化路60號,(089)781342,http://www.dwps.ttct.edu.tw
臺東縣,太麻里鄉,國小,144630,縣立香蘭國小,偏遠,[963]臺東縣太麻里鄉香蘭村四鄰28號,(089)781505,http://www.slps.ttct.edu.tw
臺東縣,太麻里鄉,國小,144632,縣立三和國小,偏遠,[963]臺東縣太麻里鄉三和村漁場94號,(089)512291,http://www.sahps.ttct.edu.tw
臺東縣,太麻里鄉,國小,144633,縣立美和國小,偏遠,[963]臺東縣太麻里鄉美和村美和90號,(089)512487,http://www.mhps.ttct.edu.tw
臺東縣,太麻里鄉,國小,144635,縣立大溪國小,偏遠,[963]臺東縣太麻里鄉多良村十五鄰大溪85號,(089)761017,http://www.dsps.ttct.edu.tw
臺東縣,大武鄉,國小,144636,縣立尚武國小,特偏,[965]臺東縣大武鄉尚武村八鄰學府路7號,(089)791458,http://www.swps.ttct.edu.tw
臺東縣,大武鄉,國小,144637,縣立大武國小,特偏,[965]臺東縣大武鄉民族街2巷49號,(089)791135,http://www.twps.ttct.edu.tw
臺東縣,大武鄉,國小,144638,縣立大鳥國小,特偏,[965]臺東縣大武鄉大鳥村一鄰12號,(08)9791530,http://www.danps.ttct.edu.tw
臺東縣,綠島鄉,國小,144640,縣立綠島國小,特偏,[951]臺東縣綠島鄉中寮村3號,(089)672543,http://www.ldps.ttct.edu.tw
臺東縣,綠島鄉,國小,144641,縣立公館國小,特偏,[951]臺東縣綠島鄉公館村98號,(08)9672548,http://210.240.131.84
臺東縣,鹿野鄉,國小,144642,縣立鹿野國小,偏遠,[955]臺東縣鹿野鄉鹿野村中華路一段402號,(08)9551371,http://www.lyes.ttct.edu.tw
臺東縣,鹿野鄉,國小,144643,縣立龍田國小,偏遠,[955]臺東縣鹿野鄉龍田村光榮路236號,(08)9551078,http://www.ltps.ttct.edu.tw
臺東縣,鹿野鄉,國小,144644,縣立永安國小,偏遠,[955]臺東縣鹿野鄉永安村鹿寮路31號,(089)551172,http://www.yaps.ttct.edu.tw
臺東縣,鹿野鄉,國小,144645,縣立瑞豐國小,偏遠,[955]臺東縣鹿野鄉瑞豐村中山路67號,(08)9581118,http://www.rfps.ttct.edu.tw
臺東縣,鹿野鄉,國小,144646,縣立瑞源國小,偏遠,[955]臺東縣鹿野鄉瑞源村文化路67號,(08)9581064,http://www.ryes.ttct.edu.tw
臺東縣,關山鎮,國小,144647,縣立關山國小,偏遠,[956]臺東縣關山鎮中華路101號,(089)811012,http://www.ksps.ttct.edu.tw
臺東縣,關山鎮,國小,144648,縣立月眉國小,偏遠,[956]臺東縣關山鎮月眉里盛豐路二鄰1號,(089)811074,http://www.ymps.ttct.edu.tw
臺東縣,關山鎮,國小,144649,縣立德高國小,偏遠,[956]臺東縣關山鎮德高里7鄰永豐16號,(08)9931149,http://www.dgps.ttct.edu.tw
臺東縣,關山鎮,國小,144650,縣立電光國小,偏遠,[956]臺東縣關山鎮電光里中興路93號,(08)9951142,http://www.tkes.ttct.edu.tw
臺東縣,池上鄉,國小,144651,縣立福原國小,偏遠,[958]臺東縣池上鄉福原村中華路17號,(089)862017,http://www.fyes.ttct.edu.tw
臺東縣,池上鄉,國小,144652,縣立大坡國小,偏遠,[958]臺東縣池上鄉慶豐村八鄰87號,(089)862664,http://www.dpps.ttct.edu.tw
臺東縣,池上鄉,國小,144653,縣立萬安國小,特偏,[958]臺東縣池上鄉萬安村一鄰5之2號,(08)9862371,http://www.waes.ttct.edu.tw
臺東縣,東河鄉,國小,144655,縣立東河國小,偏遠,[959]臺東縣東河鄉東河村十六鄰35號,(08)9896160,http://www.thps.ttct.edu.tw
臺東縣,東河鄉,國小,144656,縣立都蘭國小,偏遠,[959]臺東縣東河鄉都蘭村431號,(089)531224,http://www.thes.ttct.edu.tw
臺東縣,東河鄉,國小,144659,縣立泰源國小,偏遠,[959]臺東縣東河鄉泰源村11鄰297號,(089)891011,http://www.tyes.ttct.edu.tw
臺東縣,東河鄉,國小,144660,縣立北源國小,特偏,[959]臺東縣東河鄉北源村順那21號,(08)9891103,http://www.pyes.ttct.edu.tw
臺東縣,成功鎮,國小,144662,縣立三民國小,偏遠,[961]臺東縣成功鎮三民路18號,(08)9851024,http://www.smps.ttct.edu.tw
臺東縣,成功鎮,國小,144663,縣立成功國小,偏遠,[961]臺東縣成功鎮太平路28號,(08)9851021,http://www.cgps.ttct.edu.tw
臺東縣,成功鎮,國小,144664,縣立信義國小,偏遠,[961]臺東縣成功鎮信義里都歷路58號,(08)9841029,http://www.syips.ttct.edu.tw
臺東縣,成功鎮,國小,144665,縣立三仙國小,特偏,[961]臺東縣成功鎮三仙里基翬路八鄰16號,(089)851960,http://www.sasps.ttct.edu.tw
臺東縣,成功鎮,國小,144667,縣立忠孝國小,特偏,[961]臺東縣成功鎮忠孝里成廣路8號,(089)871109,http://www.jsps.ttct.edu.tw
臺東縣,長濱鄉,國小,144669,縣立長濱國小,特偏,[962]臺東縣長濱鄉長濱村五鄰11號,(08)9831038,http://www.cbps.ttct.edu.tw
臺東縣,長濱鄉,國小,144671,縣立寧埔國小,特偏,[962]臺東縣長濱鄉寧埔村十鄰41號,(089)801082,http://nbps.boe.ttct.edu.tw
臺東縣,長濱鄉,國小,144672,縣立竹湖國小,特偏,[962]臺東縣長濱鄉竹湖村十鄰14號,(089)831295,http://www.jhes.ttct.edu.tw
臺東縣,長濱鄉,國小,144673,縣立三間國小,特偏,[962]臺東縣長濱鄉三間村七鄰16號,(089)831306,http://www.sjps.ttct.edu.tw
臺東縣,長濱鄉,國小,144674,縣立樟原國小,特偏,[962]臺東縣長濱鄉樟原村一鄰7號,(089)881019,http://www.jyps.ttct.edu.tw
臺東縣,金峰鄉,國小,144676,縣立嘉蘭國小,偏遠,[964]臺東縣金峰鄉嘉蘭村一鄰9號,(089)751224,http://www.jles.ttct.edu.tw
臺東縣,金峰鄉,國小,144677,縣立介達國小,偏遠,[964]臺東縣金峰鄉正興村105號,(08)9781583,http://www.jdes.ttct.edu.tw
臺東縣,金峰鄉,國小,144678,縣立新興國小,偏遠,[964]臺東縣金峰鄉新興村一鄰1號,(08)9781687,http://www.shsps.ttct.edu.tw
臺東縣,金峰鄉,國小,144679,縣立賓茂國小,偏遠,[964]臺東縣金峰鄉賓茂村68號,(089)771007,http://www.bmps.ttct.edu.tw
臺東縣,達仁鄉,國小,144680,縣立安朔國小,特偏,[966]臺東縣達仁鄉安朔村八鄰113號,(08)9702257,http://www.asps.ttct.edu.tw
臺東縣,達仁鄉,國小,144681,縣立土?國小,特偏,[966]臺東縣達仁鄉土?村10號,(08)9761225,http://www.tbps.ttct.edu.tw
臺東縣,達仁鄉,國小,144683,縣立臺?國小,特偏,[966]臺東縣達仁鄉台?村十鄰59號之1,(08)9761252,http://www.tabps.ttct.edu.tw
臺東縣,蘭嶼鄉,國小,144685,縣立蘭嶼國小,特偏,[952]臺東縣蘭嶼鄉紅頭村1之1號,(089)731576,http://www.laps.ttct.edu.tw/front/bin/home.phtml
臺東縣,蘭嶼鄉,國小,144686,縣立椰油國小,特偏,[952]臺東縣蘭嶼鄉椰油村忠孝街1號,(08)9732017,http://www.yyps.ttct.edu.tw
臺東縣,蘭嶼鄉,國小,144687,縣立東清國小,特偏,[952]臺東縣蘭嶼鄉東清村1號,(089)732989,http://www.donps.ttct.edu.tw
臺東縣,蘭嶼鄉,國小,144688,縣立朗島國小,特偏,[952]臺東縣蘭嶼鄉朗島村17號,(089)732019,http://www.lodps.ttct.edu.tw
臺東縣,延平鄉,國小,144689,縣立桃源國小,偏遠,[953]臺東縣延平鄉桃源村昇平路84號,(089)561275,http://www.toyps.ttct.edu.tw
臺東縣,延平鄉,國小,144690,縣立武陵國小,偏遠,[953]臺東縣延平鄉武陵村一鄰明野路16號,(089)551249,http://www.wlps.ttct.edu.tw/front/bin/home.phtml
臺東縣,延平鄉,國小,144692,縣立鸞山國小,偏遠,[953]臺東縣延平鄉鸞山村一鄰14號,(08)9568027,http://www.lsps.ttct.edu.tw
臺東縣,延平鄉,國小,144693,縣立紅葉國小,特偏,[953]臺東縣延平鄉紅葉村紅谷路1號,(089)561015,http://www.hyps.ttct.edu.tw
臺東縣,海端鄉,國小,144694,縣立海端國小,偏遠,[957]臺東縣海端鄉海端村山界路36號,(08)9931184,http://www.hdps.ttct.edu.tw
臺東縣,海端鄉,國小,144695,縣立初來國小,偏遠,[957]臺東縣海端鄉海端村七鄰5號,(08)9931049,http://www.clips.ttct.edu.tw
臺東縣,海端鄉,國小,144696,縣立崁頂國小,偏遠,[957]臺東縣海端鄉崁頂村中福21號,(08)9811447,http://www.kdps.ttct.edu.tw
臺東縣,海端鄉,國小,144697,縣立廣原國小,特偏,[957]臺東縣海端鄉廣原村大埔路一鄰1號,(08)9862923,http://www.gyps.ttct.edu.tw
臺東縣,海端鄉,國小,144698,縣立錦屏國小,偏遠,[957]臺東縣海端鄉廣原村錦屏1號,(08)9861762,http://www.jpps.ttct.edu.tw
臺東縣,海端鄉,國小,144700,縣立加拿國小,偏遠,[957]臺東縣海端鄉加拿村加南5號,(08)9811108,http://www.jnps.ttct.edu.tw
臺東縣,臺東市,國小,144701,縣立東海國小,偏遠,[950]臺東縣臺東市長沙街329號,(08)9350879,http://www.dhips.ttct.edu.tw
臺東縣,海端鄉,國小,144702,縣立霧鹿國小,特偏,[957]臺東縣海端鄉霧鹿村12號,(089)35053,http://www.wulps.ttct.edu.tw
臺東縣,東河鄉,國小,144703,縣立興隆國小,偏遠,[959]臺東縣東河鄉興昌村155號,(089)531283,http://www.slops.ttct.edu.tw
花蓮縣,壽豐鄉,國小,154627,縣立豐山國小,偏遠,[974]花蓮縣壽豐鄉豐山村中山路41號,(03)8651640,http://www.fsnps.hlc.edu.tw
花蓮縣,壽豐鄉,國小,154628,縣立豐裡國小,偏遠,[974]花蓮縣壽豐鄉豐裡村中山路299號,(03)8652183,http://www.flps.hlc.edu.tw
花蓮縣,壽豐鄉,國小,154630,縣立平和國小,偏遠,[974]花蓮縣壽豐鄉平和路34號,(03)8661223,http://www.phps.hlc.edu.tw
花蓮縣,壽豐鄉,國小,154631,縣立溪口國小,偏遠,[974]花蓮縣壽豐鄉溪口村溪口路87號,(03)8652275,http://www.skps.hlc.edu.tw
花蓮縣,壽豐鄉,國小,154632,縣立月眉國小,偏遠,[974]花蓮縣壽豐鄉月眉村月眉三段24號,(03)8631011,http://www.ymps.hlc.edu.tw
花蓮縣,壽豐鄉,國小,154633,縣立水璉國小,偏遠,[974]花蓮縣壽豐鄉水璉村水璉二街20號,(03)8601228,http://www.sulps.hlc.edu.tw
花蓮縣,鳳林鎮,國小,154636,縣立大榮國小,偏遠,[975]花蓮縣鳳林鎮大榮里復興路85號,(03)8763904,http://www.dlps.hlc.edu.tw
花蓮縣,鳳林鎮,國小,154638,縣立北林國小,偏遠,[975]花蓮縣鳳林鎮北林里平園路32號,(03)8762554,http://www.blps.hlc.edu.tw/default2.asp
花蓮縣,鳳林鎮,國小,154640,縣立長橋國小,偏遠,[975]花蓮縣鳳林鎮長橋里長橋路2號,(03)8751654,http://www.chcps.hlc.edu.tw
花蓮縣,鳳林鎮,國小,154642,縣立林榮國小,偏遠,[975]花蓮縣鳳林鎮林榮里永安街2號,(03)8771024,http://www.llps.hlc.edu.tw
花蓮縣,光復鄉,國小,154644,縣立太巴塱國小,偏遠,[976]花蓮縣光復鄉中正路二段23號,(03)8701134,http://www.tplps.hlc.edu.tw
花蓮縣,瑞穗鄉,國小,154650,縣立瑞北國小,偏遠,[978]花蓮縣瑞穗鄉中正北路二段35號,(03)8872642,http://www.zbps.hlc.edu.tw
花蓮縣,瑞穗鄉,國小,154651,縣立瑞美國小,偏遠,[978]花蓮縣瑞穗鄉中山路二段389號,(03)8872014,http://www.zmeps.hlc.edu.tw
花蓮縣,瑞穗鄉,國小,154652,縣立鶴岡國小,偏遠,[978]花蓮縣瑞穗鄉鶴岡村167號,(03)8872740,http://www.hgps.hlc.edu.tw
花蓮縣,瑞穗鄉,國小,154653,縣立舞鶴國小,偏遠,[978]花蓮縣瑞穗鄉舞鶴村64號,(03)8872394,http://www.whps.hlc.edu.tw
花蓮縣,瑞穗鄉,國小,154654,縣立富源國小,偏遠,[978]花蓮縣瑞穗鄉富源村30號,(03)8811029,http://www.fyps.hlc.edu.tw
花蓮縣,豐濱鄉,國小,154655,縣立豐濱國小,偏遠,[977]花蓮縣豐濱鄉豐濱村民族街5號,(03)8791111,http://www.fbps.hlc.edu.tw
花蓮縣,豐濱鄉,國小,154656,縣立港口國小,偏遠,[977]花蓮縣豐濱鄉港口村43號,(03)8781037,http://www.gkps.hlc.edu.tw
花蓮縣,豐濱鄉,國小,154657,縣立靜浦國小,偏遠,[977]花蓮縣豐濱鄉靜浦村64號,(03)8781021,http://www.zpps.hlc.edu.tw
花蓮縣,豐濱鄉,國小,154658,縣立新社國小,偏遠,[977]花蓮縣豐濱鄉新社村150號,(03)8711138,http://www.ssps.hlc.edu.tw
花蓮縣,玉里鎮,國小,154662,縣立源城國小,偏遠,[981]花蓮縣玉里鎮源城里水源62號,(03)8882290,http://www.jcps.hlc.edu.tw
花蓮縣,玉里鎮,國小,154663,縣立樂合國小,偏遠,[981]花蓮縣玉里鎮樂合里新民41號,(03)8886087,http://www.lhps.hlc.edu.tw
花蓮縣,玉里鎮,國小,154664,縣立觀音國小,偏遠,[981]花蓮縣玉里鎮觀音里16鄰9號,(03)8851006,http://210.240.42.3
花蓮縣,玉里鎮,國小,154665,縣立高寮國小,偏遠,[981]花蓮縣玉里鎮高寮92號,(03)8851078,http://www.glps.hlc.edu.tw
花蓮縣,玉里鎮,國小,154666,縣立松浦國小,偏遠,[981]花蓮縣玉里鎮松浦里12鄰212號,(03)8851131,http://www.spups.hlc.edu.tw
花蓮縣,玉里鎮,國小,154667,縣立春日國小,偏遠,[981]花蓮縣玉里鎮春日里泰林95號,(03)8872628,http://www.czips.hlc.edu.tw
花蓮縣,玉里鎮,國小,154668,縣立德武國小,偏遠,[981]花蓮縣玉里鎮德武里9鄰171號,(03)8872824,http://www.dwes.hlc.edu.tw
花蓮縣,玉里鎮,國小,154669,縣立三民國小,偏遠,[981]花蓮縣玉里鎮三民里118號,(03)8841183,http://www.smps.hlc.edu.tw
花蓮縣,玉里鎮,國小,154670,縣立大禹國小,偏遠,[981]花蓮縣玉里鎮中禹里225號,(03)8883274,http://www.dyps.hlc.edu.tw
花蓮縣,玉里鎮,國小,154671,縣立長良國小,偏遠,[981]花蓮縣玉里鎮長良里163號,(03)8801171,http://www.clps.hlc.edu.tw
花蓮縣,富里鄉,國小,154674,縣立東里國小,偏遠,[983]花蓮縣富里鄉東里村道化路74號,(03)8861161,http://www.tlps.hlc.edu.tw
花蓮縣,富里鄉,國小,154675,縣立明里國小,偏遠,[983]花蓮縣富里鄉明里村1鄰16號,(03)8846003,http://www.mrps.hlc.edu.tw
花蓮縣,富里鄉,國小,154676,縣立吳江國小,偏遠,[983]花蓮縣富里鄉吳江村6鄰52號,(03)8861242,http://210.240.65.240
花蓮縣,富里鄉,國小,154677,縣立學田國小,偏遠,[983]花蓮縣富里鄉學田村光明路1號,(03)8831324,http://www.stps.hlc.edu.tw/www/html/
花蓮縣,富里鄉,國小,154678,縣立永豐國小,偏遠,[983]花蓮縣富里鄉豐南村永豐84號,(03)8831195,http://www.yfps.hlc.edu.tw
花蓮縣,富里鄉,國小,154679,縣立萬寧國小,偏遠,[983]花蓮縣富里鄉萬寧村鎮寧108號,(03)8861211,http://www.wlips.hlc.edu.tw
花蓮縣,富里鄉,國小,154680,縣立東竹國小,偏遠,[983]花蓮縣富里鄉竹田村富田3號,(03)8821514,http://www.djps.hlc.edu.tw
花蓮縣,秀林鄉,國小,154683,縣立崇德國小,偏遠,[972]花蓮縣秀林鄉崇德村72號,(03)8621220,http://www.cdps.hlc.edu.tw
花蓮縣,秀林鄉,國小,154684,縣立和平國小,偏遠,[972]花蓮縣秀林鄉和平村112號,(03)8681056,http://www.hpps.hlc.edu.tw
花蓮縣,秀林鄉,國小,154688,縣立銅門國小,偏遠,[972]花蓮縣秀林鄉銅門村69號,(03)8641174,http://210.240.63.2
花蓮縣,秀林鄉,國小,154690,縣立銅蘭國小,偏遠,[972]花蓮縣秀林鄉文蘭村70號,(03)8641005,http://www.tlaps.hlc.edu.tw
花蓮縣,秀林鄉,國小,154691,縣立文蘭國小,偏遠,[972]花蓮縣秀林鄉文蘭村米亞丸1號,(03)8641020,http://www.wlps.hlc.edu.tw
花蓮縣,萬榮鄉,國小,154692,縣立萬榮國小,偏遠,[979]花蓮縣萬榮鄉萬榮村2鄰31號,(03)8751449,http://www.wlops.hlc.edu.tw
花蓮縣,萬榮鄉,國小,154693,縣立明利國小,偏遠,[979]花蓮縣萬榮鄉明利村35號,(03)8751048,http://www.mlps.hlc.edu.tw
花蓮縣,萬榮鄉,國小,154694,縣立見晴國小,偏遠,[979]花蓮縣萬榮鄉見晴村89號,(03)8771574,http://www.cchps.hlc.edu.tw
花蓮縣,萬榮鄉,國小,154695,縣立馬遠國小,偏遠,[979]花蓮縣萬榮鄉馬遠村39號,(03)8811371,http://www.myups.hlc.edu.tw
花蓮縣,萬榮鄉,國小,154696,縣立西林國小,偏遠,[979]花蓮縣萬榮鄉西林村8鄰114號,(03)8771064,http://www.slps.hlc.edu.tw
花蓮縣,萬榮鄉,國小,154697,縣立紅葉國小,偏遠,[979]花蓮縣萬榮鄉紅葉村1鄰4號,(03)8872784,http://www.hyps.hlc.edu.tw
花蓮縣,卓溪鄉,國小,154698,縣立卓溪國小,偏遠,[982]花蓮縣卓溪鄉卓溪村中正路72號,(03)8883514,http://www.zsps.hlc.edu.tw
花蓮縣,卓溪鄉,國小,154699,縣立崙山國小,偏遠,[982]花蓮縣卓溪鄉崙山村1鄰12號,(03)8841350,http://www.lsaps.hlc.edu.tw
花蓮縣,卓溪鄉,國小,154700,縣立立山國小,偏遠,[982]花蓮縣卓溪鄉立山村9鄰90號,(03)8841358,http://www.lsps.hlc.edu.tw
花蓮縣,卓溪鄉,國小,154701,縣立太平國小,偏遠,[982]花蓮縣卓溪鄉太平村1鄰2號,(03)8841359,http://www.tpps.hlc.edu.tw
花蓮縣,卓溪鄉,國小,154702,縣立卓清國小,偏遠,[982]花蓮縣卓溪鄉卓清村清水6號,(03)8801163,http://www.zcps.hlc.edu.tw
花蓮縣,卓溪鄉,國小,154703,縣立卓樂國小,偏遠,[982]花蓮縣卓溪鄉卓清村卓樂86號,(03)8889075,http://www.zlps.hlc.edu.tw
花蓮縣,卓溪鄉,國小,154704,縣立古風國小,偏遠,[982]花蓮縣卓溪鄉古風村崙天18號,(03)8846058,http://www.gfps.hlc.edu.tw
花蓮縣,瑞穗鄉,國小,154705,縣立奇美國小,特偏,[978]花蓮縣瑞穗鄉奇美村47號,(03)8991077,http://www.gmps.hlc.edu.tw
花蓮縣,卓溪鄉,國小,154706,縣立卓楓國小,偏遠,[982]花蓮縣卓溪鄉古風村十二鄰古楓6號,(03)8846027,http://www.zfps.hlc.edu.tw
花蓮縣,光復鄉,國小,154707,縣立西富國小,偏遠,[976]花蓮縣光復鄉西富村民有街51巷3號,(03)8702765,http://www.sfps.hlc.edu.tw
花蓮縣,光復鄉,國小,154708,縣立大興國小,偏遠,[976]花蓮縣光復鄉大興村民權街17號,(03)8702987,http://www.dsps.hlc.edu.tw
花蓮縣,秀林鄉,國小,154710,縣立西寶國小,特偏,[972]花蓮縣秀林鄉富世村西寶11號,(03)8691040,http://www.spps.hlc.edu.tw
澎湖縣,馬公市,國小,164604,縣立中山國小,偏遠,[880]澎湖縣馬公市案山里大案山25之6號,(06)9211342,http://www.csps.phc.edu.tw
澎湖縣,馬公市,國小,164605,縣立石泉國小,偏遠,[880]澎湖縣馬公市石泉里1號,(06)9210228,http://www.scps.phc.edu.tw
澎湖縣,馬公市,國小,164606,縣立東衛國小,偏遠,[880]澎湖縣馬公市東衛里169號,(06)9213238,http://www.dwps.phc.edu.tw
澎湖縣,馬公市,國小,164607,縣立興仁國小,偏遠,[880]澎湖縣馬公市烏崁里129號,(06)9211443,http://www.sjps.phc.edu.tw
澎湖縣,馬公市,國小,164608,縣立山水國小,偏遠,[880]澎湖縣馬公市山水里140號,(06)9951004,http://www.ssps.phc.edu.tw
澎湖縣,馬公市,國小,164609,縣立五德國小,偏遠,[880]澎湖縣馬公市五德里32號,(06)9951327,http://www.wdps.phc.edu.tw
澎湖縣,馬公市,國小,164610,縣立時裡國小,偏遠,[880]澎湖縣馬公市時裡里114號,(06)9951332,http://www.slps.phc.edu.tw
澎湖縣,馬公市,國小,164611,縣立風櫃國小,偏遠,[880]澎湖縣馬公市風櫃里66號,(06)9951280,http://www.fkps.phc.edu.tw
澎湖縣,馬公市,國小,164612,縣立虎井國小,特偏,[880]澎湖縣馬公市虎井里1號,(06)9291025,http://www.hjps.phc.edu.tw
澎湖縣,湖西鄉,國小,164614,縣立成功國小,偏遠,[885]澎湖縣湖西鄉成功村1之4號,(06)9212971,http://www.cgps.phc.edu.tw
澎湖縣,湖西鄉,國小,164615,縣立西溪國小,偏遠,[885]澎湖縣湖西鄉西溪村130號,(06)9921082,http://www.sips.phc.edu.tw
澎湖縣,湖西鄉,國小,164616,縣立湖西國小,偏遠,[885]澎湖縣湖西鄉湖西村151號,(06)9921008,http://www.hsps.phc.edu.tw
澎湖縣,湖西鄉,國小,164617,縣立果葉國小,偏遠,[885]澎湖縣湖西鄉果葉村171號,(06)9921455,http://www.gyps.phc.edu.tw
澎湖縣,湖西鄉,國小,164618,縣立龍門國小,偏遠,[885]澎湖縣湖西鄉尖山村4號,(06)9921202,http://www.lmps.phc.edu.tw
澎湖縣,湖西鄉,國小,164619,縣立隘門國小,偏遠,[885]澎湖縣湖西鄉隘門村15號,(06)9212692,http://www.amps.phc.edu.tw
澎湖縣,湖西鄉,國小,164620,縣立沙港國小,偏遠,[885]澎湖縣湖西鄉鼎灣村75號,(06)9210087,http://www.skps.phc.edu.tw
澎湖縣,白沙鄉,國小,164621,縣立中屯國小,偏遠,[884]澎湖縣白沙鄉中屯村130之2號,(06)9931561,http://www.ctps.phc.edu.tw
澎湖縣,白沙鄉,國小,164623,縣立講美國小,偏遠,[884]澎湖縣白沙鄉講美村141之1號,(06)9931268,http://www.jmps.phc.edu.tw
澎湖縣,白沙鄉,國小,164624,縣立港子國小,偏遠,[884]澎湖縣白沙鄉港子村54號之2,(06)9931524,http://www.ktps.phc.edu.tw
澎湖縣,白沙鄉,國小,164625,縣立赤崁國小,偏遠,[884]澎湖縣白沙鄉赤崁村370號,(06)9931048,http://www.ckps.phc.edu.tw
澎湖縣,白沙鄉,國小,164627,縣立鳥嶼國小,特偏,[884]澎湖縣白沙鄉鳥嶼村57號,(06)9916077,http://www.nyjhps.phc.edu.tw
澎湖縣,白沙鄉,國小,164628,縣立吉貝國小,特偏,[884]澎湖縣白沙鄉吉貝村8號,(06)9911086,http://www.cpps.phc.edu.tw
澎湖縣,白沙鄉,國小,164629,縣立後寮國小,偏遠,[884]澎湖縣白沙鄉後寮村218號,(06)9931027,http://www.hlps.phc.edu.tw
澎湖縣,西嶼鄉,國小,164630,縣立合橫國小,偏遠,[881]澎湖縣西嶼鄉合界村76號之2,(06)9981471,http://www.hhps.phc.edu.tw
澎湖縣,西嶼鄉,國小,164631,縣立竹灣國小,偏遠,[881]澎湖縣西嶼鄉竹灣村15號,(06)9981437,http://www.cwps.phc.edu.tw
澎湖縣,西嶼鄉,國小,164633,縣立大池國小,偏遠,[881]澎湖縣西嶼鄉大池村129號,(06)9981179,http://www.dtps.phc.edu.tw
澎湖縣,西嶼鄉,國小,164634,縣立池東國小,偏遠,[881]澎湖縣西嶼鄉池東村104號,(06)9981108,http://www.cdps.phc.edu.tw
澎湖縣,西嶼鄉,國小,164635,縣立赤馬國小,偏遠,[881]澎湖縣西嶼鄉赤馬村78號之1,(06)9981109,http://www.rmps.phc.edu.tw
澎湖縣,西嶼鄉,國小,164636,縣立內垵國小,偏遠,[881]澎湖縣西嶼鄉內垵村229號,(06)9981107,http://www.naps.phc.edu.tw
澎湖縣,西嶼鄉,國小,164637,縣立外垵國小,偏遠,[881]澎湖縣西嶼鄉外垵村29號之3,(06)9981176,http://www.wips.phc.edu.tw
澎湖縣,望安鄉,國小,164638,縣立望安國小,特偏,[882]澎湖縣望安鄉西安村46號,(06)9991006,http://www.waps.phc.edu.tw
澎湖縣,望安鄉,國小,164639,縣立將軍國小,特偏,[882]澎湖縣望安鄉將軍村12-8號,(06)9902065,http://www.jjps.phc.edu.tw
澎湖縣,望安鄉,國小,164641,縣立花嶼國小,特偏,[882]澎湖縣望安鄉花嶼村2號,(06)9991740,http://www.hyps.phc.edu.tw
澎湖縣,七美鄉,國小,164643,縣立七美國小,特偏,[883]澎湖縣七美鄉中和村4鄰1號,(06)9971003,http://www.cmps.phc.edu.tw
澎湖縣,七美鄉,國小,164644,縣立雙湖國小,特偏,[883]澎湖縣七美鄉西湖村七鄰9號,(06)9971018,http://www.tlps.phc.edu.tw
澎湖縣,馬公市,國小,164645,縣立文澳國小,偏遠,[880]澎湖縣馬公市西文里文學路221號,(06)9212412,http://www.wops.phc.edu.tw
基隆市,七堵區,國小,173630,市立瑪陵國小,偏遠,[206]基隆市七堵區大成街1號,(02)24565663,http://www.mlps.kl.edu.tw
基隆市,七堵區,國小,173631,市立復興國小,偏遠,[206]基隆市七堵區華新二路21號,(02)24515601,http://www.fsps.kl.edu.tw
新竹市,香山區,國小,183621,市立大湖國小,偏遠,[300]新竹市香山區大湖里五福路一段530號,(03)5374609,http://www.dhps.hc.edu.tw
新竹市,香山區,國小,183623,市立南隘國小,偏遠,[300]新竹市香山區南隘路二段31號,(03)5371405,http://www.nips.hc.edu.tw
嘉義市,西區,國小,203611,市立北園國小,偏遠,[600]嘉義市西區北湖里北社尾路168號,(05)2371330,http://www.pyes.cy.edu.tw
嘉義市,東區,國小,203612,市立精忠國小,偏遠,[600]嘉義市東區林森東路840號,(05)2760474,http://www.gces.cy.edu.tw
嘉義市,西區,國小,203613,市立育人國小,偏遠,[600]嘉義市西區育人路211號,(05)2351595,http://www.ynes.cy.edu.tw
金門縣,金寧鄉,國小,714602,縣立金寧國(中)小,偏遠,[892]金門縣金寧鄉安岐1號,(082)322535,http://www.cnes.km.edu.tw
金門縣,金城鎮,國小,714604,縣立賢庵國小,偏遠,[893]金門縣金城鎮賢厝村庵前18之2號,(082)325463,http://websaps.km.edu.tw
金門縣,金城鎮,國小,714605,縣立古城國小,偏遠,[893]金門縣金城鎮古城村大古崗100號,(082)325274,http://www.gcps.km.edu.tw
金門縣,金湖鎮,國小,714606,縣立開瑄國小,偏遠,[891]金門縣金湖鎮瓊林里中興崗9-1號,(082)332165,http://www.ksps.km.edu.tw
金門縣,金湖鎮,國小,714607,縣立柏村國小,偏遠,[891]金門縣金湖鎮料羅村新塘10號,(082)332465,http://www.btps.km.edu.tw
金門縣,金沙鎮,國小,714608,縣立多年國小,偏遠,[890]金門縣金沙鎮環島東路4段600號,(082)332470,http://www.dnes.km.edu.tw
金門縣,金沙鎮,國小,714610,縣立何浦國小,偏遠,[890]金門縣金沙鎮浦山里下塘頭39號,(082)352455,http://www.hpps.km.edu.tw
金門縣,金沙鎮,國小,714611,縣立安瀾國小,偏遠,[890]金門縣金沙鎮碧山村81號,(082)352861,http://www.alps.km.edu.tw
金門縣,金沙鎮,國小,714612,縣立述美國小,偏遠,[890]金門縣金沙鎮沙青路999號,(082)352860,http://www.smps.km.edu.tw
金門縣,金寧鄉,國小,714613,縣立古寧國小,偏遠,[892]金門縣金寧鄉古寧村北山1號,(082)325750,http://www.gnes.km.edu.tw
金門縣,金寧鄉,國小,714614,縣立金鼎國小,偏遠,[892]金門縣金寧鄉盤山村下堡123號,(082)325700,http://www.cdps.km.edu.tw
金門縣,烈嶼鄉,國小,714615,縣立卓環國小,特偏,[894]金門縣烈嶼鄉西路23號,(082)362124,http://www.jhes.km.edu.tw
金門縣,烈嶼鄉,國小,714616,縣立上岐國小,特偏,[894]金門縣烈嶼鄉青岐123號,(082)362409,http://www.sces.km.edu.tw
金門縣,金寧鄉,國小,714618,縣立湖埔國小,偏遠,[892]金門縣金寧鄉湖下196號,(082)326424,http://www.hbes.km.edu.tw
金門縣,金湖鎮,國小,714619,縣立正義國小,偏遠,[891]金門縣金湖鎮正義里成功129號,(082)332734,http://www.jyps.km.edu.tw
金門縣,烈嶼鄉,國小,714620,縣立西口國小,特偏,[894]金門縣烈嶼鄉西口村西方69號,(082)362411,http://www.hkes.km.edu.tw
連江縣,南竿鄉,國小,724601,縣立介壽國(中)小,偏遠,[209]連江縣南竿鄉介壽村13號,(0836)22192,http://www.jsps.matsu.edu.tw
連江縣,南竿鄉,國小,724602,縣立中正國(中)小,偏遠,[209]連江縣南竿鄉馬祖村4號,(0836)22196,http://www.jjps.matsu.edu.tw
連江縣,南竿鄉,國小,724603,縣立仁愛國小,偏遠,[209]連江縣南竿鄉仁愛村95號,(0836)22146,http://www.raps.matsu.edu.tw
連江縣,北竿鄉,國小,724604,縣立塘岐國小,偏遠,[210]連江縣北竿鄉塘岐村56號,(0836)55420,http://www.tcps.matsu.edu.tw
連江縣,北竿鄉,國小,724605,縣立?里國小,偏遠,[210]連江縣北竿鄉?里村59號,(0836)55222,http://www.blps.matsu.edu.tw
連江縣,莒光鄉,國小,724606,縣立敬恆國(中)小,偏遠,[211]連江縣莒光鄉青帆村19號,(0836)88179,http://www.jhjh.matsu.edu.tw
連江縣,莒光鄉,國小,724607,縣立東莒國小,偏遠,[211]連江縣莒光鄉大坪村4號,(0836)89043,http://www.djps.matsu.edu.tw
連江縣,東引鄉,國小,724608,縣立東引國(中)小,偏遠,[212]連江縣東引鄉中柳村94號,(0836)77210,http://www.tyjh.matsu.edu.tw
新北市,三峽區,附設國中,14326,市立明德高中,偏遠,[237]新北市三峽區中正路二段399號,(02)26723302,http://www.mdhs.ntpc.edu.tw
新北市,金山區,附設國中,14338,市立金山高中,偏遠,[208]新北市金山區美田里文化二路2號,(02)24982028,http://www.cshs.ntpc.edu.tw
新北市,雙溪區,附設國中,14347,市立雙溪高中,偏遠,[227]新北市雙溪區梅竹蹊3號,(02)24931028,http://www.sxhs.ntpc.edu.tw
新北市,石碇區,附設國中,14348,市立石碇高中,偏遠,[223]新北市石碇區隆盛里八分寮45號,(02)26631224,http://www.sdhs.ntpc.edu.tw
新北市,樹林區,國中,14523,市立柑園國中,偏遠,[238]新北市樹林區柑園街二段125號,(02)26801958,http://www.gyjh.ntpc.edu.tw
新北市,八里區,國中,14527,市立八里國中,偏遠,[249]新北市八里區荖阡坑路15號,(02)26102016,http://www.pljhs.ntpc.edu.tw
新北市,三芝區,國中,14536,市立三芝國中,偏遠,[252]新北市三芝區淡金路一段38號,(02)26362004,http://www.szjh.ntpc.edu.tw
新北市,石門區,國中,14537,市立石門國中,偏遠,[253]新北市石門區中央路1之9號,(02)26381273,http://www.smjh.ntpc.edu.tw
新北市,萬里區,國中,14539,市立萬里國中,偏遠,[207]新北市萬里區獅頭路24號,(02)24922053,http://www.wljhs.ntpc.edu.tw
新北市,坪林區,國中,14540,市立坪林國中,偏遠,[232]新北市坪林區國中路4號,(02)26656210,http://www.pljh.ntpc.edu.tw
新北市,瑞芳區,國中,14544,市立瑞芳國中,偏遠,[224]新北市瑞芳區三爪子坑路1號,(02)24972145,http://www.rfjh.ntpc.edu.tw
新北市,瑞芳區,國中,14545,市立欽賢國中,偏遠,[224]新北市瑞芳區崙頂路3之1號,(02)24972261,http://www.cejh.ntpc.edu.tw
新北市,貢寮區,國中,14546,市立貢寮國中,偏遠,[228]新北市貢寮區嵩陽街42號,(02)24941941,http://www.kljh.ntpc.edu.tw
新北市,深坑區,國中,14549,市立深坑國中,偏遠,[222]新北市深坑區文化街41號,(02)26621455,http://www.skjh.ntpc.edu.tw
新北市,平溪區,國中,14550,市立平溪國中,偏遠,[226]新北市平溪區石底街92號,(02)24951010,http://www.phjh.ntpc.edu.tw
新北市,烏來區,國中,14551,市立烏來國中(小),偏遠,[233]新北市烏來區啦卡路5號,(02)26616482,http://www.wujh.ntpc.edu.tw
新北市,鶯歌區,國中,14565,市立尖山國中,偏遠,[239]新北市鶯歌區國中街1號,(02)26781670,http://www.jsjhs.ntpc.edu.tw
新北市,貢寮區,國中,14578,市立豐珠國中(小),偏遠,[228]新北市貢寮區美豐里雞母嶺街6-6號,(02)24903727,http://www.fjjh.ntpc.edu.tw
桃園市,龜山區,國中,34515,市立大崗國中,偏遠,[333]桃園市龜山區文化里文化二路168號,(03)3280888,http://www.dgjh.tyc.edu.tw
桃園市,楊梅區,國中,34530,市立富岡國中,偏遠,[326]桃園市楊梅區豐野里中正路456號,(03)4721113,http://www.fkjh.tyc.edu.tw
桃園市,楊梅區,國中,34531,市立瑞原國中,偏遠,[326]桃園市楊梅區民豐路69號,(03)4782242#11,http://www.ryjh.tyc.edu.tw
桃園市,觀音區,國中,34534,市立草漯國中,偏遠,[328]桃園市觀音區草漯里28鄰四維路73號,(03)4830146#71,http://www.ttjh.tyc.edu.tw
桃園市,新屋區,國中,34536,市立大坡國中,偏遠,[327]桃園市新屋區大坡里五鄰156號,(03)4768350,http://www.dpjhs.tyc.edu.tw
桃園市,新屋區,國中,34537,市立永安國中,偏遠,[327]桃園市新屋區中山西路三段96號,(03)4862507,http://www.yajh.tyc.edu.tw
桃園市,復興區,國中,34541,市立介壽國中,偏遠,[336]桃園市復興區澤仁里中正路248號,(03)3822315,http://www.jsjh.tyc.edu.tw
臺中市,大安區,國中,64512,市立大安國中,偏遠,[439]臺中市大安區松雅里大安港路691號,(04)26872571,http://www.tajh.tc.edu.tw
臺中市,烏日區,國中,64521,市立溪南國中,偏遠,[414]臺中市烏日區溪南路一段731號,(04)23353959,http://www.snjh.tc.edu.tw
臺中市,東勢區,國中,64530,市立東華國中,偏遠,[423]臺中市東勢區東關路296號,(04)25853219,http://www.thjh.tc.edu.tw
臺中市,東勢區,國中,64531,市立東新國中,偏遠,[423]臺中市東勢區東新里5鄰東環街123號,(04)25872684,http://www.tsihs.tc.edu.tw
臺中市,和平區,國中,64533,市立和平國中,偏遠,[424]臺中市和平區東關路三段崑崙巷62號,(04)25941512,http://www.hpjh.tc.edu.tw
臺中市,和平區,國中,64552,市立梨山國中(小),特偏,[424]臺中市和平區梨山里福壽路10號,(04)25981510,http://www.lses.tc.edu.tw
臺南市,仁德區,國中,114502,市立仁德文賢國中,偏遠,[717]臺南市仁德區保安里中正路一段185號,(06)2662392,http://163.26.153.1/xoops2/
臺南市,龍崎區,國中,114508,市立龍崎國中,偏遠,[719]臺南市龍崎區新市子258號,(06)5941475,http://www.lcjh.tnc.edu.tw
臺南市,山上區,國中,114512,市立山上國中,偏遠,[743]臺南市山上區山上里130號,(06)5781023,http://ssjh.tn.edu.tw/
臺南市,楠西區,國中,114514,市立楠西國中,偏遠,[715]臺南市楠西區中興路107號,(06)5751712,http://163.26.154.1/xoops/
臺南市,南化區,國中,114516,市立南化國中,偏遠,[716]臺南市南化區南化里227號,(06)5771105,http://www.nhjh.tn.edu.tw
臺南市,左鎮區,國中,114517,市立左鎮國中,偏遠,[713]臺南市左鎮區中正里170號,(06)5731015,http://www.tjjh.tn.edu.tw
臺南市,官田區,國中,114521,市立官田國中,偏遠,[720]臺南市官田區隆田里三民路29號,(06)5791371,http://www.gtjh.tn.edu.tw
臺南市,大內區,國中,114522,市立大內國中,偏遠,[742]臺南市大內區內江里319之1號,(06)5761010,http://www.dnjh.tn.edu.tw
臺南市,佳里區,國中,114524,市立佳興國中,偏遠,[722]臺南市佳里區民安里新宅34之1號,(06)7260291,http://www.jsjh.tn.edu.tw
臺南市,將軍區,國中,114527,市立將軍國中,偏遠,[725]臺南市將軍區嘉昌里昌平1之1號,(06)7942042,http://www.jjjh.tn.edu.tw
臺南市,七股區,國中,114528,市立後港國中,偏遠,[724]臺南市七股區大潭里頂潭93號,(06)7941357,http://www.hgjh.tn.edu.tw
臺南市,七股區,國中,114529,市立竹橋國中,偏遠,[724]臺南市七股區義合里74之2號,(06)7891733,http://163.26.155.1/htdocs/
臺南市,北門區,國中,114530,市立北門國中,偏遠,[727]臺南市北門區永華里1之1號,(06)7862014,http://www.bmjh.tn.edu.tw
臺南市,新營區,國中,114532,市立太子國中,偏遠,[730]臺南市新營區太北里140-21號,(06)6524762,http://www.ttjh.tn.edu.tw
臺南市,柳營區,國中,114536,市立柳營國中,偏遠,[736]臺南市柳營區東昇里中山東路二段956號,(06)6223209,http://www.lyjh.tn.edu.tw
臺南市,東山區,國中,114537,市立東山國中,偏遠,[733]臺南市東山區東中里青葉路一段132號,(06)6802175,http://www.dsjh.tn.edu.tw
臺南市,東山區,國中,114538,市立東原國中,偏遠,[733]臺南市東山區東原里瓦厝70號,(06)6861009,http://www.dyjh.tn.edu.tw
臺南市,後壁區,國中,114539,市立後壁國中,偏遠,[731]臺南市後壁區嘉苳里124之20號,(06)6871974,http://www.hbjh.tn.edu.tw
臺南市,後壁區,國中,114540,市立菁寮國中,偏遠,[731]臺南市後壁區頂長里8之3號,(06)6621974,http://www.jljhs.tn.edu.tw/
臺南市,南區,附設國中,213303,市立南寧高中,偏遠,[702]臺南市南區萬年路167號,(06)2622458,http://www.nnjh.tn.edu.tw
臺南市,安南區,附設國中,213316,市立土城高中,偏遠,[709]臺南市安南區安中路五段265號,(06)2577014,http://www.tcjh.tn.edu.tw
高雄市,六龜區,附設國中,124333,市立六龜高中,特偏,[844]高雄市六龜區義寶里光復路212號,(07)6891023,http://www.lgm.ks.edu.tw
高雄市,大寮區,國中,124508,市立潮寮國中,偏遠,[831]高雄市大寮區潮寮里潮寮路51之9號,(07)7879544-10,http://www.tlm.ks.edu.tw
高雄市,大樹區,國中,124510,市立溪埔國中,偏遠,[840]高雄市大樹區溪埔路1號,(07)6561335,http://www.xpm.ks.edu.tw
高雄市,永安區,國中,124517,市立永安國中,偏遠,[828]高雄市永安區保興一路3號,(07)6912064,http://www.yam.ks.edu.tw
高雄市,田寮區,國中,124525,市立田寮國中,偏遠,[823]高雄市田寮區南安里崗安路48號,(07)6361687,http://www.tia.ks.edu.tw
高雄市,旗山區,國中,124528,市立圓富國中,偏遠,[842]高雄市旗山區圓富里旗甲路2段609號,(07)6691004,http://www.yfm.ks.edu.tw
高雄市,旗山區,國中,124529,市立大洲國中,偏遠,[842]高雄市旗山區新光里新南巷5號,(07)6661378,http://www.dz.ks.edu.tw
高雄市,美濃區,國中,124532,市立龍肚國中,偏遠,[843]高雄市美濃區龍山里中華路68號,(07)6851314,http://www.ldm.ks.edu.tw
高雄市,六龜區,國中,124534,市立寶來國中,特偏,[844]高雄市六龜區寶來里中正路137號,(07)6881258,http://www.blm.ks.edu.tw
高雄市,杉林區,國中,124535,市立杉林國中,偏遠,[846]高雄市杉林區月眉里清水路中學巷6號,(07)6771108,http://www.slm.ks.edu.tw
高雄市,內門區,國中,124536,市立內門國中,偏遠,[845]高雄市內門區中正路160巷30號,(07)6671002,http://www.nmm.ks.edu.tw
高雄市,甲仙區,國中,124537,市立甲仙國中,特偏,[847]高雄市甲仙區東安里文化南路6號,(07)6751018,http://www.jxm.ks.edu.tw
高雄市,林園區,國中,124538,市立中芸國中,偏遠,[832]高雄市林園區中芸里中芸路3之100號,(07)6425223,http://www.zym.ks.edu.tw
高雄市,那瑪夏區,國中,124542,市立那瑪夏國中,特偏,[849]高雄市那瑪夏區瑪雅里平和巷171號,(07)6701813,http://www.sm.ks.edu.tw
高雄市,茂林區,國中,124547,市立茂林國中,特偏,[851]高雄市茂林區茂林里4之5號,(07)6801153,http://www.ml.ks.edu.tw
高雄市,桃源區,國中,124548,市立桃源國中,特偏,[848]高雄市桃源區勤和里南橫公路三段201號,(07)6861133,http://www.ty.ks.edu.tw
宜蘭縣,南澳鄉,附設國中,24322,縣立南澳高中,偏遠,[272]宜蘭縣南澳鄉蘇花路二段301號,(03)9981024,http://www.nojh.ilc.edu.tw
宜蘭縣,蘇澳鎮,國中,24509,縣立文化國中,偏遠,[270]宜蘭縣蘇澳鎮永榮里新馬路2號,(03)9903060,http://www.whjh.ilc.edu.tw
宜蘭縣,蘇澳鎮,國中,24510,縣立南安國中,偏遠,[270]宜蘭縣蘇澳鎮學府路117號,(03)9962317,http://www.najh.ilc.edu.tw
宜蘭縣,三星鄉,國中,24511,縣立三星國中,偏遠,[266]宜蘭縣三星鄉月眉村月眉街54號,(03)9892012,http://www.ssjh.ilc.edu.tw
宜蘭縣,礁溪鄉,國中,24513,縣立吳沙國中,偏遠,[262]宜蘭縣礁溪鄉育英路79號,(03)9284701,http://www.wsjh.ilc.edu.tw
宜蘭縣,冬山鄉,國中,24514,縣立冬山國中,偏遠,[269]宜蘭縣冬山鄉南興村照安路26號,(03)9592076,http://www.dsjh.ilc.edu.tw
宜蘭縣,冬山鄉,國中,24515,縣立順安國中,偏遠,[269]宜蘭縣冬山鄉順安村永興路一段359號,(03)9581150,http://www.sanjh.ilc.edu.tw
宜蘭縣,五結鄉,國中,24516,縣立五結國中,偏遠,[268]宜蘭縣五結鄉大吉村大吉路12-3號,(03)9501105,http://www.wjjh.ilc.edu.tw
宜蘭縣,五結鄉,國中,24517,縣立興中國中,偏遠,[268]宜蘭縣五結鄉上四村中正東路50號,(03)9653453,http://www.scjh.ilc.edu.tw
宜蘭縣,五結鄉,國中,24518,縣立利澤國中,偏遠,[268]宜蘭縣五結鄉成興村利寶路99號,(03)9504762,http://www.ljjh.ilc.edu.tw
宜蘭縣,員山鄉,國中,24519,縣立員山國中,偏遠,[264]宜蘭縣員山鄉溫泉路92號,(03)9222331,http://www.ysjh.ilc.edu.tw
宜蘭縣,員山鄉,國中,24520,縣立內城國中(小),偏遠,[264]宜蘭縣員山鄉內城村內城路545號,(03)9221846,http://www.ryjh.ilc.edu.tw
宜蘭縣,大同鄉,國中,24523,縣立大同國中,偏遠,[267]宜蘭縣大同鄉太平村一鄰泰雅路四段35號,(03)9809611,http://www.dtjh.ilc.edu.tw
新竹縣,竹東鎮,國中,44503,縣立員東國中,偏遠,[310]新竹縣竹東鎮東峰路521號,(03)5963324,http://www.ydjh.hcc.edu.tw
新竹縣,關西鎮,國中,44505,縣立石光國中,偏遠,[306]新竹縣關西鎮石光里308巷44號,(03)5868019,http://www.sgjh.hcc.edu.tw/bin/home.php
新竹縣,關西鎮,國中,44506,縣立富光國中,偏遠,[306]新竹縣關西鎮東光里十六張49號,(03)5872224,http://www.fgjh.hcc.edu.tw
新竹縣,新埔鎮,國中,44508,縣立照門國中,偏遠,[305]新竹縣新埔鎮照門里照鏡7號,(03)5890214,http://www.jmjh.hcc.edu.tw
新竹縣,竹北市,國中,44510,縣立鳳岡國中,偏遠,[302]新竹縣竹北市大義里鳳岡路三段100號,(03)5561284,http://www.fkjh.hcc.edu.tw
新竹縣,新豐鄉,國中,44514,縣立精華國中,偏遠,[304]新竹縣新豐鄉後湖村八鄰166號,(03)5680923,http://www.ghjh.hcc.edu.tw
新竹縣,橫山鄉,國中,44515,縣立橫山國中,偏遠,[312]新竹縣橫山鄉中豐路二段415號,(03)5931665,http://www.hsjh.hcc.edu.tw
新竹縣,橫山鄉,國中,44516,縣立華山國中,偏遠,[312]新竹縣橫山鄉橫山街一段29號,(03)5934084,http://www.hwjh.hcc.edu.tw
新竹縣,寶山鄉,國中,44517,縣立寶山國中,偏遠,[308]新竹縣寶山鄉三峰路二段600號,(03)5202104,http://www.bsjh.hcc.edu.tw
新竹縣,北埔鄉,國中,44518,縣立北埔國中,偏遠,[314]新竹縣北埔鄉埔尾村141號,(03)5802224,http://www.ppjh.hcc.edu.tw
新竹縣,峨眉鄉,國中,44519,縣立峨眉國中,偏遠,[315]新竹縣峨眉鄉峨眉街十鄰54號,(03)5800208,http://www.omjh.hcc.edu.tw
新竹縣,五峰鄉,國中,44523,縣立五峰國中,偏遠,[311]新竹縣五峰鄉大隘村六鄰113號,(03)5851006,http://www.wfjh.hcc.edu.tw
新竹縣,尖石鄉,國中,44524,縣立尖石國中,偏遠,[313]新竹縣尖石鄉嘉樂村三鄰八十號,(03)5841027,http://www.gsjh.hcc.edu.tw
苗栗縣,通霄鎮,國中,54512,縣立南和國中,特偏,[357]苗栗縣通霄鎮南和里9鄰112之1號,(037)782404,http://web.nhes.mlc.edu.tw
苗栗縣,通霄鎮,國中,54513,縣立烏眉國中,偏遠,[357]苗栗縣通霄鎮內湖里1鄰5-1號,(037)752409,http://web.wumeies.mlc.edu.tw
苗栗縣,通霄鎮,國中,54514,縣立啟新國中,偏遠,[357]苗栗縣通霄鎮白東里135之2號,(037)792804,http://web.csjh.mlc.edu.tw
苗栗縣,西湖鄉,國中,54515,縣立西湖國中,偏遠,[368]苗栗縣西湖鄉龍洞村一鄰1之1號,(037)921016,http://www.shihujh.mlc.edu.tw
苗栗縣,頭份市,國中,54518,縣立文英國中,偏遠,[351]苗栗縣頭份市尖下里200號,(037)624260,http://www.wyjh.mlc.edu.tw
苗栗縣,三灣鄉,國中,54521,縣立三灣國中,偏遠,[352]苗栗縣三灣鄉三灣村忠信路17號,(037)831002,http://www.sw.mlc.edu.tw
苗栗縣,南庄鄉,國中,54522,縣立南庄國中,特偏,[353]苗栗縣南庄鄉東村中正路165號,(037)822027,http://web.njjh.mlc.edu.tw
苗栗縣,造橋鄉,國中,54523,縣立造橋國中,偏遠,[361]苗栗縣造橋鄉造橋村1鄰老庄27號,(037)562773,http://web.tcjh.mlc.edu.tw
苗栗縣,造橋鄉,國中,54524,縣立大西國中,偏遠,[361]苗栗縣造橋鄉大西村十四鄰48號,(037)541080,http://web.dc.mlc.edu.tw
苗栗縣,大湖鄉,國中,54527,縣立大湖國中,偏遠,[364]苗栗縣大湖鄉靜湖村民族路80號,(037)991022,http://www.dahujh.mlc.edu.tw
苗栗縣,大湖鄉,國中,54528,縣立南湖國中,偏遠,[364]苗栗縣大湖鄉義和村12號,(037)992956,http://www.nanhujh.mlc.edu.tw
苗栗縣,獅潭鄉,國中,54529,縣立獅潭國中,特偏,[354]苗栗縣獅潭鄉新店村21號,(037)931328,http://web.stjh.mlc.edu.tw
苗栗縣,泰安鄉,國中,54531,縣立泰安國中(小),特偏,[365]苗栗縣泰安鄉大興村32之1號,(037)991224,http://web.taian.mlc.edu.tw
苗栗縣,通霄鎮,國中,54534,縣立福興武術國中(小),偏遠,[357]苗栗縣通霄鎮福興里58之2號,(037)782984,http://web.fushing.mlc.edu.tw/
彰化縣,鹿港鎮,國中,74503,縣立鹿鳴國中,偏遠,[505]彰化縣鹿港鎮頭南里頂草路三段167號,(04)7713846,http://www.lmjh.chc.edu.tw
彰化縣,線西鄉,國中,74504,縣立線西國中,偏遠,[507]彰化縣線西鄉寓埔村中央路二段145號,(04)7584129,http://www.hhjh.chc.edu.tw
彰化縣,二林鎮,國中,74512,縣立萬興國中,偏遠,[526]彰化縣二林鎮萬興里二溪路六段626號,(04)8682978,http://www.whjh.chc.edu.tw
彰化縣,大城鄉,國中,74515,縣立大城國中,偏遠,[527]彰化縣大城鄉東城村南平路224號,(04)8941022,http://www.tcjhs.chc.edu.tw
彰化縣,芳苑鄉,國中,74516,縣立草湖國中,偏遠,[528]彰化縣芳苑鄉草湖村功湖路140號,(04)8861051,http://163.23.102.10
彰化縣,芳苑鄉,國中,74517,縣立芳苑國中,偏遠,[528]彰化縣芳苑鄉仁愛村斗苑路芳苑段211號,(04)8983264,http://www.fyjhs.chc.edu.tw
彰化縣,二水鄉,國中,74529,縣立二水國中,偏遠,[530]彰化縣二水鄉源泉村月眉巷13號,(04)8791557,http://www.esjh.chc.edu.tw
彰化縣,溪州鄉,國中,74533,縣立溪陽國中,偏遠,[524]彰化縣溪州鄉成功村下柑路1號,(04)8802151,http://163.23.101.189
彰化縣,二林鎮,國中,74537,縣立原斗國中,偏遠,[526]彰化縣二林鎮原斗里原竹路872號,(04)8904600,http://www.ydjh.chc.edu.tw
南投縣,南投市,國中,84504,縣立鳳鳴國中,偏遠,[540]南投縣南投市鳳鳴里八卦路896號,(049)2291831,http://www.fmjhs.ntct.edu.tw
南投縣,竹山鎮,國中,84513,縣立社寮國中,偏遠,[557]南投縣竹山鎮集山路一段1729號,(049)2622010,http://www.sljh.ntct.edu.tw
南投縣,竹山鎮,國中,84514,縣立瑞竹國中,偏遠,[557]南投縣竹山鎮瑞竹里瑞東巷20號,(049)2711014,http://ms1.rujhs.ntct.edu.tw
南投縣,集集鎮,國中,84515,縣立集集國中,偏遠,[552]南投縣集集鎮集集里成功路200號,(049)2762013,http://www.chijhs.ntct.edu.tw
南投縣,名間鄉,國中,84517,縣立三光國中,偏遠,[551]南投縣名間鄉新光村名山路50號,(049)2732074,http://www.sgjh.ntct.edu.tw
南投縣,鹿谷鄉,國中,84518,縣立鹿谷國中,偏遠,[558]南投縣鹿谷鄉彰雅村仁義路94之1號,(049)2752001,http://www.lkjh.ntct.edu.tw
南投縣,鹿谷鄉,國中,84519,縣立瑞峰國中,偏遠,[558]南投縣鹿谷鄉仁愛路154之1號,(049)2671712,http://www.rfjhs.ntct.edu.tw
南投縣,中寮鄉,國中,84520,縣立中寮國中,偏遠,[541]南投縣中寮鄉復興村初中巷50號,(049)2691247,http://www.cljh.ntct.edu.tw/bin/home.php
南投縣,中寮鄉,國中,84521,縣立爽文國中,偏遠,[541]南投縣中寮鄉爽文村4 鄰竹坪巷40號,(049)2601030,http://163.22.78.1
南投縣,魚池鄉,國中,84522,縣立魚池國中,偏遠,[555]南投縣魚池鄉魚池村魚池街441-6號,(049)2895527,http://www.ycjhs.ntct.edu.tw
南投縣,魚池鄉,國中,84523,縣立明潭國中,偏遠,[555]南投縣魚池鄉水社村中山路190號,(049)2855145,http://www.mtjhs.ntct.edu.tw
南投縣,國姓鄉,國中,84524,縣立國姓國中,偏遠,[544]南投縣國姓鄉石門村國姓路237號,(049)2721144,http://www.khjh.ntct.edu.tw
南投縣,國姓鄉,國中,84525,縣立北梅國中,偏遠,[544]南投縣國姓鄉北港村國姓路62號,(049)2461004,http://www.bmjh.ntct.edu.tw
南投縣,國姓鄉,國中,84526,縣立北山國中,偏遠,[544]南投縣國姓鄉北山村中正路四段157號,(049)2451028#26,http://www.bsjh.ntct.edu.tw
南投縣,水里鄉,國中,84528,縣立民和國中,偏遠,[553]南投縣水里鄉民和村忠信巷116號,(049)2741138,http://www.mhjhs.ntct.edu.tw
南投縣,信義鄉,國中,84529,縣立信義國中,偏遠,[556]南投縣信義鄉明德村玉山路20號,(049)2791129,http://ms1.hyjhs.ntct.edu.tw
南投縣,信義鄉,國中,84530,縣立同富國中,偏遠,[556]南投縣信義鄉同富村同和巷7號,(049)2701317,http://www.tfjhs.ntct.edu.tw
南投縣,仁愛鄉,國中,84531,縣立仁愛國中,偏遠,[546]南投縣仁愛鄉大同村信義巷28號,(049)2802206,http://www.jyjh.ntct.edu.tw
雲林縣,麥寮鄉,附設國中,94307,縣立麥寮高中,偏遠,[638]雲林縣麥寮鄉中興路310號,(05)6932050,http://www.mljh.ylc.edu.tw
雲林縣,四湖鄉,國中,94504,縣立飛沙國中,偏遠,[654]雲林縣四湖鄉飛沙村大同路81號,(05)7723218,http://www.fsjh.ylc.edu.tw
雲林縣,四湖鄉,國中,94505,縣立四湖國中,偏遠,[654]雲林縣四湖鄉湖西村中正路766號,(05)7872040,http://www.shjh.ylc.edu.tw
雲林縣,水林鄉,國中,94506,縣立水林國中,偏遠,[652]雲林縣水林鄉水北村水林路2號,(05)7852618,http://www.sljs.ylc.edu.tw
雲林縣,褒忠鄉,國中,94509,縣立褒忠國中,偏遠,[634]雲林縣褒忠鄉中勝路62號,(05)6972056,http://www.pcjh.ylc.edu.tw
雲林縣,東勢鄉,國中,94513,縣立東勢國中,偏遠,[635]雲林縣東勢鄉東榮路65號,(05)6991035,http://www.tsjhs.ylc.edu.tw
雲林縣,元長鄉,國中,94514,縣立元長國中,偏遠,[655]雲林縣元長鄉元南路16號,(05)7882012,http://www.yjjh.ylc.edu.tw
雲林縣,口湖鄉,國中,94522,縣立宜梧國中,偏遠,[653]雲林縣口湖鄉梧南村光明路1號,(05)7907254,http://www.ywjh.ylc.edu.tw
雲林縣,口湖鄉,國中,94523,縣立口湖國中,偏遠,[653]雲林縣口湖鄉湖東村3鄰文明路133巷20號,(05)7892027,http://www.khjh.ylc.edu.tw
雲林縣,臺西鄉,國中,94524,縣立臺西國中,偏遠,[636]雲林縣臺西鄉中山路408號,(05)6982047,http://www.tsjh.ylc.edu.tw
雲林縣,水林鄉,國中,94526,縣立蔦松國中,偏遠,[652]雲林縣水林鄉松北路1之1號,(05)7841801,http://www.nsjh.ylc.edu.tw
雲林縣,土庫鎮,國中,94528,縣立馬光國中,偏遠,[633]雲林縣土庫鎮馬光里和平街101號,(05)6653587,http://www.mkjh.ylc.edu.tw
雲林縣,林內鄉,國中,94530,縣立林內國中,偏遠,[643]雲林縣林內鄉烏麻村長源200號,(05)5899306,http://www.lnjh.ylc.edu.tw
雲林縣,古坑鄉,國中,94544,縣立樟湖生態國中(小),特偏,[646]雲林縣古坑鄉石橋50-2號,(05)5811044,http://sites.google.com/site/newjhanghu/
嘉義縣,布袋鎮,國中,104503,縣立布袋國中,偏遠,[625]嘉義縣布袋鎮光復里六棟寮40號,(05)3472044,http://www.ptjh.cyc.edu.tw
嘉義縣,東石鄉,國中,104504,縣立過溝國中,偏遠,[614]嘉義縣東石鄉西崙村438號,(05)3451005,http://www.kkjh.cyc.edu.tw
嘉義縣,民雄鄉,國中,104508,縣立大吉國中,偏遠,[621]嘉義縣民雄鄉大崎村內埔仔2之1號,(05)2211651,http://www.djjh.cyc.edu.tw
嘉義縣,六腳鄉,國中,104509,縣立六嘉國中,偏遠,[615]嘉義縣六腳鄉蒜頭村樹仁路1號,(05)3801215,http://www.ljjh.cyc.edu.tw
嘉義縣,溪口鄉,國中,104513,縣立溪口國中,偏遠,[623]嘉義縣溪口鄉坪頂村中正東路103號,(05)2691050,http://www.ckjh.cyc.edu.tw
嘉義縣,東石鄉,國中,104515,縣立東榮國中,偏遠,[614]嘉義縣東石鄉永屯村39之2號,(05)3733803,http://www.drjh.cyc.edu.tw
嘉義縣,水上鄉,國中,104517,縣立忠和國中,偏遠,[608]嘉義縣水上鄉忠和村6之2號,(05)2891026,http://www.jhjh.cyc.edu.tw
嘉義縣,竹崎鄉,國中,104520,縣立昇平國中,偏遠,[604]嘉義縣竹崎鄉內埔村元興路138號,(05)2541041,http://www.spjh.cyc.edu.tw
嘉義縣,義竹鄉,國中,104521,縣立義竹國中,偏遠,[624]嘉義縣義竹鄉岸腳村59之2號,(05)3412025,http://www.icjh.cyc.edu.tw
嘉義縣,番路鄉,國中,104522,縣立民和國中,偏遠,[602]嘉義縣番路鄉下坑村菜公店30號,(05)2591109,http://www.mhjh.cyc.edu.tw
嘉義縣,梅山鄉,國中,104523,縣立梅山國中,偏遠,[603]嘉義縣梅山鄉梅北村健康街136號,(05)2621047,http://www.msjh.cyc.edu.tw
嘉義縣,大埔鄉,國中,104524,縣立大埔國中,特偏,[607]嘉義縣大埔鄉茄苳村竹圍仔5號,(05)2521014,http://www.dpjh.cyc.edu.tw
嘉義縣,阿里山鄉,國中,104526,縣立阿里山國中(小),特偏,[605]嘉義縣阿里山鄉樂野村1鄰31號,(05)2561180,http://www.aljes.cyc.edu.tw/
屏東縣,內埔鄉,附設國中,131311,私立美和高中,偏遠,[912]屏東縣內埔鄉美和村學人路323號,(08)7792045,http://www.mhsh.ptc.edu.tw
屏東縣,崁頂鄉,國中,131501,私立南榮國中,偏遠,[924]屏東縣崁頂鄉園寮村田寮路1之15號,(08)8631112,http://www.nzjh.ptc.edu.tw
屏東縣,枋寮鄉,附設國中,134321,縣立枋寮高中,偏遠,[940]屏東縣枋寮鄉新龍村義民路3號,(08)8782095,http://www.flhs.ptc.edu.tw
屏東縣,來義鄉,附設國中,134334,縣立來義高中,偏遠,[922]屏東縣來義鄉古樓村中正路147號,(08)7850086,http://www.lyhs.ptc.edu.tw
屏東縣,里港鄉,國中,134510,縣立里港國中,偏遠,[905]屏東縣里港鄉春林村里中路10號,(08)7752029,http://www.lgjh.ptc.edu.tw
屏東縣,高樹鄉,國中,134512,縣立高樹國中,偏遠,[906]屏東縣高樹鄉高樹村南興路4號,(08)7962034,http://www.ksjh.ptc.edu.tw
屏東縣,高樹鄉,國中,134513,縣立高泰國中,偏遠,[906]屏東縣高樹鄉泰山村產業路225號,(08)7956073,http://www.gtjh.ptc.edu.tw
屏東縣,內埔鄉,國中,134514,縣立內埔國中,偏遠,[912]屏東縣內埔鄉文化路262號,(08)7792013,http://www.npjh.ptc.edu.tw
屏東縣,內埔鄉,國中,134515,縣立崇文國中,偏遠,[912]屏東縣內埔鄉龍潭村昭勝路438號,(08)7701864,http://163.24.70.10/school/web/index.php
屏東縣,竹田鄉,國中,134516,縣立竹田國中,偏遠,[911]屏東縣竹田鄉西勢村龍門路26號,(08)7792024,http://www.jtjh.ptc.edu.tw
屏東縣,萬巒鄉,國中,134519,縣立萬巒國中,偏遠,[923]屏東縣萬巒鄉萬和村褒忠路5號,(08)7812537,http://www.wljh.ptc.edu.tw
屏東縣,新埤鄉,國中,134520,縣立新埤國中,偏遠,[925]屏東縣新埤鄉建功路190號,(08)7971014,http://www.spjh.ptc.edu.tw
屏東縣,新園鄉,國中,134523,縣立新園國中,偏遠,[932]屏東縣新園鄉仙吉村仙吉路111號,(08)8681020,http://www.syjh.ptc.edu.tw
屏東縣,林邊鄉,國中,134525,縣立林邊國中,偏遠,[927]屏東縣林邊鄉光林村和平路43號,(08)8752051,http://www.lpjh.ptc.edu.tw
屏東縣,南州鄉,國中,134526,縣立南州國中,偏遠,[926]屏東縣南州鄉人和路231號,(08)8642041,http://www.njjh.ptc.edu.tw
屏東縣,佳冬鄉,國中,134527,縣立佳冬國中,偏遠,[931]屏東縣佳冬鄉玉光村大同路1號,(08)8662041,http://www.jdjh.ptc.edu.tw
屏東縣,琉球鄉,國中,134528,縣立琉球國中,特偏,[929]屏東縣琉球鄉中正路158號,(08)8612509,http://www.lcjh.ptc.edu.tw
屏東縣,車城鄉,國中,134530,縣立車城國中,特偏,[944]屏東縣車城鄉新興路42號,(08)8821045,http://www.ccjhs.ptc.edu.tw
屏東縣,恆春鎮,國中,134531,縣立恆春國中,特偏,[946]屏東縣恆春鎮文化路79號,(08)8892039,http://www.hcjh.ptc.edu.tw
屏東縣,滿州鄉,國中,134532,縣立滿州國中,特偏,[947]屏東縣滿州鄉文化路32號,(08)8801106,http://www.mjjhs.ptc.edu.tw
屏東縣,瑪家鄉,國中,134533,縣立瑪家國中,偏遠,[903]屏東縣瑪家鄉三和村三和巷16號,(08)7994343,http://www.mjjh.ptc.edu.tw
屏東縣,泰武鄉,國中,134535,縣立泰武國中,偏遠,[921]屏東縣泰武鄉佳平路120號,(08)7831025,http://www.twjh.ptc.edu.tw
屏東縣,牡丹鄉,國中,134536,縣立牡丹國中,特偏,[945]屏東縣牡丹鄉石門村石門路1-1號,(08)8831014,http://www.mdjh.ptc.edu.tw
屏東縣,枋山鄉,國中,134537,縣立獅子國中,特偏,[941]屏東縣枋山鄉楓港村舊庄280號,(08)8771121,http://www.stjh.ptc.edu.tw
臺東縣,蘭嶼鄉,附設國中,144322,縣立蘭嶼高中,特偏,[952]臺東縣蘭嶼鄉椰油村37號,(089)732016,http://www.layjh.ttct.edu.tw
臺東縣,臺東市,國中,144501,縣立新生國中,偏遠,[950]臺東縣臺東市新生路641巷64號,(089)229121,http://www.hsjh.ttct.edu.tw
臺東縣,臺東市,國中,144502,縣立東海國中,偏遠,[950]臺東縣臺東市中華路一段719巷51號,(089)323271,http://www.thjh.ttct.edu.tw
臺東縣,臺東市,國中,144503,縣立寶桑國中,偏遠,[950]臺東縣臺東市仁七街1號,(089)220011,http://www.tcbjh.ttct.edu.tw
臺東縣,臺東市,國中,144504,縣立卑南國中,偏遠,[950]臺東縣臺東市更生北路766號,(089)224045,http://www.pnjh.ttct.edu.tw
臺東縣,臺東市,國中,144505,縣立豐田國中,偏遠,[950]臺東縣臺東市中興路四段611巷56弄27號,(089)380241,http://www.ftjh.ttct.edu.tw
臺東縣,臺東市,國中,144506,縣立知本國中,偏遠,[950]臺東縣臺東市青海路三段680號,(089)512203,http://www.cpjh.ttct.edu.tw
臺東縣,卑南鄉,國中,144507,縣立初鹿國中,偏遠,[954]臺東縣卑南鄉明峰村忠孝路2號,(08)9571125,http://www.cljh.ttct.edu.tw
臺東縣,鹿野鄉,國中,144508,縣立鹿野國中,偏遠,[955]臺東縣鹿野鄉龍田村光榮路38號,(089)551006,http://www.lyjh.ttct.edu.tw/front/bin/home.phtml
臺東縣,鹿野鄉,國中,144509,縣立瑞源國中,偏遠,[955]臺東縣鹿野鄉瑞和村瑞景路三段1號,(089)581425,http://www.ryjh.ttct.edu.tw
臺東縣,關山鎮,國中,144510,縣立關山國中,偏遠,[956]臺東縣關山鎮崁頂路22號,(089)811114,http://www.ksjh.ttct.edu.tw
臺東縣,池上鄉,國中,144511,縣立池上國中,偏遠,[958]臺東縣池上鄉新興村力學路88號,(089)862040,http://www.csjh.ttct.edu.tw
臺東縣,太麻里鄉,國中,144512,縣立大王國中,偏遠,[963]臺東縣太麻里鄉大王村633號,(089)781324,http://www.dwjh.ttct.edu.tw
臺東縣,太麻里鄉,國中,144513,縣立賓茂國中,偏遠,[963]臺東縣太麻里鄉金崙村77號,(089)771076,http://www.bmjh.ttct.edu.tw
臺東縣,大武鄉,國中,144514,縣立大武國中,特偏,[965]臺東縣大武鄉大武村復興路1號,(089)791023,http://www.twjh.ttct.edu.tw
臺東縣,東河鄉,國中,144515,縣立都蘭國中,偏遠,[959]臺東縣東河鄉都蘭村398號,(089)531234,http://www.tljh.ttct.edu.tw
臺東縣,東河鄉,國中,144516,縣立泰源國中,偏遠,[959]臺東縣東河鄉北源村三鄰30號,(089)891252,http://www.tyjh.ttct.edu.tw
臺東縣,成功鎮,國中,144517,縣立新港國中,偏遠,[961]臺東縣成功鎮中正路1號,(089)851034,http://www.hkjh.ttct.edu.tw
臺東縣,長濱鄉,國中,144518,縣立長濱國中,特偏,[962]臺東縣長濱鄉長濱村15鄰180號,(089)831017,http://www.cpjhs.ttct.edu.tw
臺東縣,延平鄉,國中,144519,縣立桃源國中,偏遠,[953]臺東縣延平鄉桃源村昇平路178號,(089)561255,http://www.tyjhs.ttct.edu.tw
臺東縣,海端鄉,國中,144520,縣立海端國中,偏遠,[957]臺東縣海端鄉海端村山界1號,(089)931390,http://hdjh.boe.ttct.edu.tw/front/bin/home.phtml
臺東縣,綠島鄉,國中,144521,縣立綠島國中,特偏,[951]臺東縣綠島鄉中寮村4號,(089)672506,http://www.ldjh.ttct.edu.tw
花蓮縣,玉里鎮,國中,154502,縣立玉東國中,偏遠,[981]花蓮縣玉里鎮松浦里松浦39號,(03)8851062,http://www.ytjh.hlc.edu.tw
花蓮縣,玉里鎮,國中,154503,縣立三民國中,偏遠,[981]花蓮縣玉里鎮三民里151號,(03)8841198,http://www.smjh.hlc.edu.tw
花蓮縣,壽豐鄉,國中,154512,縣立平和國中,偏遠,[974]花蓮縣壽豐鄉平和村平和路48號,(03)8661221,http://www.phjh.hlc.edu.tw
花蓮縣,光復鄉,國中,154514,縣立富源國中,偏遠,[976]花蓮縣光復鄉大富村中山路一段2號,(03)8811002,http://www.fyjh.hlc.edu.tw
花蓮縣,鳳林鎮,國中,154516,縣立萬榮國中,偏遠,[975]花蓮縣鳳林鎮長橋路1號,(03)8751264,http://www.wljh.hlc.edu.tw
花蓮縣,富里鄉,國中,154518,縣立富北國中,偏遠,[983]花蓮縣富里鄉新興村一鄰8號,(03)8821134,http://www.fbjh.hlc.edu.tw
花蓮縣,豐濱鄉,國中,154519,縣立豐濱國中,偏遠,[977]花蓮縣豐濱鄉光豐路26號,(03)8791159,http://www.fpjh.hlc.edu.tw/
花蓮縣,富里鄉,國中,154521,縣立東里國中,偏遠,[983]花蓮縣富里鄉東里村道化路82號,(03)8861174,http://www.tljh.hlc.edu.tw
澎湖縣,馬公市,國中,164502,縣立中正國中,偏遠,[880]澎湖縣馬公市光華里101號,(06)9211137,http://www.ccjh.phc.edu.tw
澎湖縣,馬公市,國中,164503,縣立澎南國中,偏遠,[880]澎湖縣馬公市五德里41號,(06)9951212,http://www.pnjh.phc.edu.tw
澎湖縣,湖西鄉,國中,164504,縣立湖西國中,偏遠,[885]澎湖縣湖西鄉湖西村43之1號,(06)9921929,http://www.hsjh.phc.edu.tw
澎湖縣,湖西鄉,國中,164505,縣立志清國中,偏遠,[885]澎湖縣湖西鄉許家村1之1號,(06)9214069,http://www.jcjh.phc.edu.tw
澎湖縣,白沙鄉,國中,164506,縣立鎮海國中,偏遠,[884]澎湖縣白沙鄉鎮海村60號,(06)9931311,http://www.jhjh.phc.edu.tw
澎湖縣,白沙鄉,國中,164507,縣立白沙國中,偏遠,[884]澎湖縣白沙鄉赤崁村294號,(06)9931006,http://www.psjh.phc.edu.tw
澎湖縣,白沙鄉,國中,164508,縣立吉貝國中,特偏,[884]澎湖縣白沙鄉吉貝村185號,(06)9911090,http://www.gbjh.phc.edu.tw
澎湖縣,西嶼鄉,國中,164509,縣立西嶼國中,偏遠,[881]澎湖縣西嶼鄉池東村213號,(06)9981110,http://www.hyjh.phc.edu.tw
澎湖縣,望安鄉,國中,164510,縣立望安國中,特偏,[882]澎湖縣望安鄉西安村36之1號,(06)9991007,http://www.wajh.phc.edu.tw
澎湖縣,望安鄉,國中,164511,縣立將澳國中,特偏,[882]澎湖縣望安鄉將軍村12之7號,(06)9902079,http://www.jajh.phc.edu.tw
澎湖縣,七美鄉,國中,164512,縣立七美國中,特偏,[883]澎湖縣七美鄉中和村4號,(06)9971019,http://www.cmjh.phc.edu.tw
澎湖縣,白沙鄉,國中,164514,縣立鳥嶼國中,特偏,[884]澎湖縣白沙鄉鳥嶼村1號,(06)9916260,http://www.nyjh.phc.edu.tw
基隆市,中正區,附設國中,173314,市立八斗高中,偏遠,[202]基隆市中正區新豐街100號,(02)24692366,http://www.bdjh.kl.edu.tw
新竹市,香山區,國中,183511,市立內湖國中,偏遠,[300]新竹市香山區五福路一段12號,(03)5373484,http://www.nhjhs.hc.edu.tw
嘉義市,西區,國中,203508,市立北園國中,偏遠,[600]嘉義市西區北湖里北社尾路166巷12號,(05)2374673,http://163.27.36.1
金門縣,烈嶼鄉,國中,714505,縣立烈嶼國中,偏遠,[894]金門縣烈嶼鄉后井38號,(082)362425,http://www.lyjh.km.edu.tw
連江縣,南竿鄉,國中,724501,縣立介壽國中(小),偏遠,[209]連江縣南竿鄉介壽村13號,(0836)22192,http://www.jsps.matsu.edu.tw
連江縣,南竿鄉,國中,724502,縣立中正國中(小),偏遠,[209]連江縣南竿鄉馬祖村4號,(0836)22196,http://www.jjps.matsu.edu.tw
連江縣,北竿鄉,國中,724503,縣立中山國中,偏遠,[210]連江縣北竿鄉芹壁村84號,(0836)55223,http://www.jshjh.matsu.edu.tw
連江縣,莒光鄉,國中,724504,縣立敬恆國中(小),偏遠,[211]連江縣莒光鄉青帆村19號,(0836)88179,http://www.jhjh.matsu.edu.tw
連江縣,東引鄉,國中,724505,縣立東引國中(小),偏遠,[212]連江縣東引鄉中柳村94號,(0836)77210,http://www.tyjh.matsu.edu.tw